{"type":"FeatureCollection","features":[{"type":"Feature","geometry":{"type":"Point","coordinates":[73.793131,19.99361]},"properties":{"Name":"Shree Sai Cardiac Ambulance Services","Address":"Wadala Naka Mumbai Agra Road, Nashik","locationConfidence":"locality-match","Rating":"4.5"}},{"type":"Feature","geometry":{"type":"Point","coordinates":[73.800372,19.992651]},"properties":{"Name":"Shree Sai Samarth Ambulance Service","Address":"Mumbai Agra Road Dwarka, Nashik","locationConfidence":"locality-match","Rating":"4.7"}},{"type":"Feature","geometry":{"type":"Point","coordinates":[73.794713,20.00666]},"properties":{"Name":"Shri Samarth Ambulance Service","Address":"Near By Jatra Hotel Panchavati, Nashik","locationConfidence":"locality-match","Rating":"4.7"}},{"type":"Feature","geometry":{"type":"Point","coordinates":[73.782077,19.987542]},"properties":{"Name":"Manavata 365","Address":"Mumbai Agra Highway Mumbai Naka, Nashik","locationConfidence":"locality-match","Rating":"4.9"}},{"type":"Feature","geometry":{"type":"Point","coordinates":[73.787169,20.001971]},"properties":{"Name":"Anant Ambulance Services","Address":"Safari Malti Specialists Hospital Shalimar, Nashik","locationConfidence":"locality-match","Rating":"4.4"}},{"type":"Feature","geometry":{"type":"Point","coordinates":[73.796534,20.006783]},"properties":{"Name":"Supperrtech Superspeciality Critical Care And Plastic Surgery Center","Address":"Mumbai Agra Highway Panchavati, Nashik","locationConfidence":"locality-match","Rating":"5.0"}},{"type":"Feature","geometry":{"type":"Point","coordinates":[73.796429,20.006771]},"properties":{"Name":"SUKHKARTA AMBULANCE SERVICE","Address":"Mumbai Agra Road Panchavati, Nashik","locationConfidence":"locality-match","Rating":"5.0"}},{"type":"Feature","geometry":{"type":"Point","coordinates":[73.791876,20.009809]},"properties":{"Name":"Vijan Hospital Cardiology and Multi Superspeciality Centre","Address":"Dr Vijan Hospital Marg College Road, Nashik","locationConfidence":"locality-match","Rating":"4.5"}},{"type":"Feature","geometry":{"type":"Point","coordinates":[73.8279,19.956488]},"properties":{"Name":"Jairam Hospitals & Research Centre Pvt Ltd","Address":"Nashik Road Nashik Road, Nashik","locationConfidence":"locality-match","Rating":"4.3"}},{"type":"Feature","geometry":{"type":"Point","coordinates":[73.729318,19.99037]},"properties":{"Name":"Godavari Multispeciality Hospital","Address":"Satpur, Nashik","locationConfidence":"locality-match","Rating":"4.6"}},{"type":"Feature","geometry":{"type":"Point","coordinates":[73.795131,20.006275]},"properties":{"Name":"Shree Ashtavinayak Ambulance Service","Address":"Panchavati, Nashik","locationConfidence":"locality-match","Rating":"4.4"}},{"type":"Feature","geometry":{"type":"Point","coordinates":[73.77081,19.957785]},"properties":{"Name":"Vakratunda Multispeciality Hospital","Address":"Vakratunda Multispeciality Hospital Pathardi Phata, Nashik","locationConfidence":"locality-match","Rating":"4.2"}},{"type":"Feature","geometry":{"type":"Point","coordinates":[73.765393,20.006916]},"properties":{"Name":"Rajebahadur Hospital And Research Center Pvt Ltd","Address":"Rajebahadur Colony Tilak Road, Nashik","locationConfidence":"approximate","Rating":"4.5"}},{"type":"Feature","geometry":{"type":"Point","coordinates":[73.782886,19.989377]},"properties":{"Name":"Wockhardt Hospital","Address":"Mumbai Agra Road Mumbai Naka, Nashik","locationConfidence":"locality-match","Rating":"4.7"}},{"type":"Feature","geometry":{"type":"Point","coordinates":[73.782503,19.98985]},"properties":{"Name":"Shree Saibaba Heart Institute & Research Centre","Address":"Mumbai Naka, Nashik","locationConfidence":"locality-match","Rating":"4.7"}},{"type":"Feature","geometry":{"type":"Point","coordinates":[73.754751,20.014213]},"properties":{"Name":"Lotus Institute Of Haematology & Oncology","Address":"Pumping Station Road Gangapur Road, Nashik","locationConfidence":"locality-match","Rating":"4.8"}},{"type":"Feature","geometry":{"type":"Point","coordinates":[73.827536,19.955463]},"properties":{"Name":"Magnum Multispeciality Hospital","Address":"Pune Road Nashik Road, Nashik","locationConfidence":"locality-match","Rating":"4.7"}},{"type":"Feature","geometry":{"type":"Point","coordinates":[73.988404,19.841712]},"properties":{"Name":"Matoshree Accident & Maternity Hospital","Address":"Old Khaparale Road Sinnar, Nashik","locationConfidence":"locality-match","Rating":"4.8"}},{"type":"Feature","geometry":{"type":"Point","coordinates":[73.774061,19.993509]},"properties":{"Name":"Sopan Hospital","Address":"Shrihari Kute Marg Tidke Colony, Nashik","locationConfidence":"locality-match","Rating":"4.4"}},{"type":"Feature","geometry":{"type":"Point","coordinates":[73.791889,20.009088]},"properties":{"Name":"Dr. Vinod M Vijan","Address":"College Road, Nashik","locationConfidence":"locality-match","Rating":"4.7"}},{"type":"Feature","geometry":{"type":"Point","coordinates":[73.592437,19.952147]},"properties":{"Name":"City Care Hospital","Address":"Nashik Pune Road Dwarka, Nashik","locationConfidence":"locality-match","Rating":"4.2"}},{"type":"Feature","geometry":{"type":"Point","coordinates":[73.595517,19.953674]},"properties":{"Name":"Suvichar Hospital","Address":"Ganesh Baba Nagar Nashik Pune Road Dwarka, Nashik","locationConfidence":"locality-match","Rating":"4.1"}},{"type":"Feature","geometry":{"type":"Point","coordinates":[73.783706,19.989023]},"properties":{"Name":"Cns Hospital","Address":"Mumbai Naka Road Mumbai Naka, Nashik","locationConfidence":"locality-match","Rating":"4.4"}},{"type":"Feature","geometry":{"type":"Point","coordinates":[73.774565,19.999689]},"properties":{"Name":"Sushrut Hospital","Address":"Sharanpur Road Ashok Stambh, Nashik","locationConfidence":"locality-match","Rating":"4.2"}},{"type":"Feature","geometry":{"type":"Point","coordinates":[73.787231,19.998268]},"properties":{"Name":"Raddiant Plus Hospital","Address":"Shreyas Plaza Bhabha Nagar, Nashik","locationConfidence":"approximate","Rating":"4.7"}},{"type":"Feature","geometry":{"type":"Point","coordinates":[73.795917,20.005467]},"properties":{"Name":"Sudharm Nursing Home","Address":"Road Panchavati, Nashik","locationConfidence":"locality-match","Rating":"4.3"}},{"type":"Feature","geometry":{"type":"Point","coordinates":[73.755903,20.013836]},"properties":{"Name":"Sukhatme Maternity Home","Address":"Gurudutta Nagar Gangapur Road, Nashik","locationConfidence":"locality-match","Rating":"4.7"}},{"type":"Feature","geometry":{"type":"Point","coordinates":[73.794049,19.973276]},"properties":{"Name":"Mujju Rangrej Ambulance","Address":"Shriramwadi Ghoti, Nashik","locationConfidence":"approximate","Rating":"5.0"}},{"type":"Feature","geometry":{"type":"Point","coordinates":[73.778014,19.98617]},"properties":{"Name":"Dr. Kshama Aghor","Address":"Raj Mata Jijau Marg Govind Nagar, Nashik","locationConfidence":"locality-match","Rating":"4.6"}},{"type":"Feature","geometry":{"type":"Point","coordinates":[73.774658,19.999245]},"properties":{"Name":"Soham Hospital & Medical Foundation Pvt Ltd","Address":"Sharanpur Road Sharanpur, Nashik","locationConfidence":"locality-match","Rating":"3.8"}},{"type":"Feature","geometry":{"type":"Point","coordinates":[73.989514,19.839555]},"properties":{"Name":"Shivai Hospital","Address":"Duber Naka Sinnar, Nashik","locationConfidence":"locality-match","Rating":"4.2"}},{"type":"Feature","geometry":{"type":"Point","coordinates":[73.795849,20.006084]},"properties":{"Name":"Om Clinic","Address":"Anand Prem Height Dindori Naka Panchavati, Nashik","locationConfidence":"locality-match","Rating":"4.9"}},{"type":"Feature","geometry":{"type":"Point","coordinates":[73.780513,19.975855]},"properties":{"Name":"Swastik Hospital","Address":"Opposite Baba Mangal Karyalay Pimpalgaon Baswant, Nashik","locationConfidence":"approximate","Rating":"4.9"}},{"type":"Feature","geometry":{"type":"Point","coordinates":[73.789194,19.996309]},"properties":{"Name":"Dhanvantari Multispeciality Hospital","Address":"Mumbai Agra Highway Pimpalgaon Baswant, Nashik","locationConfidence":"approximate","Rating":"4.5"}},{"type":"Feature","geometry":{"type":"Point","coordinates":[73.77127,19.957549]},"properties":{"Name":"Chhatrapati Ambulance 24by7 Ambulance Services","Address":"Pathardi Phata Dwarka, Nashik","locationConfidence":"locality-match","Rating":"5.0"}},{"type":"Feature","geometry":{"type":"Point","coordinates":[73.7898,19.9975]},"properties":{"Name":"Sahara Hospital","Address":"Samiti Complex Kalachowki, Nashik","locationConfidence":"approximate","Rating":"4.1"}},{"type":"Feature","geometry":{"type":"Point","coordinates":[73.780061,20.016034]},"properties":{"Name":"Metro Hospital","Address":"Wadala Road, Nashik","locationConfidence":"approximate","Rating":"4.2"}},{"type":"Feature","geometry":{"type":"Point","coordinates":[73.827754,19.957662]},"properties":{"Name":"True Care Multispecialty Hospital","Address":"Bhagur Road Nashik Road, Nashik","locationConfidence":"locality-match","Rating":"4.3"}},{"type":"Feature","geometry":{"type":"Point","coordinates":[73.989474,19.838173]},"properties":{"Name":"Ugale Hospital Accident and Maternity","Address":"Duber Naka Sinnar, Nashik","locationConfidence":"locality-match","Rating":"4.1"}},{"type":"Feature","geometry":{"type":"Point","coordinates":[73.791721,19.9975]},"properties":{"Name":"Gupte Hospital","Address":"Gole Colony, Nashik","locationConfidence":"approximate","Rating":"4.2"}},{"type":"Feature","geometry":{"type":"Point","coordinates":[73.988251,19.841309]},"properties":{"Name":"Ekvira Aai Ambulance Services","Address":"Sinnar Shirdi Road Sinnar, Nashik","locationConfidence":"locality-match","Rating":"4.6"}},{"type":"Feature","geometry":{"type":"Point","coordinates":[73.805155,20.007574]},"properties":{"Name":"Audumbar Hospital","Address":"Niphad, Nashik","locationConfidence":"approximate","Rating":"3.8"}},{"type":"Feature","geometry":{"type":"Point","coordinates":[73.770407,20.004982]},"properties":{"Name":"J P Ambulance Services","Address":"Jayshriram A Row House Nashik Main Road, Nashik","locationConfidence":"approximate","Rating":"4.7"}},{"type":"Feature","geometry":{"type":"Point","coordinates":[74.244583,20.331625]},"properties":{"Name":"Sathe Ambulance Services","Address":"Mumbai Agra Road Chandwad, Nashik","locationConfidence":"locality-match","Rating":"4.0"}},{"type":"Feature","geometry":{"type":"Point","coordinates":[73.786627,19.988324]},"properties":{"Name":"Om Multispeciality Hospital","Address":"Mumbai Agra Highway Chinchkhed, Nashik","locationConfidence":"approximate","Rating":"4.4"}},{"type":"Feature","geometry":{"type":"Point","coordinates":[73.777696,19.985312]},"properties":{"Name":"Panacea Computer handak ConsultancyNavigation Joint Replacement Centre","Address":"Mumbai Agra Highway-Rajmata Jijau Marg Govind Nagar, Nashik","locationConfidence":"locality-match","Rating":"4.4"}},{"type":"Feature","geometry":{"type":"Point","coordinates":[73.788628,19.995339]},"properties":{"Name":"Gramin Rugnalay","Address":"Niphad, Nashik","locationConfidence":"approximate","Rating":"4.5"}},{"type":"Feature","geometry":{"type":"Point","coordinates":[73.792544,19.994422]},"properties":{"Name":"Pratham Multispeciality Hospital","Address":"Mumbai-Agra Highway Lekha Nagar, Nashik","locationConfidence":"approximate","Rating":"3.5"}},{"type":"Feature","geometry":{"type":"Point","coordinates":[73.810211,20.01089]},"properties":{"Name":"Niphad Nagari Patsanstha","Address":"Niphad Road Niphad, Nashik","locationConfidence":"approximate","Rating":"4.5"}},{"type":"Feature","geometry":{"type":"Point","coordinates":[73.783612,19.988391]},"properties":{"Name":"Shri Sparsh Hospital","Address":"Mumbai Naka, Nashik","locationConfidence":"locality-match","Rating":"4.6"}},{"type":"Feature","geometry":{"type":"Point","coordinates":[73.811369,19.984277]},"properties":{"Name":"Tirupati Multispeciality Hospital Pvt Ltd","Address":"Chunchale Road Nashik Main Road, Nashik","locationConfidence":"approximate","Rating":"4.4"}},{"type":"Feature","geometry":{"type":"Point","coordinates":[73.792653,20.005746]},"properties":{"Name":"Sai Ambulance","Address":"Krantinagar Panchavati, Nashik","locationConfidence":"locality-match","Rating":"4.5"}},{"type":"Feature","geometry":{"type":"Point","coordinates":[73.784751,20.01383]},"properties":{"Name":"Dr. Nitin Shahir (Shree Dhanvantari Hospital)","Address":"Dhodambe, Nashik","locationConfidence":"approximate","Rating":"4.9"}},{"type":"Feature","geometry":{"type":"Point","coordinates":[73.804125,19.982423]},"properties":{"Name":"Spandan Hospital","Address":"120kilo. Rohit Vispute Marg, Nandgaon","locationConfidence":"approximate","Rating":"4.7"}},{"type":"Feature","geometry":{"type":"Point","coordinates":[73.790972,19.996678]},"properties":{"Name":"Shreeyas Accident & Multispeciality Hospital","Address":"Service Road Indira Nagar Nashik, Nashik","locationConfidence":"approximate","Rating":"3.6"}},{"type":"Feature","geometry":{"type":"Point","coordinates":[73.989987,19.840289]},"properties":{"Name":"Tulja Bhawani Ambulance Services","Address":"Near Civil Hospital Sinnar Sinnar, Nashik","locationConfidence":"locality-match","Rating":"4.9"}},{"type":"Feature","geometry":{"type":"Point","coordinates":[73.846553,20.202879]},"properties":{"Name":"Arpita Ambulance Services","Address":"Dindori Road MERI Colony, Nashik","locationConfidence":"locality-match","Rating":"4.3"}},{"type":"Feature","geometry":{"type":"Point","coordinates":[73.808862,20.017562]},"properties":{"Name":"Sukhkarta Ambulance Adgaon","Address":"Vasantdadanagar, Nashik","locationConfidence":"approximate","Rating":"5.0"}},{"type":"Feature","geometry":{"type":"Point","coordinates":[73.794242,20.005406]},"properties":{"Name":"Navajeevan Hospital","Address":"Panchavati, Nashik","locationConfidence":"locality-match","Rating":"4.2"}},{"type":"Feature","geometry":{"type":"Point","coordinates":[73.7898,19.9975]},"properties":{"Name":"Pawars Ambulance","Address":"Vijay Nagar, Nashik","locationConfidence":"approximate","Rating":"4.8"}},{"type":"Feature","geometry":{"type":"Point","coordinates":[73.782411,19.988504]},"properties":{"Name":"Matoshree Ambulance Service","Address":"Dipali Nagar Mumbai Naka, Nashik","locationConfidence":"locality-match","Rating":"4.7"}},{"type":"Feature","geometry":{"type":"Point","coordinates":[73.796466,20.006229]},"properties":{"Name":"Shri SAI Samarth Ambulance","Address":"Peth Road Panchavati, Nashik","locationConfidence":"locality-match","Rating":"4.7"}},{"type":"Feature","geometry":{"type":"Point","coordinates":[73.791295,20.002452]},"properties":{"Name":"Lasalgaon Multispeciality Hospital","Address":"Station Road Lasalgaon Lasalgaon, Nashik","locationConfidence":"approximate","Rating":"4.3"}},{"type":"Feature","geometry":{"type":"Point","coordinates":[73.794464,19.992891]},"properties":{"Name":"Gopal Ambulance Services","Address":"Ganpati Hospital Budruk Ghoti, Nashik","locationConfidence":"approximate","Rating":"4.3"}},{"type":"Feature","geometry":{"type":"Point","coordinates":[73.754251,20.015433]},"properties":{"Name":"Bhagawati Ambulance Services","Address":"Gangapur Road Satpur, Nashik","locationConfidence":"locality-match","Rating":"5.0"}},{"type":"Feature","geometry":{"type":"Point","coordinates":[73.796871,19.9947]},"properties":{"Name":"Saifee Ambulance Corps","Address":"Takli Road Dwarka, Nashik","locationConfidence":"locality-match","Rating":"4.6"}},{"type":"Feature","geometry":{"type":"Point","coordinates":[73.82738,19.959477]},"properties":{"Name":"AAI Ambulance Service","Address":"Parth Society Nashik Road, Nashik","locationConfidence":"locality-match","Rating":"4.8"}},{"type":"Feature","geometry":{"type":"Point","coordinates":[73.793228,20.003631]},"properties":{"Name":"New Bajrang Mitr Mandal Ambulance Service Ghoti","Address":"Vasudev Chowk Ghoti, Nashik","locationConfidence":"approximate","Rating":"4.6"}},{"type":"Feature","geometry":{"type":"Point","coordinates":[73.78381,19.988092]},"properties":{"Name":"Shri Ambulance Services","Address":"Sai Diagnostics Centre Mumbai Naka, Nashik","locationConfidence":"locality-match","Rating":"4.6"}},{"type":"Feature","geometry":{"type":"Point","coordinates":[73.794181,20.004237]},"properties":{"Name":"Niramay Multispeciality Hospital","Address":"Dindori Road Panchavati, Nashik","locationConfidence":"locality-match","Rating":"4.5"}},{"type":"Feature","geometry":{"type":"Point","coordinates":[73.782438,20.02024]},"properties":{"Name":"Nandu Jadhav Ambulance","Address":"Mari Mata Temple Budruk Ghoti, Nashik","locationConfidence":"approximate","Rating":"4.5"}},{"type":"Feature","geometry":{"type":"Point","coordinates":[73.730297,19.99021]},"properties":{"Name":"Sankalp Hospital Ambulance","Address":"Shivaji Nagar Satpur, Nashik","locationConfidence":"locality-match","Rating":"4.5"}},{"type":"Feature","geometry":{"type":"Point","coordinates":[73.783689,19.992688]},"properties":{"Name":"Shree Ashtavinayak Ambulance Service","Address":"Tambat Lane, Nashik","locationConfidence":"approximate","Rating":"4.5"}},{"type":"Feature","geometry":{"type":"Point","coordinates":[73.813029,19.987891]},"properties":{"Name":"Tukaram Chavan Ambulance","Address":"Budruk Ghoti, Nashik","locationConfidence":"approximate","Rating":"5.0"}},{"type":"Feature","geometry":{"type":"Point","coordinates":[73.786413,20.005689]},"properties":{"Name":"Pawar Ambulance","Address":"Mumbai Puna Highway Vijay Nagar, Nashik","locationConfidence":"approximate","Rating":"5.0"}},{"type":"Feature","geometry":{"type":"Point","coordinates":[73.780205,19.9871]},"properties":{"Name":"North Panacea Llp","Address":"Rajmata Jijau Marg Ring Road Govind Nagar, Nashik","locationConfidence":"locality-match","Rating":"4.3"}},{"type":"Feature","geometry":{"type":"Point","coordinates":[73.779502,19.991273]},"properties":{"Name":"Name Foundation","Address":"Main Fire Brigade Bulding Nashik Main Road, Nashik","locationConfidence":"approximate","Rating":"4.3"}},{"type":"Feature","geometry":{"type":"Point","coordinates":[73.989401,19.840238]},"properties":{"Name":"Prakash Ambulance Services","Address":"Sinnar Manegaon Sinnar, Nashik","locationConfidence":"locality-match","Rating":"4.0"}},{"type":"Feature","geometry":{"type":"Point","coordinates":[73.787952,19.991522]},"properties":{"Name":"Shivsai Ambulance","Address":"Pimpalgaon Baswant, Nashik","locationConfidence":"approximate","Rating":"3.7"}}]}