{"type":"FeatureCollection","features":[{"type":"Feature","geometry":{"type":"Point","coordinates":[73.852998,20.037363]},"properties":{"Taluka":"Nashik","Zone":"Panchavati","Category":"Hospital-Attached Blood Bank","Name":"NDMVPS Medical College And Hospital Blood Bank","Type":"Health","Rating":"4.5","Review Count":"8","Phone":"0253 222 0522","Address":"Hindustan Nagar, Vasantdadanagar, Adgaon, Nashik, Maharashtra 422003, India","Maps Link":"https://maps.google.com/?cid=1867038751620304873&g_mp=Cidnb29nbGUubWFwcy5wbGFjZXMudjEuUGxhY2VzLlNlYXJjaFRleHQQAhgEIAA"}},{"type":"Feature","geometry":{"type":"Point","coordinates":[73.787439,20.000542]},"properties":{"Taluka":"Nashik","Zone":"Panchavati","Category":"Hospital-Attached Blood Bank","Name":"Regional Referal Hospital Blood Bank","Type":"Health","Rating":"5","Review Count":"1","Phone":"0253 259 0962","Address":"2Q2P+6X6, Shalimar, Nashik, Maharashtra 422001, India","Maps Link":"https://maps.google.com/?cid=318067364691834360&g_mp=Cidnb29nbGUubWFwcy5wbGFjZXMudjEuUGxhY2VzLlNlYXJjaFRleHQQAhgEIAA"}},{"type":"Feature","geometry":{"type":"Point","coordinates":[73.7874293,20.0049402]},"properties":{"Taluka":"Nashik","Zone":"Panchavati","Category":"Private Blood Bank","Name":"Arpan Blood Centre","Type":"Health","Rating":"4.8","Review Count":"534","Phone":"0253 231 1358","Address":"Rd, opp. gavkari press, Ambedkar Colony, Raviwar Karanja, Panchavati, Nashik, Maharashtra 422001, India","Maps Link":"https://maps.google.com/?cid=10258778262691457372&g_mp=Cidnb29nbGUubWFwcy5wbGFjZXMudjEuUGxhY2VzLlNlYXJjaFRleHQQAhgEIAA","Blood Type":"Blood Banks"}},{"type":"Feature","geometry":{"type":"Point","coordinates":[73.8059333,20.0240218]},"properties":{"Taluka":"Nashik","Zone":"Panchavati","Category":"Private Blood Bank","Name":"Panchavati Blood Centre","Type":"Health","Rating":"5","Review Count":"6","Address":"Third Floor, Sangale Hospital, Sambhaji Chowk Swastik Nagar, Dindori Rd, behind Tarwala Nagar, Panchavati, Lamkhade Mala, Nashik, Maharashtra 422003, India","Maps Link":"https://maps.google.com/?cid=12823939251113437759&g_mp=Cidnb29nbGUubWFwcy5wbGFjZXMudjEuUGxhY2VzLlNlYXJjaFRleHQQAhgEIAA"}},{"type":"Feature","geometry":{"type":"Point","coordinates":[73.778545,19.9975247]},"properties":{"Taluka":"Nashik","Zone":"Nashik Central","Category":"Government Blood Bank","Name":"Metro Blood Bank - District (Civil) Hospital Nashik","Type":"Health","Rating":"3","Review Count":"2","Phone":"0253 231 8020","Address":"Civil Hospital, Trambakeshwar Rd, Police Staff Colony, Nashik, Maharashtra 422002, India","Maps Link":"https://maps.google.com/?cid=11100134456673382350&g_mp=Cidnb29nbGUubWFwcy5wbGFjZXMudjEuUGxhY2VzLlNlYXJjaFRleHQQAhgEIAA"}},{"type":"Feature","geometry":{"type":"Point","coordinates":[73.7701266,20.0088206]},"properties":{"Taluka":"Nashik","Zone":"Nashik Central","Category":"Private Blood Bank","Name":"Jankalyan Blood Bank","Type":"Health","Rating":"4.7","Review Count":"67","Address":"3, Gangapur Rd, Shree Nagar, Nashik, Maharashtra 422013, India","Maps Link":"https://maps.google.com/?cid=18223817867361421135&g_mp=Cidnb29nbGUubWFwcy5wbGFjZXMudjEuUGxhY2VzLlNlYXJjaFRleHQQAhgEIAA","Blood Type":"Blood Banks"}},{"type":"Feature","geometry":{"type":"Point","coordinates":[73.7825976,19.9846749]},"properties":{"Taluka":"Nashik","Zone":"Nashik Central","Category":"Private Blood Bank","Name":"Lifeline Blood Centre (Blood Bank)","Type":"Non-Profit Organization","Rating":"5","Review Count":"71","Address":"XQMM+V29, National Hwy 3 Service Rd, Mumbai Naka, Govind Nagar, Nashik, Maharashtra 422009, India","Maps Link":"https://maps.google.com/?cid=8440709394211183244&g_mp=Cidnb29nbGUubWFwcy5wbGFjZXMudjEuUGxhY2VzLlNlYXJjaFRleHQQAhgEIAA","Blood Type":"Fresh Frozen Plasma Blood Banks"}},{"type":"Feature","geometry":{"type":"Point","coordinates":[73.7832321,19.9915621]},"properties":{"Taluka":"Nashik","Zone":"Nashik Central","Category":"Private Blood Bank","Name":"Nashik Blood bank","Type":"Health","Rating":"5","Review Count":"1","Phone":"075077 71527","Address":"Office no. 503 under 5th floor, at srikalika plaza project, situated at, opposite KaliKamaMata Mandir, Shingada Talav, Mumbai Naka, Renuka Nagar, Nashik, Maharashtra 422001, India","Maps Link":"https://maps.google.com/?cid=3159044319380671730&g_mp=Cidnb29nbGUubWFwcy5wbGFjZXMudjEuUGxhY2VzLlNlYXJjaFRleHQQAhgEIAA"}},{"type":"Feature","geometry":{"type":"Point","coordinates":[73.7827293,19.9977457]},"properties":{"Taluka":"Nashik","Zone":"Nashik Central","Category":"Private Blood Bank","Name":"Navjeevan Blood Bank","Type":"Health","Rating":"3.6","Review Count":"16","Phone":"096044 96044","Address":"Maru Shopping Centre, Opp. Zilla Parishad, Trimbak Naka, Shalimar, Nashik, Maharashtra 422001, India","Maps Link":"https://maps.google.com/?cid=6376562498952638554&g_mp=Cidnb29nbGUubWFwcy5wbGFjZXMudjEuUGxhY2VzLlNlYXJjaFRleHQQAhgEIAA","Blood Type":"Blood Banks"}},{"type":"Feature","geometry":{"type":"Point","coordinates":[73.803969,19.9755924]},"properties":{"Taluka":"Nashik","Zone":"Nashik Central","Category":"Private Blood Bank","Name":"Sanjeevani Blood Centre","Type":"Health","Rating":"4.8","Review Count":"24","Phone":"0253 241 1888","Address":"Pujya Sri Sri Ravishankar Marg, Tagore Nagar, Nashik, Maharashtra 422006, India","Maps Link":"https://maps.google.com/?cid=590111531798845221&g_mp=Cidnb29nbGUubWFwcy5wbGFjZXMudjEuUGxhY2VzLlNlYXJjaFRleHQQAhgEIAA","Blood Type":"Blood Banks"}},{"type":"Feature","geometry":{"type":"Point","coordinates":[73.7898023,19.9974533]},"properties":{"Taluka":"Nashik","Zone":"Nashik Central","Category":"Private Blood Bank","Name":"Sos Diagnostic Centre & Blood Bank","Type":"Health","Review Count":"0","Phone":"+91 253 231 0907","Address":"Umiya Apartment, A Wing, opposite People Bank, Lokhand Bazar, Canada Corner, Nashik, Maharashtra 422005, India","Maps Link":"https://www.google.com/maps/place/?q=place_id:ChIJS-fyOgHr3TsR4DhPebtrMbU"}},{"type":"Feature","geometry":{"type":"Point","coordinates":[73.8379907,19.9498178]},"properties":{"Taluka":"Nashik","Zone":"Nashik Road","Category":"Hospital-Attached Blood Bank","Name":"J. D. C. Bytco Hospital Blood Bank","Type":"Health","Review Count":"0","Address":"Shahu Maharaj Path, Rajwada Nagar, Nashik Road, Nashik, Maharashtra 422101, India","Maps Link":"https://maps.google.com/?cid=15781911530323986937&g_mp=Cidnb29nbGUubWFwcy5wbGFjZXMudjEuUGxhY2VzLlNlYXJjaFRleHQQAhgEIAA"}},{"type":"Feature","geometry":{"type":"Point","coordinates":[73.7792945,19.9748536]},"properties":{"Taluka":"Nashik","Zone":"Satpur","Category":"Private Blood Bank","Name":"Samta Blood centre","Type":"Health","Rating":"3.9","Review Count":"11","Phone":"099759 97862","Address":"police station, next to new, Jakhadi Nagar, Indira Nagar, Nashik, Maharashtra 422009, India","Maps Link":"https://maps.google.com/?cid=4904265963543891708&g_mp=Cidnb29nbGUubWFwcy5wbGFjZXMudjEuUGxhY2VzLlNlYXJjaFRleHQQAhgEIAA","Blood Type":"Blood Banks"}},{"type":"Feature","geometry":{"type":"Point","coordinates":[73.827402,19.898153]},"properties":{"Taluka":"Nashik","Zone":"Devlali Camp & Deolali Gaon","Category":"Hospital-Attached Blood Bank","Name":"Sainik Aspatal Military Hospital Blood Bank","Type":"Health","Review Count":"0","Address":"Deolali Camp, Devlali, Maharashtra 422401, India","Maps Link":"https://maps.google.com/?cid=4835628028674731611&g_mp=Cidnb29nbGUubWFwcy5wbGFjZXMudjEuUGxhY2VzLlNlYXJjaFRleHQQAhgEIAA"}},{"type":"Feature","geometry":{"type":"Point","coordinates":[73.774707,19.992033]},"properties":{"Name":"Nashik Blood Bank","Address":"Tidke Colony Road Chandak Circle, Nashik","locationConfidence":"locality-match","Rating":"4.4","Blood Type":"Blood Banks"}},{"type":"Feature","geometry":{"type":"Point","coordinates":[73.777051,19.987461]},"properties":{"Name":"Upasani Blood Bank","Address":"Raviwar Karanja, Nashik","locationConfidence":"approximate","Rating":"4.7","Blood Type":"Blood Banks"}},{"type":"Feature","geometry":{"type":"Point","coordinates":[73.796504,20.013411]},"properties":{"Name":"Ansar Blood Bank","Address":"Malegaon Nashik Main Road, Nashik","locationConfidence":"approximate","Rating":"5.0","Blood Type":"Blood Banks"}},{"type":"Feature","geometry":{"type":"Point","coordinates":[73.988814,19.840395]},"properties":{"Name":"Sinner Blood Bank","Address":"Udyog Bhavan Sinnar Deshmukh Nagar, Nashik","locationConfidence":"locality-match","Rating":"4.5","Blood Type":"Blood Banks"}},{"type":"Feature","geometry":{"type":"Point","coordinates":[73.780147,20.006571]},"properties":{"Name":"S O S Blood Bank","Address":"Canada Corner Nashik Main Road, Nashik","locationConfidence":"approximate","Rating":"4.0","Blood Type":"Blood Banks"}}]}