{"type":"FeatureCollection","features":[{"type":"Feature","geometry":{"type":"Point","coordinates":[73.791542,20.00858]},"properties":{"Name":"Matruchaya Hostel and Mess","Address":"Vidya Vikas Circle Gangapur Road, Nashik","locationConfidence":"locality-match","Phone":"07411789973"}},{"type":"Feature","geometry":{"type":"Point","coordinates":[73.782874,19.980744]},"properties":{"Name":"Nashik Pg","Address":"Veer Sawarkar Marg Ashwini Nagar, Nashik","locationConfidence":"locality-match","Phone":"08401338538"}},{"type":"Feature","geometry":{"type":"Point","coordinates":[73.753417,20.014748]},"properties":{"Name":"Shripad Hostel","Address":"Shripad Hostel Gangapur Road, Nashik","locationConfidence":"locality-match","Phone":"08401198497"}},{"type":"Feature","geometry":{"type":"Point","coordinates":[73.780779,19.981911]},"properties":{"Name":"Sawant Stays","Address":"Sawata Mali Road Suchita Nagar, Nashik","locationConfidence":"locality-match","Phone":"08401567745"}},{"type":"Feature","geometry":{"type":"Point","coordinates":[73.773321,19.99152]},"properties":{"Name":"Mynest","Address":"New Tidke Colony Tidke Nagar, Nashik","locationConfidence":"locality-match","Phone":"08904582608"}},{"type":"Feature","geometry":{"type":"Point","coordinates":[73.760552,19.971948]},"properties":{"Name":"Prathamesh Hostel","Address":"SWAMI Vivekanand Nagar CIDCO, Nashik","locationConfidence":"locality-match","Phone":"07947065621"}},{"type":"Feature","geometry":{"type":"Point","coordinates":[73.785174,19.984121]},"properties":{"Name":"Indu Regency Gents Hostel","Address":"Kanhere Wadi CBS, Nashik","locationConfidence":"approximate","Phone":"08105648149"}},{"type":"Feature","geometry":{"type":"Point","coordinates":[73.799279,19.998968]},"properties":{"Name":"Pawar Boys Paying Guest Hostel","Address":"Shri Ram Nagar Pawan Nagar, Nashik","locationConfidence":"approximate","Phone":"09980709379"}},{"type":"Feature","geometry":{"type":"Point","coordinates":[73.754411,20.015146]},"properties":{"Name":"Hostello World Pvt Ltd","Address":"Old Gangapur Road Gangapur Road, Nashik","locationConfidence":"locality-match","Phone":"08460301113"}},{"type":"Feature","geometry":{"type":"Point","coordinates":[73.771512,19.99301]},"properties":{"Name":"Durvankur Vastigruh","Address":"Bajirao Nagar Tidke Colony, Nashik","locationConfidence":"locality-match","Phone":"09035077631"}},{"type":"Feature","geometry":{"type":"Point","coordinates":[73.769959,19.958999]},"properties":{"Name":"Sunrise Dormitory","Address":"Mumbai Agra Road Pathardi Phata, Nashik","locationConfidence":"locality-match","Phone":"07041844902"}},{"type":"Feature","geometry":{"type":"Point","coordinates":[73.729349,19.987951]},"properties":{"Name":"Om Sai Pg Rooms","Address":"MHB Colony Satpur Colony, Nashik","locationConfidence":"locality-match","Phone":"08123787447"}},{"type":"Feature","geometry":{"type":"Point","coordinates":[73.791654,20.008561]},"properties":{"Name":"Matruchaya Paying Guest House Mess","Address":"Vidya Vikas Circle Gangapur Road, Nashik","locationConfidence":"locality-match","Phone":"07947176300"}},{"type":"Feature","geometry":{"type":"Point","coordinates":[73.730102,19.989477]},"properties":{"Name":"Pg Room For Boys","Address":"Satpur Colony, Nashik","locationConfidence":"locality-match"}},{"type":"Feature","geometry":{"type":"Point","coordinates":[73.729663,19.988925]},"properties":{"Name":"Cot Basis","Address":"Satpur Trambakeshwar Highway Mhb Colony, Nashik","locationConfidence":"locality-match"}},{"type":"Feature","geometry":{"type":"Point","coordinates":[73.731229,19.991477]},"properties":{"Name":"Kuber Hostel","Address":"Trambakeshwar Highway Satpur, Nashik","locationConfidence":"locality-match"}},{"type":"Feature","geometry":{"type":"Point","coordinates":[73.785175,19.988773]},"properties":{"Name":"Panchavati Hostels","Address":"MG Road Mumbai Naka, Nashik","locationConfidence":"locality-match"}},{"type":"Feature","geometry":{"type":"Point","coordinates":[73.791421,20.008809]},"properties":{"Name":"Vastudeep Hostel And Mess","Address":"Krushi Nagar College Road, Nashik","locationConfidence":"locality-match"}},{"type":"Feature","geometry":{"type":"Point","coordinates":[73.793032,20.007715]},"properties":{"Name":"SR WAGH BOYS Hostel","Address":"Mumbai Agra Highway Panchavati, Nashik","locationConfidence":"locality-match"}},{"type":"Feature","geometry":{"type":"Point","coordinates":[73.795331,20.004459]},"properties":{"Name":"Omkareshwar Hostel","Address":"Omkareshwar Colony Mane Nagar Panchavati, Nashik","locationConfidence":"locality-match"}},{"type":"Feature","geometry":{"type":"Point","coordinates":[73.753236,20.015238]},"properties":{"Name":"Jdm Pg Boys Hostel","Address":"Near Dongre Ground Gangapur Road, Nashik","locationConfidence":"locality-match"}},{"type":"Feature","geometry":{"type":"Point","coordinates":[73.792779,20.007188]},"properties":{"Name":"K K Wagh Boys Hostel","Address":"Hirabai Haridas Vidyanagari Amrutdham Panchavati, Nashik","locationConfidence":"locality-match"}},{"type":"Feature","geometry":{"type":"Point","coordinates":[73.798508,19.977205]},"properties":{"Name":"Krishna Avenue boys hostel","Address":"Durga Nagar Amrutdham, Nashik","locationConfidence":"approximate"}},{"type":"Feature","geometry":{"type":"Point","coordinates":[74.243818,20.329751]},"properties":{"Name":"D & J Boyes Hostel","Address":"Bhairavnath Colony Chandwad, Nashik","locationConfidence":"locality-match"}},{"type":"Feature","geometry":{"type":"Point","coordinates":[73.74369,19.966553]},"properties":{"Name":"Shree Swami Samarth Boys Hostel","Address":"Ambad Link Road Murari Nagar, Nashik","locationConfidence":"locality-match"}},{"type":"Feature","geometry":{"type":"Point","coordinates":[73.792808,20.005494]},"properties":{"Name":"Dr Panjabrao Deshmukh Niwasi Hostel","Address":"Dindori Road Panchavati, Nashik","locationConfidence":"locality-match"}},{"type":"Feature","geometry":{"type":"Point","coordinates":[73.80959,19.994674]},"properties":{"Name":"Adivasi Boys Hostel","Address":"Cdo Meri Colony, Nashik","locationConfidence":"approximate"}},{"type":"Feature","geometry":{"type":"Point","coordinates":[73.730696,19.991709]},"properties":{"Name":"PG LIFE","Address":"Gangapur Satpur Link Road Satpur, Nashik","locationConfidence":"locality-match"}},{"type":"Feature","geometry":{"type":"Point","coordinates":[73.80765,20.011129]},"properties":{"Name":"Vedant Boys and Girls Hostel","Address":"Mumbai Agra Highway Adgaon, Nashik","locationConfidence":"locality-match"}},{"type":"Feature","geometry":{"type":"Point","coordinates":[73.794776,20.006143]},"properties":{"Name":"Yuth Hostel Riverside Guest House","Address":"Ramwadi Road Panchavati, Nashik","locationConfidence":"locality-match"}},{"type":"Feature","geometry":{"type":"Point","coordinates":[73.788469,19.992064]},"properties":{"Name":"Saptashrungi Niwas Boy's Hostel","Address":"Mahiravani, Nashik","locationConfidence":"approximate"}},{"type":"Feature","geometry":{"type":"Point","coordinates":[73.80668,20.008723]},"properties":{"Name":"Yovar Hospitality","Address":"Mumbai Agra Highway Indira Nagar Nashik, Nashik","locationConfidence":"approximate"}},{"type":"Feature","geometry":{"type":"Point","coordinates":[73.810361,19.990544]},"properties":{"Name":"Sainikee Mulanche Vasatigruha","Address":"Irrigation Colony, Nashik","locationConfidence":"approximate"}},{"type":"Feature","geometry":{"type":"Point","coordinates":[73.789919,19.997383]},"properties":{"Name":"S T Boys Government Hostel","Address":"Vani Road Surgana, Nashik","locationConfidence":"approximate"}},{"type":"Feature","geometry":{"type":"Point","coordinates":[73.796719,20.005797]},"properties":{"Name":"Annapurna Bhojnalay and Hostel","Address":"Durga Nagar Panchavati, Nashik","locationConfidence":"locality-match"}},{"type":"Feature","geometry":{"type":"Point","coordinates":[73.794967,20.006904]},"properties":{"Name":"Venkatesh Boy's Hostel","Address":"Panchavati, Nashik","locationConfidence":"locality-match"}},{"type":"Feature","geometry":{"type":"Point","coordinates":[73.789334,20.014931]},"properties":{"Name":"Aditi Hostel","Address":"Aditi Apartment Gadkari Chowk, Nashik","locationConfidence":"approximate"}},{"type":"Feature","geometry":{"type":"Point","coordinates":[73.807768,20.001274]},"properties":{"Name":"Aadivashi Boys Hostel","Address":"Pandav Nagari Nashik Kishor Nagar, Nashik","locationConfidence":"approximate"}},{"type":"Feature","geometry":{"type":"Point","coordinates":[73.809685,19.983744]},"properties":{"Name":"Vidyasadan Nashik Boys Hostel","Address":"Dattatray Nagar Hanuman Nagar Nashik Tulshi Colony, Nashik","locationConfidence":"approximate"}},{"type":"Feature","geometry":{"type":"Point","coordinates":[73.779045,19.998777]},"properties":{"Name":"Patwardhan Services","Address":"Gole Complex Ashok Stambh, Nashik","locationConfidence":"approximate"}},{"type":"Feature","geometry":{"type":"Point","coordinates":[73.785803,19.997145]},"properties":{"Name":"S. T. Boy'S Hostel Dwarka","Address":"Shiv Samarth Nagar Durga Nagar Nashik Sneha Nagar, Nashik","locationConfidence":"approximate"}},{"type":"Feature","geometry":{"type":"Point","coordinates":[73.827869,19.957832]},"properties":{"Name":"Sai Shradha Hostel","Address":"Shivshakti Nagar Jail Road Nashik Road, Nashik","locationConfidence":"locality-match"}},{"type":"Feature","geometry":{"type":"Point","coordinates":[73.592921,19.951966]},"properties":{"Name":"Satvik Men's Boys Hostel","Address":"Nashik Pune Road Dwarka, Nashik","locationConfidence":"locality-match"}},{"type":"Feature","geometry":{"type":"Point","coordinates":[73.595192,19.952698]},"properties":{"Name":"Hostel Bytco Point","Address":"Nashik Pune Road Nashik Road, Nashik","locationConfidence":"locality-match"}},{"type":"Feature","geometry":{"type":"Point","coordinates":[73.754092,20.014964]},"properties":{"Name":"Shree Sai Ram Hostel","Address":"Spandan Complex Gangapur Road, Nashik","locationConfidence":"locality-match"}},{"type":"Feature","geometry":{"type":"Point","coordinates":[73.788813,19.995201]},"properties":{"Name":"Vise Boys Hostel","Address":"D. K. Nagar Nashik Madhukamal Nagar, Nashik","locationConfidence":"approximate"}},{"type":"Feature","geometry":{"type":"Point","coordinates":[73.794804,20.008054]},"properties":{"Name":"Shanti Heights BoShanti Heights Boys Hostelys Hostel","Address":"Near Kk Wagh College Panchavati, Nashik","locationConfidence":"locality-match"}},{"type":"Feature","geometry":{"type":"Point","coordinates":[73.794238,20.007589]},"properties":{"Name":"Shree Yog Hostel","Address":"Mumbai Agra Road Panchavati, Nashik","locationConfidence":"locality-match"}},{"type":"Feature","geometry":{"type":"Point","coordinates":[73.782617,19.979859]},"properties":{"Name":"Shivji Hospitality and Sawant Hostel","Address":"Suchita Nagar Indira Nagar Nashik, Nashik","locationConfidence":"locality-match"}},{"type":"Feature","geometry":{"type":"Point","coordinates":[73.771559,20.015525]},"properties":{"Name":"Hal Pravara Boys Hostel","Address":"Ojhar Janori, Nashik","locationConfidence":"approximate"}},{"type":"Feature","geometry":{"type":"Point","coordinates":[73.784757,19.996596]},"properties":{"Name":"Nivara Boys Hostel","Address":"Purnvad Nagar, Nashik","locationConfidence":"approximate"}},{"type":"Feature","geometry":{"type":"Point","coordinates":[73.794037,20.005649]},"properties":{"Name":"Pune Vidyarthi Griha'S Hostel For Poor & Destitute","Address":"Panchavati, Nashik","locationConfidence":"locality-match"}},{"type":"Feature","geometry":{"type":"Point","coordinates":[73.787552,19.984683]},"properties":{"Name":"Trambakraj Hostels","Address":"Gharpure Ghat Road Ashok Stambh, Nashik","locationConfidence":"approximate"}},{"type":"Feature","geometry":{"type":"Point","coordinates":[73.786519,20.009507]},"properties":{"Name":"Gitai Boys Hostel","Address":"A/P Anjaneri Tal Trymbak Anjneri, Nashik","locationConfidence":"approximate"}},{"type":"Feature","geometry":{"type":"Point","coordinates":[73.773646,19.999288]},"properties":{"Name":"Ab Hostel","Address":"Sharanpur, Nashik","locationConfidence":"locality-match"}},{"type":"Feature","geometry":{"type":"Point","coordinates":[73.791922,20.021862]},"properties":{"Name":"Panchavati Hostel","Address":"BEHIND PURANDARE HOSPITAL Bhabha Nagar, Nashik","locationConfidence":"approximate"}},{"type":"Feature","geometry":{"type":"Point","coordinates":[73.754889,20.017161]},"properties":{"Name":"Shrisha Girls and Boys Hostel","Address":"7 Shradha Sankul Gangapur Road, Nashik","locationConfidence":"locality-match"}},{"type":"Feature","geometry":{"type":"Point","coordinates":[73.798832,19.992114]},"properties":{"Name":"Dreamland Hostels and Catering","Address":"Nashik","locationConfidence":"approximate"}},{"type":"Feature","geometry":{"type":"Point","coordinates":[73.789045,20.003413]},"properties":{"Name":"Jaihind Boy'S Hostel","Address":"Plot No 18 Prasad Cir Purnvad Nagar, Nashik","locationConfidence":"approximate"}},{"type":"Feature","geometry":{"type":"Point","coordinates":[73.790259,19.997497]},"properties":{"Name":"1St & 2Nd Year Boys Hostel Gp","Address":"1st & 2nd Year Boys HostelGp Nashik Samangaon, Nashik","locationConfidence":"approximate"}},{"type":"Feature","geometry":{"type":"Point","coordinates":[73.79068,19.98289]},"properties":{"Name":"Budri Hostel","Address":"Takli Road Shankar Nagar, Nashik","locationConfidence":"approximate"}},{"type":"Feature","geometry":{"type":"Point","coordinates":[73.799785,20.004969]},"properties":{"Name":"Luckys Boys Hostel","Address":"BangloWNo 23 Lekha Nagar, Nashik","locationConfidence":"approximate"}},{"type":"Feature","geometry":{"type":"Point","coordinates":[73.78491,19.97256]},"properties":{"Name":"Swami Vivekanand Boys Hostel","Address":"Mumbai Agra Highway Pimpalgaon Baswant, Nashik","locationConfidence":"approximate"}},{"type":"Feature","geometry":{"type":"Point","coordinates":[73.807566,20.010346]},"properties":{"Name":"Vijay Residency","Address":"Adgaon Shivar Adgaon Naka, Nashik","locationConfidence":"locality-match"}},{"type":"Feature","geometry":{"type":"Point","coordinates":[73.768516,20.002501]},"properties":{"Name":"Manavata Hostel","Address":"Old Agra Road Renuka Nagar, Nashik","locationConfidence":"approximate"}},{"type":"Feature","geometry":{"type":"Point","coordinates":[73.771558,20.012613]},"properties":{"Name":"K.K.Wagh Agriculture Boys Hostel","Address":"Balram Nagar Dhatrak Phata, Nashik","locationConfidence":"approximate"}},{"type":"Feature","geometry":{"type":"Point","coordinates":[73.784687,20.011977]},"properties":{"Name":"Sunny Gosavi","Address":"Ravivar Peth Road Ashok Stambh, Nashik","locationConfidence":"approximate"}},{"type":"Feature","geometry":{"type":"Point","coordinates":[73.781176,20.00681]},"properties":{"Name":"Trambakraj Boy'S Hostel","Address":"Kthm Joggers Park Road Raviwar Peth, Nashik","locationConfidence":"approximate"}},{"type":"Feature","geometry":{"type":"Point","coordinates":[73.778412,19.989091]},"properties":{"Name":"Govt. S.T. Boys Hostel Vansamruddhi Bodhalenagar","Address":"Samta Nagar Gayakhe Colony, Nashik","locationConfidence":"approximate"}},{"type":"Feature","geometry":{"type":"Point","coordinates":[74.244187,20.328867]},"properties":{"Name":"Vithai Boys Hostel","Address":"Chandwad, Nashik","locationConfidence":"locality-match"}},{"type":"Feature","geometry":{"type":"Point","coordinates":[73.730652,19.989726]},"properties":{"Name":"Magestic Printing & Design","Address":"664 Satpur Colony Mhb Colony, Nashik","locationConfidence":"locality-match"}},{"type":"Feature","geometry":{"type":"Point","coordinates":[73.730163,19.988978]},"properties":{"Name":"Vishranti Services","Address":"Satpur Colony Ganesh Nagar, Nashik","locationConfidence":"locality-match"}},{"type":"Feature","geometry":{"type":"Point","coordinates":[73.813943,20.009421]},"properties":{"Name":"Swami Boys Hostel","Address":"Link Road, Nashik","locationConfidence":"approximate"}},{"type":"Feature","geometry":{"type":"Point","coordinates":[73.793663,20.020418]},"properties":{"Name":"Mitra Hostel","Address":"Sarswatui Nagar Hanuman Nagar, Nashik","locationConfidence":"approximate"}},{"type":"Feature","geometry":{"type":"Point","coordinates":[73.790475,20.009483]},"properties":{"Name":"Sky Academstay","Address":"College Road Yashwant Colony, Nashik","locationConfidence":"locality-match"}},{"type":"Feature","geometry":{"type":"Point","coordinates":[73.794451,20.006006]},"properties":{"Name":"Ankush Boys Hostel","Address":"Tuljai Apartment Panchavati, Nashik","locationConfidence":"locality-match"}},{"type":"Feature","geometry":{"type":"Point","coordinates":[73.795746,19.981668]},"properties":{"Name":"Ashirwad Boys Hostel","Address":"Amrutdham, Nashik","locationConfidence":"approximate"}},{"type":"Feature","geometry":{"type":"Point","coordinates":[73.774258,19.992242]},"properties":{"Name":"Indrakala Boys Hostel","Address":"Gurudatta Appartment Jaswant Nagar Shramik Nagar, Nashik","locationConfidence":"approximate"}},{"type":"Feature","geometry":{"type":"Point","coordinates":[73.789189,19.999522]},"properties":{"Name":"Jagtap Hostel","Address":"Vadangale Vasti Annapurna Nagar Kopargaon Ambika Nagar, Shirdi","locationConfidence":"approximate"}},{"type":"Feature","geometry":{"type":"Point","coordinates":[73.771791,19.989666]},"properties":{"Name":"Vargude Patil Student Hostel","Address":"Sanjivani Annapurna Nagar Kopargaon Ambika Nagar, Shirdi","locationConfidence":"approximate"}},{"type":"Feature","geometry":{"type":"Point","coordinates":[73.784982,20.005155]},"properties":{"Name":"My Mother Hostel and Boarding School","Address":"Otur, Malshej","locationConfidence":"approximate","Phone":"08460534821"}},{"type":"Feature","geometry":{"type":"Point","coordinates":[73.790836,19.999271]},"properties":{"Name":"Govt.St.Boys Hostel Loni","Address":"Loni Shanti Nagar, Shirdi","locationConfidence":"approximate"}},{"type":"Feature","geometry":{"type":"Point","coordinates":[73.779458,20.017497]},"properties":{"Name":"Namo Boys Hostel","Address":"Dhamodiyapa Bonta, Silvassa","locationConfidence":"approximate"}},{"type":"Feature","geometry":{"type":"Point","coordinates":[73.792747,20.01154]},"properties":{"Name":"Rushimukar Boys Hostel","Address":"Ambapada, Daang","locationConfidence":"approximate"}},{"type":"Feature","geometry":{"type":"Point","coordinates":[73.775443,20.010992]},"properties":{"Name":"New Boy'S Hostel","Address":"Bamti, Valsad","locationConfidence":"approximate"}},{"type":"Feature","geometry":{"type":"Point","coordinates":[73.788612,19.99615]},"properties":{"Name":"Mali Boarding","Address":"Sawata Mandir Road, Shrirampur","locationConfidence":"approximate"}},{"type":"Feature","geometry":{"type":"Point","coordinates":[73.787158,19.989693]},"properties":{"Name":"Unique Hostel","Address":"Bhilad Sarigam Road Chala, Vapi","locationConfidence":"approximate"}}]}