{"type":"FeatureCollection","features":[{"type":"Feature","geometry":{"type":"Point","coordinates":[73.797788,19.993346]},"properties":{"Name":"Lucas Car Ac Auto Electricals","Address":"Mumbai Agra National Highway Dwarka, Nashik","locationConfidence":"locality-match"}},{"type":"Feature","geometry":{"type":"Point","coordinates":[73.59367,19.952844]},"properties":{"Name":"Siddhi Service Point","Address":"Nashik Pune Highway Sangamner Raod Sinnar, Nashik","locationConfidence":"locality-match"}},{"type":"Feature","geometry":{"type":"Point","coordinates":[73.567575,19.695712]},"properties":{"Name":"Shraddha Towing And Crane Services","Address":"Tal Igatpuri Ghoti, Nashik","locationConfidence":"locality-match"}},{"type":"Feature","geometry":{"type":"Point","coordinates":[73.784194,19.990047]},"properties":{"Name":"Mr Sayyed","Address":"Sighada Talav Mumbai Naka, Nashik","locationConfidence":"locality-match"}},{"type":"Feature","geometry":{"type":"Point","coordinates":[73.771009,19.957448]},"properties":{"Name":"Om Saikrupa Car Services","Address":"Pathardi Phata Vidya Nagar, Nashik","locationConfidence":"locality-match"}},{"type":"Feature","geometry":{"type":"Point","coordinates":[73.771998,19.982937]},"properties":{"Name":"Saharra Auto Services","Address":"Mumbai Agara Road Mumbai Agra Road, Nashik","locationConfidence":"approximate"}},{"type":"Feature","geometry":{"type":"Point","coordinates":[73.805971,20.006105]},"properties":{"Name":"New Star Crane Service","Address":"Pune Nashik Highway Nandurshingote, Nashik","locationConfidence":"approximate"}},{"type":"Feature","geometry":{"type":"Point","coordinates":[73.98912,19.841989]},"properties":{"Name":"Agasti Automobile & Gurudatta Garage","Address":"Pune Nashik Highway Sinnar, Nashik","locationConfidence":"locality-match"}},{"type":"Feature","geometry":{"type":"Point","coordinates":[73.594027,19.950577]},"properties":{"Name":"Khalsa Motors And Satguru Tyres","Address":"Trimbak Road Mahatma Nagar, Nashik","locationConfidence":"locality-match"}},{"type":"Feature","geometry":{"type":"Point","coordinates":[73.79479,20.005828]},"properties":{"Name":"Amar Motor Garage","Address":"Tapovan Road Panchavati, Nashik","locationConfidence":"locality-match"}},{"type":"Feature","geometry":{"type":"Point","coordinates":[73.594605,19.95255]},"properties":{"Name":"Jay Malhar Motor Garage and Service Point","Address":"Nashik Pune Highway Nandurshingote, Nashik","locationConfidence":"locality-match"}},{"type":"Feature","geometry":{"type":"Point","coordinates":[73.743875,19.965362]},"properties":{"Name":"Krrish Autowheels Pvt Ltd","Address":"Mumbai Agra Road Ambad, Nashik","locationConfidence":"locality-match"}},{"type":"Feature","geometry":{"type":"Point","coordinates":[73.763299,19.987969]},"properties":{"Name":"Matoshree Car Care","Address":"Matoshree Chowk Untwadi, Nashik","locationConfidence":"locality-match"}},{"type":"Feature","geometry":{"type":"Point","coordinates":[73.800486,19.975807]},"properties":{"Name":"Mathew's Cars Multi Car Service","Address":"Chaitanyaraj Arcade Sahyadri Nagar Aswin Nagar, Nashik","locationConfidence":"approximate"}},{"type":"Feature","geometry":{"type":"Point","coordinates":[73.787919,20.007094]},"properties":{"Name":"Moharir Motors","Address":"Mumbai Agra Road Rane Nagar, Nashik","locationConfidence":"approximate"}},{"type":"Feature","geometry":{"type":"Point","coordinates":[73.787412,20.00177]},"properties":{"Name":"Shree Mahalaxmi Auto Garage","Address":"Trimbakeshwar Road Trimbakeshwar, Nashik","locationConfidence":"approximate"}},{"type":"Feature","geometry":{"type":"Point","coordinates":[73.745782,19.966706]},"properties":{"Name":"Silver Star Mercedes Benz","Address":"Ambad, Nashik","locationConfidence":"locality-match"}},{"type":"Feature","geometry":{"type":"Point","coordinates":[73.776354,20.01741]},"properties":{"Name":"New Maruti Automobiles & Cng Authorised Service Center","Address":"Takali Road Tilakwadi, Nashik","locationConfidence":"approximate"}},{"type":"Feature","geometry":{"type":"Point","coordinates":[73.790104,19.998399]},"properties":{"Name":"Maruti Auto Mobils","Address":"Old Sykhada Road Jail Road, Nashik","locationConfidence":"approximate"}},{"type":"Feature","geometry":{"type":"Point","coordinates":[73.729273,19.989938]},"properties":{"Name":"Moharir Ford (workshop)","Address":"Anandvali Pipeline Road Satpur, Nashik","locationConfidence":"locality-match"}},{"type":"Feature","geometry":{"type":"Point","coordinates":[73.594737,19.952849]},"properties":{"Name":"Ravi Automobile Puc Center","Address":"Trimbak Road Satpur, Nashik","locationConfidence":"locality-match"}},{"type":"Feature","geometry":{"type":"Point","coordinates":[73.596136,19.953296]},"properties":{"Name":"Ravi Automobile","Address":"Trimbak Road Satpur, Nashik","locationConfidence":"locality-match"}},{"type":"Feature","geometry":{"type":"Point","coordinates":[73.783231,19.99689]},"properties":{"Name":"Falcon Honda","Address":"CBS Road Trimbak Naka, Nashik","locationConfidence":"locality-match"}},{"type":"Feature","geometry":{"type":"Point","coordinates":[73.779654,19.99145]},"properties":{"Name":"YAMAHA service station","Address":"GPO ROAD Ganjmal, Nashik","locationConfidence":"approximate"}},{"type":"Feature","geometry":{"type":"Point","coordinates":[73.78741,20.001647]},"properties":{"Name":"Mr. Garagewala","Address":"Raj Laxmi Indira Nagar Nashik, Nashik","locationConfidence":"approximate"}},{"type":"Feature","geometry":{"type":"Point","coordinates":[73.792718,19.983126]},"properties":{"Name":"ALL CNG WORK & SOLUTION","Address":"Aurangabad Road Wadivarhe, Nashik","locationConfidence":"approximate"}},{"type":"Feature","geometry":{"type":"Point","coordinates":[73.989871,19.840308]},"properties":{"Name":"SEVA AUTO ELECTRICAL & CAR AC WORKS","Address":"Sinnar Shirdi Road Sinnar, Nashik","locationConfidence":"locality-match"}},{"type":"Feature","geometry":{"type":"Point","coordinates":[73.788874,20.000643]},"properties":{"Name":"Saptshrungi Auto Services","Address":"Chintamani Colony Anandvalli Anand Vihar Colony, Nashik","locationConfidence":"approximate"}},{"type":"Feature","geometry":{"type":"Point","coordinates":[73.755136,20.015855]},"properties":{"Name":"Hitech Auto Services","Address":"Gangapur Road, Nashik","locationConfidence":"locality-match"}},{"type":"Feature","geometry":{"type":"Point","coordinates":[73.816221,19.988737]},"properties":{"Name":"Chaitanya Auto Care Center","Address":"Old Saikheda Road Jail Road, Nashik","locationConfidence":"approximate"}},{"type":"Feature","geometry":{"type":"Point","coordinates":[73.798504,20.009699]},"properties":{"Name":"Ceramic Pro","Address":"Right Canal Roadpipeline Road Serene Meadows, Nashik","locationConfidence":"approximate"}},{"type":"Feature","geometry":{"type":"Point","coordinates":[73.594753,19.954578]},"properties":{"Name":"Shreya Cars","Address":"Nashik Pune Highway Upnagar, Nashik","locationConfidence":"locality-match"}},{"type":"Feature","geometry":{"type":"Point","coordinates":[73.744493,19.966155]},"properties":{"Name":"Perfect Car Services","Address":"Datir Mala Ambad, Nashik","locationConfidence":"locality-match"}},{"type":"Feature","geometry":{"type":"Point","coordinates":[73.78595,20.009131]},"properties":{"Name":"Maharashtra Auto Garage","Address":"Shivaji Chowk, Nashik","locationConfidence":"approximate"}},{"type":"Feature","geometry":{"type":"Point","coordinates":[73.81364,19.992345]},"properties":{"Name":"Fixup Motorcycle Garage","Address":"Lic Colony Purnvad Nagar Purnvad Nagar, Nashik","locationConfidence":"approximate"}},{"type":"Feature","geometry":{"type":"Point","coordinates":[73.770011,19.956699]},"properties":{"Name":"New Karlines Automobile Rebuilders","Address":"Pathardi Road Pathardi Phata, Nashik","locationConfidence":"locality-match"}},{"type":"Feature","geometry":{"type":"Point","coordinates":[73.784756,19.980385]},"properties":{"Name":"Datar Auto Cooling","Address":"Nashik-Pune Road Singada Talao, Nashik","locationConfidence":"approximate"}},{"type":"Feature","geometry":{"type":"Point","coordinates":[73.808456,20.013351]},"properties":{"Name":"Tamboli Automobiles","Address":"Old Mumbai Agra Highway Ghoti, Nashik","locationConfidence":"approximate"}},{"type":"Feature","geometry":{"type":"Point","coordinates":[73.798287,19.992638]},"properties":{"Name":"G A D Motors","Address":"Ashoka Marg Dwarka, Nashik","locationConfidence":"locality-match"}},{"type":"Feature","geometry":{"type":"Point","coordinates":[73.770673,19.957449]},"properties":{"Name":"Dna Car Care","Address":"Link Road Pathardi Phata, Nashik","locationConfidence":"locality-match"}},{"type":"Feature","geometry":{"type":"Point","coordinates":[73.799832,19.993974]},"properties":{"Name":"Royal Motors","Address":"Tigrania Road Dwarka, Nashik","locationConfidence":"locality-match"}},{"type":"Feature","geometry":{"type":"Point","coordinates":[73.795698,20.001743]},"properties":{"Name":"4d Auto Solutions","Address":"Wasan Nagar, Nashik","locationConfidence":"approximate"}},{"type":"Feature","geometry":{"type":"Point","coordinates":[73.7895,20.026089]},"properties":{"Name":"Omkar Motors","Address":"Makhmalabad Road Panchavati, Nashik","locationConfidence":"locality-match"}},{"type":"Feature","geometry":{"type":"Point","coordinates":[73.775926,19.993889]},"properties":{"Name":"Yash Automobile","Address":"National Urdu High School Road Sarda Circle, Nashik","locationConfidence":"approximate"}},{"type":"Feature","geometry":{"type":"Point","coordinates":[73.829673,19.92121]},"properties":{"Name":"Patil Garage","Address":"Devlali Gaon Sayyed Nagar, Deolali","locationConfidence":"locality-match"}},{"type":"Feature","geometry":{"type":"Point","coordinates":[73.793502,20.005549]},"properties":{"Name":"GoMechanic","Address":"Ajanta Complex Panchavati, Nashik","locationConfidence":"locality-match"}},{"type":"Feature","geometry":{"type":"Point","coordinates":[73.730842,19.989564]},"properties":{"Name":"Active Suzuki Workshop","Address":"A Road Satpur, Nashik","locationConfidence":"locality-match"}},{"type":"Feature","geometry":{"type":"Point","coordinates":[73.79936,20.0085]},"properties":{"Name":"D A S AUTO SERVICES","Address":"Nandur Naka Nashik Main Road, Nashik","locationConfidence":"approximate"}},{"type":"Feature","geometry":{"type":"Point","coordinates":[73.990398,19.839229]},"properties":{"Name":"Gurudev Crane Services","Address":"Kamla Market Sinnar, Nashik","locationConfidence":"locality-match"}},{"type":"Feature","geometry":{"type":"Point","coordinates":[73.828251,19.956539]},"properties":{"Name":"Shri Sai Motors","Address":"Eklahare Road Nashik Road, Nashik","locationConfidence":"locality-match"}},{"type":"Feature","geometry":{"type":"Point","coordinates":[74.243903,20.329711]},"properties":{"Name":"Bukhari Car Care And Spares Part","Address":"Mumbai Agra Highway Chandwad, Nashik","locationConfidence":"locality-match"}},{"type":"Feature","geometry":{"type":"Point","coordinates":[73.779915,20.011936]},"properties":{"Name":"Darshan Automobiles and Garage","Address":"Audambar Chowk Kamatwade, Nashik","locationConfidence":"approximate"}},{"type":"Feature","geometry":{"type":"Point","coordinates":[73.827945,19.958312]},"properties":{"Name":"Kamal Auto Care","Address":"Jail Road Nashik Road, Nashik","locationConfidence":"locality-match"}},{"type":"Feature","geometry":{"type":"Point","coordinates":[73.799434,19.995773]},"properties":{"Name":"Sanskruti Auto Care Center","Address":"Vaishnavi Park, Nashik","locationConfidence":"approximate"}},{"type":"Feature","geometry":{"type":"Point","coordinates":[73.770749,19.959539]},"properties":{"Name":"Mr.Automotive","Address":"Carmall Mumbai Agra National Hwy Pathardi Phata, Nashik","locationConfidence":"locality-match"}},{"type":"Feature","geometry":{"type":"Point","coordinates":[73.766377,19.991255]},"properties":{"Name":"Poona Garage","Address":"Old Agra Road Malegaon, Nashik","locationConfidence":"approximate"}},{"type":"Feature","geometry":{"type":"Point","coordinates":[73.828291,19.922696]},"properties":{"Name":"Ashok Automobiles","Address":"Lam Road Deolali Gaon, Nashik","locationConfidence":"locality-match"}},{"type":"Feature","geometry":{"type":"Point","coordinates":[73.771111,19.956039]},"properties":{"Name":"Sai Car Tech (GoMechanic)","Address":"Pathardi Vadner Dumala Road Pimpalgaon Khamb, Nashik","locationConfidence":"locality-match"}},{"type":"Feature","geometry":{"type":"Point","coordinates":[73.770384,19.95707]},"properties":{"Name":"Shahu Auto Services","Address":"Wadala Pathardi Road Pathardi Phata, Nashik","locationConfidence":"locality-match"}},{"type":"Feature","geometry":{"type":"Point","coordinates":[73.744786,19.964962]},"properties":{"Name":"Nitin Motors","Address":"Ambad Link Road Kamatwade, Nashik","locationConfidence":"locality-match"}},{"type":"Feature","geometry":{"type":"Point","coordinates":[73.790355,20.005784]},"properties":{"Name":"New Silver Service Centre (Bosch Car Service)","Address":"Pune Road Ganjmal, Nashik","locationConfidence":"approximate"}},{"type":"Feature","geometry":{"type":"Point","coordinates":[73.790349,19.989297]},"properties":{"Name":"Laxmi Automobiles","Address":"Peth Road Mhasrul, Nashik","locationConfidence":"approximate"}},{"type":"Feature","geometry":{"type":"Point","coordinates":[73.990638,19.838367]},"properties":{"Name":"National Garage","Address":"Sinnar Shirdi Road Sinnar, Nashik","locationConfidence":"locality-match"}},{"type":"Feature","geometry":{"type":"Point","coordinates":[73.800038,19.999906]},"properties":{"Name":"Dhanak Automobiles And Spares Garage","Address":"Mahatma Nagar Road Mahatma Nagar, Nashik","locationConfidence":"approximate"}},{"type":"Feature","geometry":{"type":"Point","coordinates":[73.772392,19.958011]},"properties":{"Name":"Bikers Point","Address":"Devlani Road Pathardi Phata, Nashik","locationConfidence":"locality-match"}},{"type":"Feature","geometry":{"type":"Point","coordinates":[73.779548,19.987699]},"properties":{"Name":"Bharat Motor Works","Address":"Radha Vasudev Batavia Nagar Govind Nagar, Nashik","locationConfidence":"locality-match"}},{"type":"Feature","geometry":{"type":"Point","coordinates":[73.80314,19.980694]},"properties":{"Name":"Om Sai Motor Garage","Address":"Mumbai Agra Highway Ojhar, Nashik","locationConfidence":"approximate"}},{"type":"Feature","geometry":{"type":"Point","coordinates":[73.797866,19.994139]},"properties":{"Name":"The Car Doctor","Address":"Service Road - Dwarka Dwarka, Nashik","locationConfidence":"locality-match"}},{"type":"Feature","geometry":{"type":"Point","coordinates":[73.731326,19.990046]},"properties":{"Name":"Laukik's Motor Care","Address":"Pipeline Road Satpur, Nashik","locationConfidence":"locality-match"}},{"type":"Feature","geometry":{"type":"Point","coordinates":[73.59275,19.952256]},"properties":{"Name":"Optimum Car Care","Address":"Trimbak Road Satpur, Nashik","locationConfidence":"locality-match"}},{"type":"Feature","geometry":{"type":"Point","coordinates":[73.806663,20.011217]},"properties":{"Name":"The Ev Garage","Address":"Adgaon Naka, Nashik","locationConfidence":"locality-match"}},{"type":"Feature","geometry":{"type":"Point","coordinates":[73.779272,20.010763]},"properties":{"Name":"Sai Sahara Car Care","Address":"Wasan Nagar Road Kundanlal Wasan Nagar, Nashik","locationConfidence":"approximate"}},{"type":"Feature","geometry":{"type":"Point","coordinates":[73.78485,20.008437]},"properties":{"Name":"Shiva Motor Works","Address":"Date Nagar Purnvad Nagar, Nashik","locationConfidence":"approximate"}},{"type":"Feature","geometry":{"type":"Point","coordinates":[73.760959,19.972505]},"properties":{"Name":"Shraddha Service Station","Address":"Mahakali Road CIDCO, Nashik","locationConfidence":"locality-match"}},{"type":"Feature","geometry":{"type":"Point","coordinates":[73.827898,19.959162]},"properties":{"Name":"Bappa Car Services","Address":"Jay Bhavani Road Nashik Road, Nashik","locationConfidence":"locality-match"}},{"type":"Feature","geometry":{"type":"Point","coordinates":[73.799343,19.976041]},"properties":{"Name":"Dhanak Automobile & Spare","Address":"Mahatma Nagar, Nashik","locationConfidence":"approximate"}},{"type":"Feature","geometry":{"type":"Point","coordinates":[73.754233,20.015444]},"properties":{"Name":"The Mechanic Car Garage","Address":"Gangapur Road Dhurav Nagar, Nashik","locationConfidence":"locality-match"}},{"type":"Feature","geometry":{"type":"Point","coordinates":[73.781686,20.000914]},"properties":{"Name":"A1 Auto AIR Conditioning And Electrics","Address":"Pune Road Singada Talao, Nashik","locationConfidence":"approximate"}},{"type":"Feature","geometry":{"type":"Point","coordinates":[73.775656,19.996748]},"properties":{"Name":"Maruti Suzuki Genuine Parts","Address":"Taran Talav Road Datta Mandir, Nashik","locationConfidence":"approximate"}},{"type":"Feature","geometry":{"type":"Point","coordinates":[73.756457,20.015403]},"properties":{"Name":"Carnama Multibrand Workshop","Address":"Gangapur Road Bhadrakali, Nashik","locationConfidence":"locality-match"}},{"type":"Feature","geometry":{"type":"Point","coordinates":[73.793823,20.005782]},"properties":{"Name":"Ganraj Motors Garage","Address":"Aurangabad Highway Panchavati, Nashik","locationConfidence":"locality-match"}},{"type":"Feature","geometry":{"type":"Point","coordinates":[73.813159,19.994727]},"properties":{"Name":"Goraksha Auto Garage","Address":"Dasak, Nashik","locationConfidence":"approximate"}},{"type":"Feature","geometry":{"type":"Point","coordinates":[73.791899,20.003319]},"properties":{"Name":"Godavari Car Care","Address":"Aurangabad Road Chandori, Nashik","locationConfidence":"approximate"}},{"type":"Feature","geometry":{"type":"Point","coordinates":[73.792468,19.997135]},"properties":{"Name":"Nandu auto services","Address":"Sunderban Colony Mumbai Agra Road, Nashik","locationConfidence":"approximate"}},{"type":"Feature","geometry":{"type":"Point","coordinates":[73.829931,19.957599]},"properties":{"Name":"Sai Automobiles","Address":"Nashik-Pune Highway Nashik Road, Nashik","locationConfidence":"locality-match"}},{"type":"Feature","geometry":{"type":"Point","coordinates":[73.810221,19.980148]},"properties":{"Name":"Sethi Compound","Address":"Renuka Nagar, Nashik","locationConfidence":"approximate"}},{"type":"Feature","geometry":{"type":"Point","coordinates":[73.78287,20.006954]},"properties":{"Name":"Sai Seva Motors","Address":"Dahigaon Road Azadnagar, Nandgaon","locationConfidence":"approximate"}},{"type":"Feature","geometry":{"type":"Point","coordinates":[73.781914,19.999304]},"properties":{"Name":"Alam Auto Garage","Address":"Dattawadi, Nashik","locationConfidence":"approximate"}},{"type":"Feature","geometry":{"type":"Point","coordinates":[73.795332,20.005963]},"properties":{"Name":"Prakash Motor Garage","Address":"Mumbai Agra Road Panchavati, Nashik","locationConfidence":"locality-match"}},{"type":"Feature","geometry":{"type":"Point","coordinates":[73.781452,19.998097]},"properties":{"Name":"Laxmi Services","Address":"TRAMBAK NAKA Trimbak Naka, Nashik","locationConfidence":"locality-match"}},{"type":"Feature","geometry":{"type":"Point","coordinates":[73.800664,19.992945]},"properties":{"Name":"Raj Hardware and Trading Company","Address":"Tigraniya Road Dwarka, Nashik","locationConfidence":"locality-match"}},{"type":"Feature","geometry":{"type":"Point","coordinates":[73.847203,20.203278]},"properties":{"Name":"Sakshi Automobiles And Garage","Address":"Jaulakedindori, Nashik","locationConfidence":"locality-match"}},{"type":"Feature","geometry":{"type":"Point","coordinates":[73.793273,20.005677]},"properties":{"Name":"Eicher Motor Garages","Address":"Mumbai Agra Road Panchavati, Nashik","locationConfidence":"locality-match"}},{"type":"Feature","geometry":{"type":"Point","coordinates":[73.78767,19.995314]},"properties":{"Name":"Expert Mechanics","Address":"Baglan, Nashik","locationConfidence":"approximate"}},{"type":"Feature","geometry":{"type":"Point","coordinates":[73.743953,19.966625]},"properties":{"Name":"Amol Automobiles","Address":"Cidco-Ambad Link Road Cidco, Nashik","locationConfidence":"locality-match"}},{"type":"Feature","geometry":{"type":"Point","coordinates":[73.782456,19.989029]},"properties":{"Name":"Maksud Auto Electrical & AC Works","Address":"Gurudwara Road Mumbai Naka, Nashik","locationConfidence":"locality-match"}},{"type":"Feature","geometry":{"type":"Point","coordinates":[73.801913,19.974809]},"properties":{"Name":"Deluxe Vahan Bajar","Address":"Renuka Nagar, Nashik","locationConfidence":"approximate"}}]}