{"type":"FeatureCollection","features":[{"type":"Feature","geometry":{"type":"Point","coordinates":[73.792463,20.002121]},"properties":{"Name":"Eat-Na Cloud Kitchen","Address":"410, Bidikamgar Nagar, Amrutdham, Nashik Zomato","locationConfidence":"approximate","Rating":"4.6 (537 delivery ratings) Zomato","Working Hours":"Serves Breakfast/Lunch/Dinner; specific times not published","Source":"Zomato"}},{"type":"Feature","geometry":{"type":"Point","coordinates":[73.787918,19.998075]},"properties":{"Name":"Adira's Cloud Kitchen","Address":"P2, Shop 105, Serial 07/11/13/15, First Floor, Roongta Saket Apartment, Wadala Road, Indira Nagar, Nashik Zomato","locationConfidence":"approximate","Rating":"4.4 (153 delivery ratings) Zomato","Working Hours":"Dinner; specific times not published","Source":"Zomato / Swiggy"}},{"type":"Feature","geometry":{"type":"Point","coordinates":[73.794618,20.006035]},"properties":{"Name":"Mom's Cloud Kitchen","Address":"House 2, Shivdhara Row Houses, Omkareshwar Colony, Ayodhya Nagari 2, near Omkareshwar Heights, Panchavati, Nashik","locationConfidence":"locality-match","Rating":"4.4 (105 delivery ratings) Zomato","Working Hours":"Breakfast/Lunch/Dinner; Zomato +2 specific times not published","Source":"Zomato"}},{"type":"Feature","geometry":{"type":"Point","coordinates":[73.760986,19.973716]},"properties":{"Name":"24×7 Cloud Kitchen","Address":"Flat 7, Pawan Plaza, Cidco, Nashik Zomato","locationConfidence":"locality-match","Rating":"3.9 (249 delivery ratings); 3.8 on order page","Working Hours":"Name implies 24×7; not explicitly confirmed","Source":"Zomato / Swiggy"}},{"type":"Feature","geometry":{"type":"Point","coordinates":[73.809939,20.011432]},"properties":{"Name":"Aarambha Cloud Kitchen","Address":"N-41-J-A-3-10-5, 4th Scheme, Sawata Nagar, Patil Nagar, Nashik Zomato","locationConfidence":"approximate","Rating":"3.6 (278 delivery ratings) Zomato","Working Hours":"Lunch/Dinner; specific times not published","Source":"Zomato"}},{"type":"Feature","geometry":{"type":"Point","coordinates":[73.770453,19.957828]},"properties":{"Name":"CLOUD KITCHEN'S","Address":"Flat 601, 6th Floor, Jacob Sky View Apartment, Gangurde Nagar, Pathardi Gaon, Pathardi Vadner Road, near Jadhav Petrol Pump, Pathardi Phata, Nashik","locationConfidence":"locality-match","Rating":"4.0 (4 ratings)","Working Hours":"Lunch/Dinner; one Zomato snapshot shows \"Opens at 10:30pm\"","Source":"Zomato / District"}},{"type":"Feature","geometry":{"type":"Point","coordinates":[73.729125,19.990198]},"properties":{"Name":"The Cloud Kitchen","Address":"House 1463, MHB Colony, Satpur, Nashik magicpinZomato","locationConfidence":"locality-match","Rating":"3.2 (34 delivery ratings, Zomato); Zomato 4.9 from a single review (magicpin)","Working Hours":"Sometimes shown as 24-hour (unverified); serves Breakfast/Lunch/Dinner","Source":"Zomato / magicpin"}},{"type":"Feature","geometry":{"type":"Point","coordinates":[73.793703,20.014408]},"properties":{"Name":"The Cloud Kitchen – Non Veg","Address":"Survey 867/1, Kale Road, Indira Nagar, Nashik Zomato","locationConfidence":"approximate","Rating":"3.6 (15 delivery ratings) Zomato","Working Hours":"Breakfast/Lunch/Dinner; specific times not published","Source":"Zomato"}},{"type":"Feature","geometry":{"type":"Point","coordinates":[73.78945,19.996587]},"properties":{"Name":"EATARO – The Cloud Kitchen","Address":"Plot No 64, Mahatma Nagar, Nashik 422007 (beside cricket ground) JustdialJustdial","locationConfidence":"approximate","Rating":"3.8/5 (4 ratings) Justdial","Working Hours":"\"Open until 10:30 pm\" (call window 9:00 AM–11:00 PM)","Source":"Justdial"}},{"type":"Feature","geometry":{"type":"Point","coordinates":[73.773904,19.982749]},"properties":{"Name":"Bibaa's Cloud Kitchen","Address":"Flat No. 10, Krishna Residency, Mhada Colony, Bhor Township, Kabir Nagar, Nashik 422003 Justdial","locationConfidence":"approximate","Rating":"Not yet rated","Working Hours":"\"Open until 11:00 pm\" (actual hours may differ)","Source":"Justdial"}},{"type":"Feature","geometry":{"type":"Point","coordinates":[73.828593,19.959702]},"properties":{"Name":"Shiv Cloud Kitchen","Address":"Survey 247, Plot 45, Kamathwade, Cidco, Nashik Road, Nashik 422101 Justdial","locationConfidence":"locality-match","Rating":"Not yet rated","Working Hours":"\"Opens at 12:00 PM\" (no close time listed)","Source":"Justdial"}},{"type":"Feature","geometry":{"type":"Point","coordinates":[73.826001,19.958321]},"properties":{"Name":"Raalis Cloud Kitchen","Address":"Opposite Hsg Society, Jail Road / Nashik Road, Nashik Zomato","locationConfidence":"locality-match","Rating":"Not published","Working Hours":"Not published","Source":"Zomato / Justdial"}},{"type":"Feature","geometry":{"type":"Point","coordinates":[73.791925,20.010003]},"properties":{"Name":"Ratna's Cloud Kitchen","Address":"College Road, Nashik","locationConfidence":"locality-match","Rating":"Not published","Working Hours":"Not published","Source":"Swiggy"}},{"type":"Feature","geometry":{"type":"Point","coordinates":[73.753834,20.014987]},"properties":{"Name":"Archanaj Cloud Kitchen","Address":"Near Atharva Mangal Karyalay, Gangapur Road, Nashik Justdial","locationConfidence":"locality-match","Rating":"Not published","Working Hours":"Not published","Source":"Justdial"}},{"type":"Feature","geometry":{"type":"Point","coordinates":[73.799074,19.98141]},"properties":{"Name":"Padma Laxmi Cloud Kitchen","Address":"Indira Nagar, Nashik","locationConfidence":"approximate","Rating":"Not published","Working Hours":"Not published","Source":"Zomato"}},{"type":"Feature","geometry":{"type":"Point","coordinates":[73.744263,19.966272]},"properties":{"Name":"Devi's Cloud Kitchen","Address":"Indira Nagar / Ambad, Nashik","locationConfidence":"locality-match","Rating":"Not published","Working Hours":"Not published","Source":"Zomato / Swiggy"}},{"type":"Feature","geometry":{"type":"Point","coordinates":[73.79367,19.991925]},"properties":{"Name":"The Cloud Kitchen Pure Veg","Address":"Deepali Nagar, Bombay Naka, Nashik Swiggy","locationConfidence":"approximate","Rating":"Not published","Working Hours":"Not published","Source":"Swiggy"}},{"type":"Feature","geometry":{"type":"Point","coordinates":[73.79938,19.979554]},"properties":{"Name":"The Cloud Kitchen Non Veg (Bombay Naka)","Address":"Bombay Naka, Nashik","locationConfidence":"approximate","Rating":"Not published","Working Hours":"Not published","Source":"Swiggy"}},{"type":"Feature","geometry":{"type":"Point","coordinates":[73.773175,19.997991]},"properties":{"Name":"EatNa Cloud Kitchen (RTO Circle)","Address":"RTO Circle, Nashik","locationConfidence":"approximate","Rating":"Not published","Working Hours":"Not published","Source":"Swiggy"}},{"type":"Feature","geometry":{"type":"Point","coordinates":[73.744017,19.96642]},"properties":{"Name":"Home Chef (Cloud Kitchen)","Address":"Ambad, Nashik","locationConfidence":"locality-match","Rating":"Not published","Working Hours":"Not published","Source":"Swiggy"}},{"type":"Feature","geometry":{"type":"Point","coordinates":[73.730821,19.989684]},"properties":{"Name":"Ratna's Kitchen","Address":"Satpur, Nashik","locationConfidence":"locality-match","Rating":"Not published","Working Hours":"Not published","Source":"Zomato"}}]}