{"type":"FeatureCollection","features":[{"type":"Feature","properties":{"name":"CBS Main Local Transit Hub","category":"congestion","role":"area"},"geometry":{"type":"Polygon","coordinates":[[[73.78272260863646,20.00081333873343],[73.78422402025114,20.00124644239896],[73.7829182173053,20.00158197064541],[73.78272260863646,20.00081333873343]]]}},{"type":"Feature","properties":{"name":"CBS Main Local Transit Hub","category":"congestion","role":"marker"},"geometry":{"type":"Point","coordinates":[73.78314686370733,20.001113772627807]}},{"type":"Feature","properties":{"name":"Thakkar Bazar","category":"congestion","role":"area"},"geometry":{"type":"Polygon","coordinates":[[[73.780551778501,20.00076302739109],[73.77972700956242,19.99698591426013],[73.78122972937092,19.9973621235609],[73.78230679633374,20.00072074487214],[73.780551778501,20.00076302739109]]]}},{"type":"Feature","properties":{"name":"Thakkar Bazar","category":"congestion","role":"marker"},"geometry":{"type":"Point","coordinates":[73.78087341845382,19.99931896749507]}},{"type":"Feature","properties":{"name":"Dwarka Circle","category":"congestion","role":"area"},"geometry":{"type":"Polygon","coordinates":[[[73.797618611076,19.99451771892709],[73.7971993342102,19.99475589942637],[73.7966509040823,19.99480044785211],[73.79633914081415,19.994624797238],[73.79614795856172,19.99438596159828],[73.79611237554737,19.99383621848005],[73.79630469221352,19.99354597850033],[73.79657364270614,19.99332808418308],[73.79725624522025,19.99339013606797],[73.79758325582486,19.9935932414547],[73.79768537238283,19.99388601105287],[73.797618611076,19.99451771892709]]]}},{"type":"Feature","properties":{"name":"Dwarka Circle","category":"congestion","role":"marker"},"geometry":{"type":"Point","coordinates":[73.79692417864295,19.994098517808997]}},{"type":"Feature","properties":{"name":"Nashik Road Railway Station","category":"congestion","role":"area"},"geometry":{"type":"Polygon","coordinates":[[[73.84113599815787,19.94861918850798],[73.84086639392365,19.94817779018096],[73.8416822862617,19.94765632956217],[73.84205826493995,19.94837003965749],[73.84113599815787,19.94861918850798]]]}},{"type":"Feature","properties":{"name":"Nashik Road Railway Station","category":"congestion","role":"marker"},"geometry":{"type":"Point","coordinates":[73.84137578828822,19.948288507283316]}},{"type":"Feature","properties":{"name":"Panchavati Karanja","category":"congestion","role":"area"},"geometry":{"type":"Polygon","coordinates":[[[73.79576119902266,20.01083689063172],[73.79498817745596,20.01104144844421],[73.79418493873573,20.01085966750883],[73.79383516126377,20.01057974365023],[73.79370622737214,20.01019139425112],[73.79375240107116,20.00957412202142],[73.79417675353118,20.00908525266825],[73.7948170066278,20.00897979666631],[73.79564058972593,20.00915099156687],[73.79586324832913,20.00973984742608],[73.79599191965023,20.01026494307259],[73.79576119902266,20.01083689063172]]]}},{"type":"Feature","properties":{"name":"Panchavati Karanja","category":"congestion","role":"marker"},"geometry":{"type":"Point","coordinates":[73.79487323515069,20.010095082378278]}},{"type":"Feature","properties":{"name":"Shalimar Chowk","category":"congestion","role":"area"},"geometry":{"type":"Polygon","coordinates":[[[73.78650464259042,19.99959043500087],[73.7872128641289,20.00093644707433],[73.78589051653692,20.00091917487753],[73.78650464259042,19.99959043500087]]]}},{"type":"Feature","properties":{"name":"Shalimar Chowk","category":"congestion","role":"marker"},"geometry":{"type":"Point","coordinates":[73.78652816646166,20.0002591229884]}},{"type":"Feature","properties":{"name":"Gandhi Talav","category":"landmark","role":"area"},"geometry":{"type":"Polygon","coordinates":[[[73.79086897183566,20.00836581227433],[73.79044587385572,20.0079343385347],[73.79086733174151,20.00819547936089],[73.79143299616693,20.00798973060466],[73.79203849257047,20.00771825576026],[73.79202902305367,20.00744584262089],[73.79181715686887,20.00723511414929],[73.79210118208165,20.00739861725267],[73.79210959559673,20.00775090593887],[73.79086897183566,20.00836581227433]]]}},{"type":"Feature","properties":{"name":"Gandhi Talav","category":"landmark","role":"marker"},"geometry":{"type":"Point","coordinates":[73.79145795956067,20.00783999087709]}},{"type":"Feature","properties":{"name":"Gandhi Talav 2","category":"landmark","role":"area"},"geometry":{"type":"Polygon","coordinates":[[[73.7908671410288,20.0073121232628],[73.79184430542992,20.00725236405976],[73.79105526560606,20.00744293058832],[73.79070245831132,20.00767930850465],[73.79045339751706,20.00794499819025],[73.7908671410288,20.0073121232628]]]}},{"type":"Feature","properties":{"name":"Gandhi Talav 2","category":"landmark","role":"marker"},"geometry":{"type":"Point","coordinates":[73.790964951487,20.00749064131143]}}]}
