{"type":"FeatureCollection","features":[{"type":"Feature","geometry":{"type":"Point","coordinates":[73.796208,20.005853]},"properties":{"Name":"Nidan Pathology Laboratory","Address":"Near Hirawadi Petrol Pump Panchavati, Nashik","locationConfidence":"locality-match","Rating":"4.3","Phone":"07383388246","Category":"Prenatal Check Up"}},{"type":"Feature","geometry":{"type":"Point","coordinates":[73.595249,19.95463]},"properties":{"Name":"Swami Diagnostics And Multispeciality Dental Clinic","Address":"Nashik Pune Highway Dwarka, Nashik","locationConfidence":"locality-match","Rating":"4.7","Phone":"07383135206","Category":"Diagnostic Centre & Dental Clinic"}},{"type":"Feature","geometry":{"type":"Point","coordinates":[73.782669,19.988181]},"properties":{"Name":"Alpha Diagnostic Centre","Address":"Sai Square Mumbai Naka, Nashik","locationConfidence":"locality-match","Rating":"3.8","Phone":"07383296572","Category":"Imaging and Radiology"}},{"type":"Feature","geometry":{"type":"Point","coordinates":[73.759867,19.973779]},"properties":{"Name":"Pixel Imaging Center","Address":"Mumbai Agra Highway CIDCO, Nashik","locationConfidence":"locality-match","Rating":"4.9","Phone":"08123298576","Category":"Ultrasonography"}},{"type":"Feature","geometry":{"type":"Point","coordinates":[73.782077,19.987542]},"properties":{"Name":"Manavata 365","Address":"Mumbai Agra Highway Mumbai Naka, Nashik","locationConfidence":"locality-match","Rating":"4.9","Phone":"08460260217","Category":"Prenatal Check Up"}},{"type":"Feature","geometry":{"type":"Point","coordinates":[73.791876,20.009809]},"properties":{"Name":"Vijan Hospital Cardiology and Multi Superspeciality Centre","Address":"Dr Vijan Hospital Marg College Road, Nashik","locationConfidence":"locality-match","Rating":"4.5","Phone":"07383049603","Category":"Superspeciality Hospital"}},{"type":"Feature","geometry":{"type":"Point","coordinates":[73.794519,20.005985]},"properties":{"Name":"Chopda Hospital","Address":"Anand Vrushi Marg Panchavati, Nashik","locationConfidence":"locality-match","Rating":"4.3","Phone":"08733805385","Category":"Hospital"}},{"type":"Feature","geometry":{"type":"Point","coordinates":[73.773506,19.992142]},"properties":{"Name":"Spark Diagnostics","Address":"Ahilyabai Holkar Road Tidke Colony, Nashik","locationConfidence":"locality-match","Rating":"4.8","Phone":"07383071697","Category":"Imaging and Radiology"}},{"type":"Feature","geometry":{"type":"Point","coordinates":[73.782771,20.020782]},"properties":{"Name":"Supreme Diagnostics Center","Address":"Ashoka Marg Kalpataru Nagar, Nashik","locationConfidence":"approximate","Rating":"3.7","Phone":"08401699783","Category":"Prenatal Check Up"}},{"type":"Feature","geometry":{"type":"Point","coordinates":[73.787402,19.999782]},"properties":{"Name":"Metropolis Pathology Lab Atharva Diagnostic Centre","Address":"Yaswant Mandai Raviwar Karanja, Nashik","locationConfidence":"approximate","Rating":"4.3","Phone":"07383060134","Category":"Diagnostic centres"}}]}