{"type":"FeatureCollection","features":[{"type":"Feature","properties":{"name":"Makhmalabad UPHC","stroke":"#ffa500","stroke-opacity":1,"stroke-width":4,"sourceFolder":"Routes / Emergency routes / Anandvali ghat / Government Hospital","source":"Mobility plan Nashik KMZ (NTKMA)"},"geometry":{"type":"LineString","coordinates":[[73.75069362003792,20.02159039412584],[73.75141574211436,20.02185735350658],[73.75199378775186,20.02194240366741],[73.75421481402337,20.02212841549263],[73.75526757874204,20.02222730493909],[73.75536490578088,20.02236091602715],[73.7555850353532,20.02258871093327],[73.75590725000666,20.02273257567942],[73.7568233000345,20.02308263183652],[73.75933246747923,20.02377712520613],[73.7600119935585,20.02387000957528],[73.76030028849152,20.02389097733091],[73.76115526381504,20.023851964383],[73.76202203606144,20.02382493632774],[73.7635533244588,20.0236180151723],[73.7650277480762,20.0234847530446],[73.76674442299607,20.0234319234022],[73.76786692123804,20.02343781609817],[73.76884311554805,20.02331182809823],[73.7689420499956,20.02364752490179],[73.76898677462455,20.02418704853514],[73.76905825714158,20.02480069217221],[73.76920683277886,20.02570180743125],[73.76931936426625,20.0266289544971],[73.76949172017414,20.02731533378029],[73.76971727278217,20.02799622675512],[73.76971415768463,20.0286196805605],[73.76969980564354,20.02908782861475],[73.76971266707017,20.02992710294377],[73.76971280859144,20.03111195758888],[73.76970333714213,20.03194522657168],[73.76974494860023,20.03308711877436],[73.76983753646898,20.03362963486093],[73.76993646674282,20.03384843457186],[73.77000678642223,20.0345029436327],[73.77010258141493,20.03517434383998],[73.77014092596035,20.03565392118445],[73.7702207138203,20.03586373081538],[73.77053479395231,20.03616353616814],[73.77090496883767,20.03679594130743],[73.77101027242033,20.03693081226117],[73.77114432398602,20.0373144652181],[73.77127160641113,20.03774211936629],[73.7715142466776,20.03897700795428],[73.77175245077967,20.04059088707877],[73.7718642347821,20.04145200343565],[73.77187706292034,20.04194357040667],[73.77188884095685,20.04285262274374],[73.77204845159629,20.04344308674579],[73.77200942252722,20.04396877490268],[73.77196165436423,20.04464019321318],[73.77210212210036,20.0447322100168],[73.77259398667721,20.04473574459919],[73.77290588035594,20.04477966115844],[73.77280222274094,20.04496391818337],[73.77264848583056,20.04506441325765],[73.77236418445295,20.04502604155423],[73.77219743864124,20.04503988044505]]}},{"type":"Feature","properties":{"name":"Civil hospital","sourceFolder":"Routes / Emergency routes / Anandvali ghat / Government Hospital","source":"Mobility plan Nashik KMZ (NTKMA)"},"geometry":{"type":"Point","coordinates":[73.77828669664851,19.99688479134171]}},{"type":"Feature","properties":{"name":"ESIS Hospital","sourceFolder":"Routes / Emergency routes / Anandvali ghat / Government Hospital","source":"Mobility plan Nashik KMZ (NTKMA)"},"geometry":{"type":"Point","coordinates":[73.73378592704424,19.99181862770179]}},{"type":"Feature","properties":{"name":"Civil Hospital","stroke":"#ffa500","stroke-opacity":1,"stroke-width":4,"sourceFolder":"Routes / Emergency routes / Anandvali ghat / Government Hospital","source":"Mobility plan Nashik KMZ (NTKMA)"},"geometry":{"type":"LineString","coordinates":[[73.74724260099701,20.01835042337037],[73.74738689146524,20.0180478444894],[73.74742331248405,20.01779514412626],[73.74747419597755,20.01738927384163],[73.74748696160547,20.01726359919601],[73.74732015941923,20.01683472312686],[73.74726336776345,20.01666447381063],[73.7472218552803,20.01648374317082],[73.74719474050775,20.01618770182201],[73.74719080801034,20.01573776342618],[73.7472060830195,20.01556925229075],[73.74728776843047,20.01508297569605],[73.74732860711879,20.01449386648711],[73.74734866720691,20.01416524970584],[73.74732028412888,20.01390110252699],[73.74723375579626,20.01371276213326],[73.74723012230658,20.01357900920743],[73.7472995377815,20.01337574860255],[73.74747996636353,20.01275332403545],[73.74755777784765,20.01249617271867],[73.74764771038235,20.01224648217479],[73.74815554901703,20.01224098284299],[73.75126937376372,20.0122058611783],[73.7548043109864,20.01211003098734],[73.75589195623404,20.01203575887766],[73.7555846930656,20.00966361812892],[73.75539093620934,20.00845084323544],[73.75520115680143,20.00780547386823],[73.75482772305908,20.00657463370626],[73.75462409919179,20.00510815441457],[73.75445293132293,20.00290273945112],[73.75442230583761,20.00157515564413],[73.75443384574871,20.00069722146807],[73.75438572759559,19.99975341363625],[73.7541191096469,19.99730065113693],[73.7539515499797,19.99495384497138],[73.75400257789241,19.99424084208619],[73.75401457836762,19.99391402813189],[73.75468304884639,19.99399203364128],[73.75552268166584,19.99409503640012],[73.75641140771977,19.9942004316135],[73.75755525317057,19.9943373388284],[73.75810415053897,19.99440007719329],[73.75924391366081,19.99448098192288],[73.75977416360531,19.99450827396073],[73.76064470141797,19.99455327950759],[73.76238721693647,19.99465228434363],[73.76368262971647,19.9947064737411],[73.76515503951043,19.99471169746083],[73.76690509659059,19.99472732551138],[73.76841763254394,19.99473515436243],[73.771096193378,19.99465750580047],[73.77156246335869,19.99464212638192],[73.77212093691139,19.99462424100551],[73.77227080653405,19.99461405555698],[73.77262893293567,19.99467805686368],[73.77375448406278,19.99501781656559],[73.7746465836645,19.99528690120336],[73.7753890401157,19.99551834068403],[73.77594028230251,19.99569869995602],[73.77773602009519,19.99626623805176],[73.77843709147541,19.99648657185289],[73.77837553472382,19.99664553898011]]}},{"type":"Feature","properties":{"name":"ESIS Hospital","stroke":"#ffa500","stroke-opacity":1,"stroke-width":4,"sourceFolder":"Routes / Emergency routes / Anandvali ghat / Government Hospital","source":"Mobility plan Nashik KMZ (NTKMA)"},"geometry":{"type":"LineString","coordinates":[[73.74724327047095,20.01834959162614],[73.7473877310307,20.01804694578444],[73.74743272414685,20.01772308277129],[73.74748637432725,20.0172621669953],[73.74733262954267,20.0168672632467],[73.74726211415314,20.01666131235275],[73.74722148600847,20.0164863608033],[73.74719405357916,20.01617968383974],[73.7471915814861,20.01573493133626],[73.74720729128353,20.01556280645197],[73.74728914831707,20.01508073992416],[73.74732659627952,20.01454318386008],[73.74734785539725,20.01416482789791],[73.74731918489591,20.0138992542102],[73.74723416832994,20.01371200182572],[73.74723027957182,20.01357845314372],[73.7473213090075,20.01330373185527],[73.74747639379859,20.01276493239495],[73.74755406716031,20.01251073885599],[73.74764852777434,20.0122464262442],[73.74815554901703,20.01224098284299],[73.75126937376372,20.0122058611783],[73.7548043109864,20.01211003098734],[73.75589195623404,20.01203575887766],[73.7555846930656,20.00966361812892],[73.75539093620934,20.00845084323544],[73.75520115680143,20.00780547386823],[73.75482772305908,20.00657463370626],[73.75462409919179,20.00510815441457],[73.75445293132293,20.00290273945112],[73.75442230583761,20.00157515564413],[73.75443384574871,20.00069722146807],[73.75438572759559,19.99975341363625],[73.7541191096469,19.99730065113693],[73.7539515499797,19.99495384497138],[73.75400257789241,19.99424084208619],[73.75401453400345,19.99391480478042],[73.75314056203632,19.99377665995173],[73.75264699406829,19.99369808016986],[73.75170700694201,19.99354747806953],[73.75110279146658,19.99343936289695],[73.75014396185823,19.9932668283983],[73.74943262902421,19.99313581684624],[73.74876974675024,19.99301114679156],[73.74787253754414,19.99283861126215],[73.74746834951658,19.99276340567349],[73.74586098114261,19.9924690353196],[73.7444440506982,19.99220798377201],[73.74233055646539,19.9918961954125],[73.74156582503541,19.99178566572585],[73.74022754125059,19.99163748924046],[73.73905501332082,19.9915113489842],[73.73844547534918,19.99145341608244],[73.73676261490449,19.99129052123422],[73.73470485605051,19.99109725325804],[73.7342326641983,19.99105447633285],[73.73420141840323,19.99127104692204]]}},{"type":"Feature","properties":{"name":"UPHC","sourceFolder":"Routes / Emergency routes / Anandvali ghat / Government Hospital","source":"Mobility plan Nashik KMZ (NTKMA)"},"geometry":{"type":"Point","coordinates":[73.77234977099042,20.04500774454329]}},{"type":"Feature","properties":{"name":"Guruji Hospital","stroke":"#ffa500","stroke-opacity":1,"stroke-width":4,"sourceFolder":"Routes / Emergency routes / Anandvali ghat","source":"Mobility plan Nashik KMZ (NTKMA)"},"geometry":{"type":"LineString","coordinates":[[73.74732757457713,20.01840623676991],[73.74746594783026,20.01805429365189],[73.7474756692048,20.01780647475256],[73.74751349657714,20.01762674228903],[73.7475501910679,20.01724630101186],[73.7474532431878,20.016982444494],[73.74732494883368,20.0167088359619],[73.74725947622595,20.01648946911863],[73.74724214503209,20.01628274065319],[73.74723320059705,20.01574140335199],[73.74724817148864,20.01557246828192],[73.74728277294594,20.01538637980878],[73.74731232621284,20.01521824979009],[73.74731086515098,20.01521515571018],[73.74732931043415,20.01511164055847],[73.74734255682226,20.01481960769741],[73.74736747886584,20.01452886689306],[73.74736399882839,20.01437344128367],[73.74738966964394,20.01416715047576],[73.74737395493294,20.01399771896688],[73.74735559712005,20.01388240712882],[73.74729296006814,20.01375182181195],[73.74728408336907,20.01363066284665],[73.74730432282398,20.01351538362426],[73.7473629172407,20.01335434171227],[73.74739847213013,20.01322929978406],[73.74740820509268,20.01313624003829],[73.74749983655838,20.01286625253016],[73.74749980233197,20.01285184443354],[73.74758585941802,20.01262549204634],[73.7477078548162,20.01240591345646],[73.7477306525446,20.0122942990418],[73.74774721920909,20.01213522954015],[73.7479286927517,20.01206572301238],[73.74819278771477,20.01207610078468],[73.74840309531801,20.01207422768608],[73.74855272392068,20.01207790597596],[73.74872337199733,20.01207889857117],[73.74872668502476,20.01201425583048]]}},{"type":"Feature","properties":{"name":"Vasantrao Pawar Hospital","sourceFolder":"Routes / Emergency routes / Odha ghat : Emergency route","source":"Mobility plan Nashik KMZ (NTKMA)"},"geometry":{"type":"Point","coordinates":[73.8524810530884,20.0357811643266]}},{"type":"Feature","properties":{"name":"Jagdamb Hospital","sourceFolder":"Routes / Emergency routes / Odha ghat : Emergency route","source":"Mobility plan Nashik KMZ (NTKMA)"},"geometry":{"type":"Point","coordinates":[73.84413073893339,19.99764816095071]}},{"type":"Feature","properties":{"name":"Odha ghat : Vasantrao Pawar Medical college","stroke":"#ffa500","stroke-opacity":1,"stroke-width":4,"fill":"#ff5454","fill-opacity":0.698,"sourceFolder":"Routes / Emergency routes / Odha ghat : Emergency route","source":"Mobility plan Nashik KMZ (NTKMA)"},"geometry":{"type":"LineString","coordinates":[[73.9053164984864,19.99445749937021],[73.9051752198339,19.99443884187403],[73.90511912973422,19.99455775718718],[73.9050839931663,19.99463466314911],[73.90505846731702,19.99485197535923],[73.90507586875279,19.99548020421627],[73.90503524698333,19.99564617666758],[73.90507506253797,19.99656289672853],[73.90510614645322,19.99665145914554],[73.90498491401148,19.99668868961046],[73.90496576181755,19.99673628550149],[73.90508687682895,19.99694152187221],[73.90499151698538,19.9969343418746],[73.90390921408539,19.99681087358066],[73.90319735342278,19.9967259493368],[73.90246098324077,19.99662658255081],[73.90188148277345,19.99657221100988],[73.9016087347818,19.99654853507246],[73.90087795993493,19.99648376045269],[73.89969416544574,19.99639684426429],[73.89898366288438,19.99633989302842],[73.89864866384048,19.99630414052965],[73.89823933231914,19.99635652738692],[73.89785125946824,19.99642973423616],[73.89753284813328,19.99650321675875],[73.8965445203714,19.99673356620193],[73.89607388876632,19.99684607461255],[73.8957272242688,19.99694749035385],[73.89534948753946,19.99708299553174],[73.8952279373585,19.99718144413709],[73.89477703594181,19.99750519788302],[73.8945315879003,19.99768527490995],[73.89419135667343,19.99791547917626],[73.89392270555962,19.9981220896008],[73.89355325062914,19.9983057260757],[73.8931139332407,19.99851443694604],[73.8925227636574,19.99874398362698],[73.89185460898203,19.99900509579011],[73.89070404620377,19.99943405729011],[73.89006471386116,19.99967029523064],[73.8893820899536,19.99991549858406],[73.88849509214515,20.00011997551596],[73.88658609458034,20.00054435331563],[73.88411215522326,20.00113936067607],[73.88298954878788,20.00138340847696],[73.88223080572678,20.00152327111027],[73.8817459967965,20.00161106369446],[73.88133486708628,20.00161550013312],[73.88004654806723,20.00166079169822],[73.87909514049949,20.00162805139087],[73.87850460450225,20.00161186053006],[73.8769565916911,20.00144741513001],[73.87654433776717,20.00140270458295],[73.8756942900922,20.00113035211506],[73.87507020713414,20.0009415646826],[73.8742003019828,20.00079088152676],[73.8733017926391,20.00065235630237],[73.8727453655595,20.00057256991482],[73.87233102954302,20.0005361867065],[73.87180263536439,20.00052190618383],[73.8712667297912,20.00058820384555],[73.8709750528405,20.00063066041443],[73.8704557225805,20.00067443184822],[73.87008660207208,20.00070586596603],[73.86966478174931,20.00072356062248],[73.8691020344277,20.00063924647776],[73.86837496787334,20.00048568462903],[73.86760524301839,20.00030262317438],[73.86657662872837,20.00008642161471],[73.86552303571996,19.99986927205922],[73.86423832542174,19.99974568080934],[73.86401131329063,19.99972599399669],[73.86302230570992,19.99963822730561],[73.86262636602903,19.99959881769094],[73.8616683035997,19.99953130323622],[73.86110625359818,19.99948581517681],[73.85967176827863,19.99936212991387],[73.85927479348992,19.99928530184993],[73.85857758174446,19.99916226778954],[73.85810816041138,19.99907244472165],[73.85743460964802,19.99898138007748],[73.85618056632634,19.99876122672624],[73.85571084956679,19.99866935803654],[73.855198964106,19.99856726399247],[73.85402198393717,19.99839694469364],[73.85343211083872,19.99834529007511],[73.85248243167649,19.99828583236486],[73.85184852329952,19.99823076266722],[73.85131006616827,19.99818349557637],[73.85089337000724,19.99811709660558],[73.85065144945527,19.99807426360671],[73.84905727736755,19.99770789172779],[73.84787772539566,19.99758678673419],[73.84638205344433,19.9973616286676],[73.8455251117654,19.99722162726253],[73.84491550601665,19.99710532932082],[73.84431938340022,19.99700618888026],[73.84432772863175,19.99741730110088],[73.84427538428795,19.99830173915712],[73.84422417287628,19.99939445578494],[73.8441844646233,20.00018022684034],[73.844169804735,20.00101444719468],[73.84416152288146,20.00150991265248],[73.84414101789226,20.0023040087878],[73.8441011237241,20.00302170853575],[73.84407827419774,20.00362427916791],[73.84402323691347,20.00495272145582],[73.84392744457215,20.00750007872084],[73.84382496319404,20.01005796336088],[73.84380556730625,20.01044021462835],[73.84383107168655,20.01150571975929],[73.84378391636085,20.01261534920005],[73.84376117424894,20.01312751567989],[73.84375605595825,20.01342796217263],[73.84359591418209,20.01400642218624],[73.84329134604468,20.015061723734],[73.84315203766121,20.01560542512143],[73.84309129826401,20.01622128847025],[73.84299053733332,20.01723738909777],[73.84296649670308,20.01761250921717],[73.84290308275482,20.01875184614314],[73.84261953719674,20.0206253349485],[73.84253365124128,20.02095508264811],[73.84246109425561,20.02126461676515],[73.84224767608285,20.02237442413052],[73.84214261032156,20.02288637101556],[73.84204214982913,20.02359340989185],[73.84202342911676,20.0244253934324],[73.84199295170073,20.02512999838113],[73.8418583266634,20.02570168350496],[73.84239762362041,20.0259296503753],[73.84322679194058,20.02629326738763],[73.84468769034672,20.02682050119096],[73.84727065936278,20.02760884800558],[73.84908944017948,20.02817546978476],[73.85002938256046,20.0284546428613],[73.8504561181795,20.02859817640417],[73.85184822430985,20.0290616874484],[73.85388390169291,20.02980778976055],[73.85502899791952,20.03023052037561],[73.85580334857147,20.03060065720032],[73.85616479654378,20.0308094985458],[73.85654022941425,20.03115237129364],[73.85569060659223,20.03148932158127],[73.8550173903768,20.03181306192508],[73.85450420988444,20.03213021962933],[73.85416293164162,20.03233930923767],[73.85390659908744,20.03252719573537],[73.85370878452473,20.03274156573741],[73.85344862597344,20.03320227463817],[73.85309140130273,20.03370508439769],[73.85268823552677,20.03404895438855],[73.85216466888487,20.03444489470138],[73.85178640690371,20.03467711544901],[73.85148540277545,20.03498727669611],[73.85175666210111,20.0352293083489]]}},{"type":"Feature","properties":{"name":"Odha ghat : Jagdamb Hospital","stroke":"#ffa500","stroke-opacity":1,"stroke-width":4,"fill":"#ff5454","fill-opacity":0.698,"sourceFolder":"Routes / Emergency routes / Odha ghat : Emergency route","source":"Mobility plan Nashik KMZ (NTKMA)"},"geometry":{"type":"LineString","coordinates":[[73.90531154298854,19.99445681954873],[73.9051763964253,19.99443819141871],[73.90508394401282,19.99463846426718],[73.90505815569071,19.99485219108722],[73.90507629961675,19.99547494788355],[73.9050347500678,19.99564498360599],[73.90505686230512,19.99615598830366],[73.90507564811124,19.99655625730196],[73.90510598502134,19.99665107174708],[73.90498517816282,19.99668790675106],[73.90496716375023,19.99673603433899],[73.9050863350472,19.99694062747783],[73.903892512145,19.99680928930562],[73.9030180918524,19.99670019532513],[73.90248058826681,19.99663030202963],[73.90189601286039,19.99657434361828],[73.90102310034253,19.99649636953612],[73.90049605172324,19.99645613371635],[73.89968043225834,19.99639578498693],[73.89898230876155,19.9963405895573],[73.89864250000115,19.99630613928336],[73.89844443607343,19.9963289731479],[73.89823641638134,19.99635654709214],[73.89785546624181,19.99643083826242],[73.89705963406071,19.99661175589385],[73.89650224016563,19.99674568340729],[73.89607669632824,19.99684528154803],[73.89573954247044,19.99694288374842],[73.89534926082845,19.99708371512162],[73.89522891401396,19.99718034033694],[73.89455673392804,19.99766897925499],[73.8941885407493,19.99791908012945],[73.89391743854475,19.99812456078256],[73.89352661462142,19.99831767418402],[73.8931056381347,19.99851748102558],[73.89255542786712,19.99873163021474],[73.89187512525332,19.998997619919],[73.89070660535326,19.99943418035523],[73.89007909062757,19.99966501723116],[73.88938289778437,19.99991452319369],[73.88849369840676,20.00011987258884],[73.88782449937587,20.00026984772709],[73.88658609458034,20.00054435331563],[73.88411215522326,20.00113936067607],[73.8829944867127,20.00138187002454],[73.88209204704967,20.00154629975408],[73.88174710447642,20.00161043171718],[73.88134368480138,20.00161610806806],[73.88051432168525,20.00164508725969],[73.88004046013603,20.00166086445807],[73.8791931939827,20.00163068893971],[73.87850730891941,20.00161256964484],[73.8769565916911,20.00144741513001],[73.8765491754761,20.00140276897917],[73.87568861129279,20.00112787613232],[73.87507310372237,20.00094185774562],[73.8742003019828,20.00079088152676],[73.87347413905417,20.00068008798897],[73.8727435246374,20.00057138976979],[73.87233009412665,20.00053486663533],[73.87180549330115,20.0005211366974],[73.87126622467969,20.00058727345732],[73.87097261360084,20.00063126310707],[73.87070793435167,20.00065289559159],[73.87008381114111,20.00070516962341],[73.86966917655943,20.0007240934923],[73.86909857556533,20.00063847847677],[73.86839458154874,20.00048869891551],[73.867603450154,20.00030241589713],[73.8670398501513,20.0001835780568],[73.86655631872904,20.00008199720684],[73.86552436204886,19.99986877340549],[73.8640892288165,19.99973130550174],[73.86313316160887,19.99964687931657],[73.86262993807881,19.99959913454243],[73.86168306115988,19.99953191137406],[73.86111482530364,19.99948616011606],[73.859677393734,19.99936402237888],[73.85927911417622,19.99928525855167],[73.85862092465646,19.99917052110721],[73.85811120916836,19.99907168448875],[73.85743358545774,19.99898005695073],[73.85659275899518,19.99883264231361],[73.85623464673232,19.9987717204468],[73.8556689604135,19.99866122313889],[73.85519352701418,19.99856578548284],[73.85403779615635,19.99839687376113],[73.85333050293588,19.9983390605667],[73.85248321028836,19.9982869380852],[73.8513146803508,19.99818436235639],[73.8508913266274,19.9981170961682],[73.85066088644764,19.99807428013459],[73.84905727736755,19.99770789172779],[73.84787772539566,19.99758678673419],[73.84638151811806,19.9973619856525],[73.84561133672277,19.99723495184735],[73.84491770944157,19.99710507660752],[73.84432079100557,19.99700666864159],[73.84432745837336,19.99741745487878],[73.84431180853286,19.99766701011009],[73.84420147523669,19.99766547128523]]}},{"type":"Feature","properties":{"name":"Nandur ghat : Vasantrao Pawar Medical college","stroke":"#ffa500","stroke-opacity":1,"stroke-width":4,"fill":"#ff5454","fill-opacity":0.698,"sourceFolder":"Routes / Emergency routes / Nandur ghat : Emergency route","source":"Mobility plan Nashik KMZ (NTKMA)"},"geometry":{"type":"LineString","coordinates":[[73.84568346923899,19.99038163487194],[73.84566303070727,19.99084713055439],[73.84547287076909,19.99117531902283],[73.84512907574224,19.99142422823082],[73.8449714489823,19.99155002448689],[73.84460729491735,19.99195309112163],[73.84405884003712,19.99285854632553],[73.84399003245723,19.99314098397695],[73.8438654820403,19.99367362979347],[73.84379933651034,19.99465099444564],[73.84379563832962,19.99493828502861],[73.84384571168764,19.99591895191206],[73.84390181045414,19.99683727903589],[73.84414190139726,19.99705226687878],[73.84432081119864,19.99707740610897],[73.8443269739679,19.99741845229179],[73.84430006135561,19.99790029825134],[73.8442683593804,19.99843335385974],[73.84423605357922,19.99915791579158],[73.84422269110502,19.99939904374391],[73.8441844646233,20.00018022684034],[73.84416910371884,20.00101106750489],[73.84415560024215,20.00172693499987],[73.8441427946174,20.00226306454148],[73.84410018686026,20.00305016039488],[73.84408055257776,20.00358597993568],[73.84402316016113,20.00494646417617],[73.84390533457514,20.00803074563263],[73.84382363515834,20.01005645978692],[73.84380761902936,20.01041865798345],[73.84383289326833,20.01149182574059],[73.84375841525964,20.01313876846719],[73.84375596708476,20.01343374803077],[73.84347517543245,20.01441372718956],[73.84329310989469,20.01505553729288],[73.8431514061095,20.01560083078802],[73.84303709732674,20.01678400949268],[73.84299263893381,20.01722986906224],[73.84290593393263,20.01869958520502],[73.84280596832551,20.01937682189918],[73.84262468735841,20.02060666211147],[73.8424638088901,20.02124114686989],[73.84223335709639,20.02245494825739],[73.84214274277741,20.02287800121851],[73.84204773708078,20.02357561125102],[73.8419945564667,20.02509848674974],[73.8418613701433,20.02570124499974],[73.84239762362041,20.0259296503753],[73.8432065820967,20.02628636312542],[73.84467157248622,20.0268181837783],[73.84724038194135,20.02759857817579],[73.84908890601307,20.02817135750681],[73.84989876250894,20.02841475043004],[73.8512130532488,20.02884830455475],[73.85185542055832,20.02906237672899],[73.85385446033294,20.02979775694407],[73.8550278676565,20.03022762192571],[73.85578392416446,20.03059178039741],[73.85616568319536,20.03081276797262],[73.85654105418942,20.0311513789868],[73.85616621059403,20.03130118990164],[73.85568950221335,20.03148649906938],[73.85502466670798,20.03181109751184],[73.85458497305613,20.03207943017138],[73.85438050368123,20.03220572252523],[73.85416443942553,20.03233706877],[73.8539152025806,20.0325227995655],[73.85371556242374,20.03273310709847],[73.85344915541239,20.03320024778765],[73.85310172540805,20.03369568674209],[73.85268629677316,20.03405156201194],[73.85216255216844,20.03444480410926],[73.85178363902699,20.03468125640884],[73.85148991807642,20.03498625893892],[73.85175399607452,20.03522979788758]]}},{"type":"Feature","properties":{"name":"Vasantrao Pawar Hospital","sourceFolder":"Routes / Emergency routes / Nandur ghat : Emergency route","source":"Mobility plan Nashik KMZ (NTKMA)"},"geometry":{"type":"Point","coordinates":[73.8524810530884,20.0357811643266]}},{"type":"Feature","properties":{"name":"Dasak ghat : BYTCO hospital","stroke":"#ffa500","stroke-opacity":1,"stroke-width":4,"fill":"#ff5454","fill-opacity":0.698,"sourceFolder":"Routes / Emergency routes / Dasak ghat : Emergency route","source":"Mobility plan Nashik KMZ (NTKMA)"},"geometry":{"type":"LineString","coordinates":[[73.85005278628064,19.98770549986226],[73.84945866812171,19.98718199815929],[73.8492162366829,19.986922689807],[73.84905402978612,19.98671633014694],[73.84881004219702,19.98630570442924],[73.84841762021867,19.98574125675891],[73.84818181530866,19.98540811271248],[73.84794375915412,19.98508704372523],[73.84788801905856,19.98500832900984],[73.84798099999084,19.98366317917499],[73.84800945131938,19.98298533485808],[73.84806750972643,19.9824600967085],[73.84811162810239,19.98205044378883],[73.84811419059835,19.9817857328431],[73.84823048165009,19.98086768252056],[73.8482788398892,19.98012870016415],[73.8483535281952,19.97924507694799],[73.84842421602679,19.97820044703467],[73.84849714794503,19.97727858330712],[73.84854241374418,19.97639490912642],[73.84873360616008,19.97456715620967],[73.84878353682774,19.97384017023353],[73.84898679669719,19.97201375499181],[73.84909376396898,19.9715395117831],[73.84916209180551,19.97120426677077],[73.84917017713558,19.97107828935028],[73.84904222263889,19.97095003618978],[73.84885708110944,19.97090774620619],[73.84858693829878,19.97091197077355],[73.84806246541203,19.9710524931335],[73.84742828029806,19.9712218300574],[73.84709069364897,19.97133228855951],[73.8467198066892,19.97143976791981],[73.84640910635214,19.97146686375907],[73.84615073358788,19.97144428333508],[73.84576960181252,19.97140828367619],[73.84534628463804,19.97137691446027],[73.8450494930474,19.97137243592116],[73.84441936614712,19.97129235815791],[73.84369698223998,19.97125261170641],[73.84263631717239,19.97120429328367],[73.84191276356903,19.97116497415324],[73.84059133100293,19.97070372345588],[73.84043102605304,19.97020400340872],[73.84015714774836,19.96851708635217],[73.83994177799401,19.96710380810223],[73.83987896779155,19.9667382521407],[73.83976941204256,19.96630630776728],[73.83965564336502,19.96524963525131],[73.83964459425852,19.96475993522576],[73.83939402138436,19.96220993424166],[73.83913384936092,19.96043333713975],[73.83897596316764,19.95937735445142],[73.83882621357716,19.95822894380112],[73.83851294649266,19.95652825114997],[73.83810012627737,19.95453963198315],[73.83791636490982,19.95398921808739],[73.83772507745576,19.95352130676186],[73.83765540967627,19.95291487189795],[73.83750472106375,19.9509839374273],[73.83737285888492,19.94988707883873],[73.83724366089905,19.94804905137042],[73.8372094028982,19.94775907811218]]}},{"type":"Feature","properties":{"name":"Proposed Dasak ghat : BYTCO hospital","stroke":"#ffa500","stroke-opacity":1,"stroke-width":4,"fill":"#ff5454","fill-opacity":0.698,"sourceFolder":"Routes / Emergency routes / Dasak ghat : Emergency route","source":"Mobility plan Nashik KMZ (NTKMA)"},"geometry":{"type":"LineString","coordinates":[[73.84028374159277,19.98268823805073],[73.84098144564047,19.98268444265187],[73.84112366606122,19.9826922301548],[73.84159624783634,19.98271765261797],[73.8419908676494,19.98274843895049],[73.84286070306946,19.98282147405326],[73.8432244903942,19.98286131519948],[73.84377341720277,19.9829206743303],[73.8441191663058,19.98295077515372],[73.84467169443448,19.98295352069353],[73.84480695663936,19.98294252995643],[73.84492519455526,19.98328042233216],[73.84540911695787,19.98369408320679],[73.84601338365712,19.98412049851948],[73.8466471803116,19.98439035427906],[73.84746227561772,19.98477262407866],[73.84788801905856,19.98500832900984],[73.84798099999084,19.98366317917499],[73.84800945131938,19.98298533485808],[73.84806750972643,19.9824600967085],[73.84811162810239,19.98205044378883],[73.84811419059835,19.9817857328431],[73.84823048165009,19.98086768252056],[73.8482788398892,19.98012870016415],[73.8483535281952,19.97924507694799],[73.84842421602679,19.97820044703467],[73.84849714794503,19.97727858330712],[73.84854241374418,19.97639490912642],[73.84873360616008,19.97456715620967],[73.84878353682774,19.97384017023353],[73.84898679669719,19.97201375499181],[73.84909376396898,19.9715395117831],[73.84916209180551,19.97120426677077],[73.84917017713558,19.97107828935028],[73.84904222263889,19.97095003618978],[73.84885708110944,19.97090774620619],[73.84858693829878,19.97091197077355],[73.84806246541203,19.9710524931335],[73.84742828029806,19.9712218300574],[73.84709069364897,19.97133228855951],[73.8467198066892,19.97143976791981],[73.84640910635214,19.97146686375907],[73.84615073358788,19.97144428333508],[73.84576960181252,19.97140828367619],[73.84534628463804,19.97137691446027],[73.8450494930474,19.97137243592116],[73.84441936614712,19.97129235815791],[73.84369698223998,19.97125261170641],[73.84263631717239,19.97120429328367],[73.84191276356903,19.97116497415324],[73.84059133100293,19.97070372345588],[73.84043102605304,19.97020400340872],[73.84015714774836,19.96851708635217],[73.83994177799401,19.96710380810223],[73.83987896779155,19.9667382521407],[73.83976941204256,19.96630630776728],[73.83965564336502,19.96524963525131],[73.83964459425852,19.96475993522576],[73.83939402138436,19.96220993424166],[73.83913384936092,19.96043333713975],[73.83897596316764,19.95937735445142],[73.83882621357716,19.95822894380112],[73.83851294649266,19.95652825114997],[73.83810012627737,19.95453963198315],[73.83791636490982,19.95398921808739],[73.83772507745576,19.95352130676186],[73.83765540967627,19.95291487189795],[73.83750472106375,19.9509839374273],[73.83737285888492,19.94988707883873],[73.83724366089905,19.94804905137042],[73.8372094028982,19.94775907811218]]}},{"type":"Feature","properties":{"name":"BYTCO hospital","sourceFolder":"Routes / Emergency routes / Dasak ghat : Emergency route","source":"Mobility plan Nashik KMZ (NTKMA)"},"geometry":{"type":"Point","coordinates":[73.83840201438097,19.94804434395069]}},{"type":"Feature","properties":{"name":"Tapovan Hospital","stroke":"#ffa500","stroke-opacity":1,"stroke-width":4,"fill":"#ff5454","fill-opacity":0.698,"sourceFolder":"Routes / Emergency routes / Takli Sangam (Proposed & Existing) ghat : Emergency routes","source":"Mobility plan Nashik KMZ (NTKMA)"},"geometry":{"type":"LineString","coordinates":[[73.82275771734983,19.9899958356919],[73.82314265795722,19.99100792363445],[73.82330141999886,19.99202603855492],[73.8235530695403,19.9934144880697],[73.82386357748496,19.99517487722391],[73.82410636384778,19.99579123447189],[73.82438879733326,19.99696147691196],[73.8246583796869,19.99791940061573],[73.82479925046242,19.9985636425472],[73.82496210619063,19.99922145541474],[73.8251534079952,20.00014673315097],[73.82532365688623,20.00099516563917],[73.82552941856888,20.00201241270856],[73.82565834298597,20.00274480502506],[73.82582877827622,20.00385799022657],[73.82593425497537,20.004415469379],[73.82599978497997,20.00492688681244],[73.82604203955425,20.00540795359118],[73.8260318281411,20.0065250507616],[73.82605661251205,20.00765147680599],[73.82617907817686,20.00860795903451],[73.82608592363059,20.00950812932501],[73.82591598506231,20.01066718580011],[73.82585231023295,20.01170623010384],[73.82571013926459,20.01425122036568],[73.82562369087623,20.01536977462644],[73.82550306058829,20.01588441693669],[73.8254011092059,20.01634865445983],[73.82439835999354,20.01597767879823],[73.8238446052601,20.01575637215468],[73.82311634588065,20.01553420341315],[73.82185099708428,20.01510805615445],[73.8208812133226,20.01480932163533],[73.81970586799561,20.0144569125066],[73.81835110109643,20.01399918645111],[73.81755687124893,20.01372247855047],[73.81690668843945,20.01344311348545],[73.81581526381386,20.01292919334414],[73.81554729587899,20.01281096019516],[73.81576316061327,20.01232101177475],[73.81592901172769,20.01190803781323]]}},{"type":"Feature","properties":{"name":"Zakir Hussain hospital","sourceFolder":"Routes / Emergency routes / Takli Sangam (Proposed & Existing) ghat : Emergency routes","source":"Mobility plan Nashik KMZ (NTKMA)"},"geometry":{"type":"Point","coordinates":[73.79912770930166,19.99584917660715]}},{"type":"Feature","properties":{"name":"Muktai Hospital","stroke":"#ffa500","stroke-opacity":1,"stroke-width":4,"fill":"#ff5454","fill-opacity":0.698,"sourceFolder":"Routes / Emergency routes / Takli Sangam (Proposed & Existing) ghat : Emergency routes","source":"Mobility plan Nashik KMZ (NTKMA)"},"geometry":{"type":"LineString","coordinates":[[73.82253561770007,19.98932144644228],[73.82236536392523,19.98891554795657],[73.82186573847741,19.98766642113294],[73.82134021834528,19.98666599086175],[73.82090948549376,19.98616527739574],[73.82021434906274,19.98577524039605],[73.81949095252823,19.98551856441102],[73.81896932289891,19.98543885673567],[73.81870601029841,19.98554969587605],[73.8179949497835,19.98564957659852],[73.81755175752112,19.98575733107506],[73.81734862328668,19.9857438878133],[73.81710488179039,19.98580617837688],[73.81653882691418,19.98594048974478],[73.816291093943,19.98596047062047],[73.81574522340777,19.9860006099508],[73.81515088340474,19.98599659600837],[73.81458589646542,19.98598454841731],[73.8144207276684,19.98586120005968]]}},{"type":"Feature","properties":{"name":"Suvichar Hospital","stroke":"#ffa500","stroke-opacity":1,"stroke-width":4,"fill":"#ff5454","fill-opacity":0.698,"sourceFolder":"Routes / Emergency routes / Takli Sangam (Proposed & Existing) ghat : Emergency routes","source":"Mobility plan Nashik KMZ (NTKMA)"},"geometry":{"type":"LineString","coordinates":[[73.82254012683447,19.98931876355427],[73.82236536392523,19.98891554795657],[73.82186662529485,19.98766637295138],[73.8213364737593,19.9866558663473],[73.82090570786006,19.98616065458916],[73.82021174289716,19.98576923357241],[73.81950199701943,19.98552260048358],[73.81897699698077,19.98543991444345],[73.81821257318106,19.98535660369777],[73.81763295031817,19.98533079045674],[73.8174977975513,19.98532143587563],[73.81738452188141,19.98506650933751],[73.81663954928354,19.98501024081069],[73.81633555248327,19.98495890448481],[73.81585580878914,19.98479791319878],[73.81486770970233,19.9842652469625],[73.81325268038647,19.98330740907804],[73.81193425673152,19.9824175263995],[73.81061845524047,19.98161937963829],[73.80963350567404,19.98101880685586],[73.80730892214406,19.97963450868165],[73.8069840963609,19.97998615909293],[73.80565663043669,19.9814747751106],[73.80454162010231,19.98260308825637],[73.80295822588785,19.98434431473934],[73.80295475683259,19.98418458293571],[73.80292550942583,19.98373102679046],[73.80279243996347,19.98275453504514]]}},{"type":"Feature","properties":{"name":"Suvichar Hospital","stroke":"#ffa500","stroke-opacity":1,"stroke-width":4,"fill":"#ff5454","fill-opacity":0.698,"sourceFolder":"Routes / Emergency routes / Takli Sangam (Proposed & Existing) ghat : Emergency routes","source":"Mobility plan Nashik KMZ (NTKMA)"},"geometry":{"type":"Point","coordinates":[73.80255604101667,19.98265600667297]}},{"type":"Feature","properties":{"name":"Muktai Hospital","stroke":"#ffa500","stroke-opacity":1,"stroke-width":4,"fill":"#ff5454","fill-opacity":0.698,"sourceFolder":"Routes / Emergency routes / Takli Sangam (Proposed & Existing) ghat : Emergency routes","source":"Mobility plan Nashik KMZ (NTKMA)"},"geometry":{"type":"Point","coordinates":[73.81431987463714,19.9858737935333]}},{"type":"Feature","properties":{"name":"Zakir Hussain","stroke":"#ffa500","stroke-opacity":1,"stroke-width":4,"fill":"#ff5454","fill-opacity":0.698,"sourceFolder":"Routes / Emergency routes / Takli Sangam (Proposed & Existing) ghat : Emergency routes","source":"Mobility plan Nashik KMZ (NTKMA)"},"geometry":{"type":"LineString","coordinates":[[73.82253057030344,19.98930202886737],[73.82209793359876,19.98825339352177],[73.8218583720135,19.98764841269772],[73.82170798077907,19.98737055388772],[73.82146810626764,19.9869119893014],[73.82133798609577,19.98665487568388],[73.82090617962743,19.98615935161738],[73.82020577187677,19.9857683354689],[73.8199000396693,19.98566124783932],[73.81950139950261,19.98552223817346],[73.81897361985308,19.98543915340122],[73.8182156323592,19.98535579089971],[73.81750186602275,19.9853224791607],[73.8174362138773,19.98654154512433],[73.8173408434854,19.98728035201787],[73.8173079880556,19.98798098885545],[73.81721513151258,19.98804262870037],[73.81675156958751,19.98839599561043],[73.81628646437291,19.98877937155093],[73.81553117159241,19.9893695026412],[73.81514071023285,19.98970867202067],[73.81522933298012,19.99010872582027],[73.8154014876416,19.99034767624744],[73.81553995824522,19.99074905509578],[73.81561899365907,19.99117807762436],[73.81562951458676,19.99135313332985],[73.8155156964836,19.99148302895392],[73.81528796440766,19.99154567002126],[73.814813563441,19.99164178499138],[73.81424329365903,19.99176315619917],[73.8138592657942,19.99186549132339],[73.81364861557816,19.9919602420326],[73.81352518982818,19.99206329000984],[73.81273230713002,19.99267972055001],[73.81238424955232,19.99304321028869],[73.81177293225898,19.99355718615042],[73.81147828484963,19.99372004686078],[73.81115048865166,19.99380252367797],[73.80973458763599,19.99393802708097],[73.80936785357069,19.99394084568711],[73.80921863030277,19.99402825382683],[73.8090590087093,19.99406379588804],[73.80809871447451,19.99432734347148],[73.80727298813203,19.99467165765359],[73.80691670133625,19.9947862289767],[73.80657881706361,19.99485249399714],[73.8056213383295,19.99480903519956],[73.80490403701866,19.99484565106299],[73.80414191234985,19.99498488065689],[73.80374475590853,19.99506778069657],[73.80268709141477,19.99527211451869],[73.80166958112761,19.99551502527839],[73.8010977850714,19.99567412937699],[73.80082655049745,19.99581284968824],[73.80037645386713,19.99613148160122],[73.8002072710492,19.99603053021851],[73.79960016204748,19.99571614157029]]}},{"type":"Feature","properties":{"name":"Tapovan Hospital","stroke":"#ffa500","stroke-opacity":1,"stroke-width":4,"fill":"#ff5454","fill-opacity":0.698,"sourceFolder":"Routes / Emergency routes / Takli Sangam (Proposed & Existing) ghat : Emergency routes","source":"Mobility plan Nashik KMZ (NTKMA)"},"geometry":{"type":"LineString","coordinates":[[73.82275485950593,19.98999775658363],[73.82313950984945,19.99100640386669],[73.82316948031556,19.99119349005691],[73.82330052252986,19.99201117977876],[73.82355703149256,19.99342969968108],[73.82376528718864,19.99460268829505],[73.82385970848972,19.99516600901186],[73.8241055850995,19.99578053893335],[73.8242416963413,19.99634387582758],[73.82441664471142,19.99706053866649],[73.82465172803282,19.9978924521311],[73.82479254222945,19.99853643316851],[73.82496210619063,19.99922145541474],[73.8251534079952,20.00014673315097],[73.82532365688623,20.00099516563917],[73.82552799805039,20.00200141475289],[73.82565710926795,20.00274950112709],[73.82582321346696,20.00381635821194],[73.825924291856,20.00436147006229],[73.82585407145865,20.0046720420103],[73.82561621331278,20.00493488108814],[73.82506782827151,20.00508829304825],[73.82432756960435,20.00542471044262],[73.82368929746802,20.00575414043611],[73.82308549419947,20.00604109067001],[73.8224333406678,20.00636862952723],[73.82177802757279,20.00666708054726],[73.82078327903187,20.00705997721052],[73.82000041871524,20.00737017757143],[73.81877905733458,20.00780901538989],[73.81794001082967,20.00814512767103],[73.817444577879,20.00824920947826],[73.8163217941955,20.00839091340489],[73.81584842487825,20.00847311903835],[73.8152688332794,20.00860993481396],[73.81514377595013,20.00836854480002],[73.81504601598265,20.00814458089012],[73.81480664470794,20.00769391329369],[73.81511008443357,20.0076331450645]]}},{"type":"Feature","properties":{"name":"Apollo Hospital","sourceFolder":"Routes / Emergency routes / Takli Sangam (Proposed & Existing) ghat : Emergency routes","source":"Mobility plan Nashik KMZ (NTKMA)"},"geometry":{"type":"Point","coordinates":[73.81620103144778,20.01217139248465]}},{"type":"Feature","properties":{"name":"Suvichar Hospital","stroke":"#ffa500","stroke-opacity":1,"stroke-width":4,"fill":"#ff5454","fill-opacity":0.698,"sourceFolder":"Routes / Emergency routes / Takli sangam ghat (VIP) : Emergency routes","source":"Mobility plan Nashik KMZ (NTKMA)"},"geometry":{"type":"Point","coordinates":[73.80255604101667,19.98265600667297]}},{"type":"Feature","properties":{"name":"Suvichar Hospital","stroke":"#ffa500","stroke-opacity":1,"stroke-width":4,"fill":"#ff5454","fill-opacity":0.698,"sourceFolder":"Routes / Emergency routes / Takli sangam ghat (VIP) : Emergency routes","source":"Mobility plan Nashik KMZ (NTKMA)"},"geometry":{"type":"LineString","coordinates":[[73.81515069911515,19.98970053258548],[73.8154228865547,19.98946560844183],[73.81554924934957,19.98935612903616],[73.81628573955483,19.98877819830695],[73.81651193285354,19.98859337798034],[73.81674670273526,19.98840137984124],[73.81700952044272,19.98819967326397],[73.81718313232724,19.98806682290516],[73.81731034592804,19.98797946484543],[73.8173155221983,19.98781277640317],[73.81734263941664,19.98726389517862],[73.81743802292169,19.98653721832581],[73.81748721422542,19.98557936557727],[73.81750190046003,19.98532612045739],[73.81738437656148,19.98506764595135],[73.81664143877774,19.98500983224588],[73.81633817487739,19.98496013068856],[73.81585958542254,19.98479824007532],[73.81480589019655,19.98423034869039],[73.81325034030678,19.98330454392975],[73.8128831548721,19.983058909141],[73.81203311762992,19.98248407321519],[73.81193472611942,19.98241652062334],[73.81138069519483,19.98208248628132],[73.8104859129489,19.98153675502881],[73.80992914127404,19.98119833409369],[73.80956996273964,19.98098110802809],[73.80869694736462,19.98046074709402],[73.80730998299644,19.97963367653101],[73.8069840963609,19.97998615909293],[73.80565663043669,19.9814747751106],[73.80454162010231,19.98260308825637],[73.80295822588785,19.98434431473934],[73.80295475683259,19.98418458293571],[73.80292550942583,19.98373102679046],[73.80279243996347,19.98275453504514]]}},{"type":"Feature","properties":{"name":"Takli Sangam ghat (VIP) -Sahyadri Hospital emergency route","stroke":"#ffa500","stroke-opacity":1,"stroke-width":4,"fill":"#ff5454","fill-opacity":0.698,"sourceFolder":"Routes / Emergency routes / Takli sangam ghat (VIP) : Emergency routes","source":"Mobility plan Nashik KMZ (NTKMA)"},"geometry":{"type":"LineString","coordinates":[[73.81551382106377,19.99148221052231],[73.81527678003592,19.99154836711567],[73.8150896923944,19.99158594599042],[73.81440854394017,19.99172797833518],[73.81424171375893,19.99176205924723],[73.81386210366446,19.99186357785404],[73.81365106761585,19.99195901483516],[73.81334602837926,19.99220228548769],[73.81273130814938,19.99267947936956],[73.81238042151435,19.9930458872516],[73.81178127298718,19.99354991764651],[73.81148317858857,19.99371976744897],[73.81114797406613,19.99380389988701],[73.81071021425628,19.99384223008175],[73.80973677373242,19.99393672964524],[73.809366464982,19.99394073171318],[73.80916857935776,19.99232150911347],[73.8080909280541,19.99242868670533],[73.80573720444478,19.99282452349225],[73.80565910666972,19.99226795323149],[73.80536316336595,19.99074874015008],[73.8052859862782,19.99054981032385],[73.80495224829457,19.99030606406765],[73.80439099209403,19.98997378431812],[73.80414731011348,19.98989721681043],[73.80236217387277,19.99012825944831],[73.80132981460731,19.9902142052048],[73.80089598957947,19.99025093644362],[73.80034469532859,19.99034582693439],[73.79998878635098,19.99045383183553],[73.7997394458664,19.99058910794487],[73.79936009004614,19.99080910141019],[73.79848409926073,19.99052066310879],[73.79774178021344,19.99017760756026],[73.79606040091875,19.989610704065],[73.79545134027939,19.98937127528435],[73.79436331474689,19.9889918893871],[73.79351814858634,19.98873302491253]]}},{"type":"Feature","properties":{"name":"Sahyadri Hospital","sourceFolder":"Routes / Emergency routes / Takli sangam ghat (VIP) : Emergency routes","source":"Mobility plan Nashik KMZ (NTKMA)"},"geometry":{"type":"Point","coordinates":[73.79364644765047,19.98942918885763]}},{"type":"Feature","properties":{"name":"Tapovan Hospital","sourceFolder":"Routes / Emergency routes / Lakshminarayan ghat : Emergency routes","source":"Mobility plan Nashik KMZ (NTKMA)"},"geometry":{"type":"Point","coordinates":[73.81540217509531,20.00756234825224]}},{"type":"Feature","properties":{"name":"Tapovan Hospital","stroke":"#ffa500","stroke-opacity":1,"stroke-width":4,"fill":"#ff5454","fill-opacity":0.698,"sourceFolder":"Routes / Emergency routes / Lakshminarayan ghat : Emergency routes","source":"Mobility plan Nashik KMZ (NTKMA)"},"geometry":{"type":"LineString","coordinates":[[73.81005379957968,19.99966843950311],[73.81002689108965,19.99916002021666],[73.8100937600728,19.99916009923635],[73.8102044183438,19.99944551849856],[73.81132699119026,20.00106605737693],[73.81175692143698,20.00166936442756],[73.81208522144667,20.00231279155895],[73.8126706722638,20.00336862614466],[73.81334986241288,20.00467948240526],[73.81390500150438,20.00567952164528],[73.81420029673686,20.00643817213913],[73.81427509918649,20.00659821822708],[73.8146814877299,20.00742407647767],[73.81477513731743,20.00765895420727],[73.81494776257675,20.00763976463422],[73.81511400467427,20.00759468696663]]}},{"type":"Feature","properties":{"name":"Sahyadri Hospital","sourceFolder":"Routes / Emergency routes / Lakshminarayan ghat : Emergency routes","source":"Mobility plan Nashik KMZ (NTKMA)"},"geometry":{"type":"Point","coordinates":[73.79364644765047,19.98942918885763]}},{"type":"Feature","properties":{"name":"Lakshminarayan ghat - Sahyadri Hospital emergency route","stroke":"#ffa500","stroke-opacity":1,"stroke-width":4,"fill":"#ff5454","fill-opacity":0.698,"sourceFolder":"Routes / Emergency routes / Lakshminarayan ghat : Emergency routes","source":"Mobility plan Nashik KMZ (NTKMA)"},"geometry":{"type":"LineString","coordinates":[[73.81005225817944,19.99966645107516],[73.81002677273821,19.99916246992489],[73.81002476352046,19.99893839247972],[73.80993750763272,19.99852077598415],[73.80981803506333,19.99796004676857],[73.80980264398602,19.99763463399803],[73.80969699729644,19.99597696544082],[73.8094437290557,19.99480514083074],[73.80937777821885,19.99400241270153],[73.80923261531056,19.99287082662987],[73.8091690699031,19.99231866076635],[73.80807061966843,19.99243203050581],[73.80573946399092,19.99281778683654],[73.80566147269548,19.99226656348145],[73.80536389969805,19.99074536866141],[73.80528748007772,19.99054918067402],[73.80497326284517,19.99031997758054],[73.80438466210516,19.98997016858421],[73.80414393992203,19.98989709992876],[73.80235047256855,19.9901278974417],[73.80093820182415,19.99024612178696],[73.80035516037921,19.99034454810753],[73.79998795621654,19.99045409574432],[73.7997394458664,19.99058910794487],[73.79936009004614,19.99080910141019],[73.7984972243858,19.99052355365822],[73.79774070979806,19.99017429224711],[73.79608789442531,19.98961717779659],[73.79581407528194,19.98951418748413],[73.7954285596604,19.98936418422132],[73.7944638467445,19.98902553629667],[73.79352260133257,19.98873449504943]]}},{"type":"Feature","properties":{"name":"Zakir Hussain hospital","sourceFolder":"Routes / Emergency routes / Lakshminarayan ghat : Emergency routes","source":"Mobility plan Nashik KMZ (NTKMA)"},"geometry":{"type":"Point","coordinates":[73.79912770930166,19.99584917660715]}},{"type":"Feature","properties":{"name":"Civil Hospital","stroke":"#ffa500","stroke-opacity":1,"stroke-width":4,"fill":"#ff5454","fill-opacity":0.698,"sourceFolder":"Routes / Emergency routes / Lakshminarayan ghat : Emergency routes","source":"Mobility plan Nashik KMZ (NTKMA)"},"geometry":{"type":"LineString","coordinates":[[73.80530440147945,20.00156976760035],[73.80472127179752,20.00144829193868],[73.80439706304635,20.00138890965498],[73.80421833259057,20.00109339642894],[73.80402325254778,20.00089993140526],[73.80361710409005,20.00075836143853],[73.80295181372153,20.00060869030868],[73.80302246164659,20.00037729652469],[73.8030021136423,19.9998185488852],[73.80288217005625,19.99929534608881],[73.80274825484233,19.99888520053771],[73.8025608754282,19.9982968200938],[73.80231589066523,19.99780634444576],[73.80219776073355,19.9974519920934],[73.80185335005733,19.99700431079695],[73.80161028595758,19.99676037438518],[73.80118302396342,19.99645429772437],[73.80094416209926,19.99630338500824],[73.79977519136888,19.99569285958547],[73.79827845391311,19.99488826751744],[73.79736142004775,19.99437458929402],[73.7970412603099,19.99421544715587],[73.79572211827355,19.99412315500368],[73.79340836326908,19.99399035251982],[73.7926866226846,19.99398302743311],[73.7920648779965,19.99407886219215],[73.7909576511712,19.99424777757821],[73.79068627791628,19.99430338699226],[73.79017911173365,19.99407152357816],[73.78925325767692,19.99385803453286],[73.78776293218309,19.99360874907367],[73.78699643593342,19.99338357601169],[73.78632604376865,19.99321242909495],[73.78433684927919,19.99328699216189],[73.78347937323986,19.99338857355141],[73.78282381039263,19.99352142222363],[73.78258670249289,19.99363740548493],[73.78244587187267,19.99406068552775],[73.78220789355474,19.99488292737967],[73.78195357649433,19.99577574846094],[73.78172940520392,19.99637630883749],[73.78152364713719,19.99682884274213],[73.78130166870048,19.99735986512014],[73.7810154282314,19.99726186935498],[73.7800393449991,19.99691109921496],[73.77937239082398,19.99670564442797],[73.77898876377606,19.99658368224521],[73.77846497425668,19.99642123632637],[73.7783749932597,19.99664000949463]]}},{"type":"Feature","properties":{"name":"Civil hospital","sourceFolder":"Routes / Emergency routes / Emergency route to Ram Kund","source":"Mobility plan Nashik KMZ (NTKMA)"},"geometry":{"type":"Point","coordinates":[73.77828669664851,19.99688479134171]}},{"type":"Feature","properties":{"name":"Indira Gandhi hospital","sourceFolder":"Routes / Emergency routes / Emergency route to Ram Kund","source":"Mobility plan Nashik KMZ (NTKMA)"},"geometry":{"type":"Point","coordinates":[73.79543731049134,20.00987951142814]}},{"type":"Feature","properties":{"name":"Arogya Shala","sourceFolder":"Routes / Emergency routes / Emergency route to Ram Kund","source":"Mobility plan Nashik KMZ (NTKMA)"},"geometry":{"type":"Point","coordinates":[73.79602839536258,20.00465137909003]}},{"type":"Feature","properties":{"name":"Emergency route Ram Kund Route 1 : Via Holkar bridge","stroke":"#ffa500","stroke-opacity":1,"stroke-width":4,"fill":"#ff5454","fill-opacity":0.698,"sourceFolder":"Routes / Emergency routes / Emergency route to Ram Kund","source":"Mobility plan Nashik KMZ (NTKMA)"},"geometry":{"type":"LineString","coordinates":[[73.7922361561616,20.00829732218324],[73.79247330196797,20.0086609761283],[73.79213751777574,20.00927576057271],[73.79196006501817,20.00970205954761],[73.79125429166841,20.00923269436419],[73.79060907631714,20.00849280205997],[73.79001680618867,20.0077958721041],[73.78957078288634,20.00680022795797],[73.78841375066668,20.00599698509437],[73.7874243036286,20.00525066244922],[73.78717358418349,20.00478302798658],[73.7870228445111,20.00424086563709],[73.7858551580559,20.00453932504094],[73.7842259451292,20.00479416937995],[73.7840137819739,20.00478894932929],[73.78327701368943,20.00275581137649],[73.78255219883698,20.00056168631636],[73.7816861413957,19.99840602822334],[73.78130425586592,19.99736377870151],[73.78008625199456,19.99692617844827],[73.77846342069476,19.99641974586494],[73.7783711947344,19.99664657773132]]}},{"type":"Feature","properties":{"name":"Arogya Shala","stroke":"#ffa500","stroke-opacity":1,"stroke-width":4,"fill":"#ff5454","fill-opacity":0.698,"sourceFolder":"Routes / Emergency routes / Emergency route to Ram Kund","source":"Mobility plan Nashik KMZ (NTKMA)"},"geometry":{"type":"LineString","coordinates":[[73.79262662903639,20.00832573423142],[73.79276079408822,20.00830652090986],[73.79279902970032,20.00834096832922],[73.79290686986135,20.00869223718746],[73.79329311724675,20.0087007974826],[73.7937114918368,20.00866812408326],[73.79414673009961,20.00865077690372],[73.79440708678487,20.00864801761078],[73.7945267813834,20.00876948261381],[73.79466752112666,20.00907593818384],[73.79505622990116,20.00907312614246],[73.7955750079375,20.00904496162092],[73.79593419864709,20.00893229148201],[73.79649515862127,20.00888733970351],[73.79682912599453,20.00887844712848],[73.79718542049386,20.0089181071479],[73.79766430098176,20.00881610542631],[73.79825491151932,20.00880661879086],[73.79827938943971,20.00832933901027],[73.79831328093083,20.00776583636839],[73.79837165598305,20.00732445233908],[73.79846159627473,20.00676819654083],[73.79852853558305,20.00649752658016],[73.79855248764592,20.00633996195251],[73.79855857329466,20.00615770955863],[73.7982630220935,20.00603353292187],[73.79800011962897,20.00591577533585],[73.79739892094207,20.0057840726092],[73.79700608554884,20.00563538815334],[73.7966577697592,20.00555753432355],[73.79647165073636,20.005491518691],[73.79619281623143,20.00540200239178],[73.79590480931233,20.00530312586427],[73.79586363946918,20.00523762735569],[73.79600743757082,20.0049565907206]]}},{"type":"Feature","properties":{"name":"Arogya Shala","stroke":"#ffa500","stroke-opacity":1,"stroke-width":4,"fill":"#ff5454","fill-opacity":0.698,"sourceFolder":"Routes / Emergency routes / Emergency route to Ram Kund","source":"Mobility plan Nashik KMZ (NTKMA)"},"geometry":{"type":"LineString","coordinates":[[73.79263276844095,20.00832691307161],[73.79276019254033,20.00830582685689],[73.7927996703839,20.00834112828901],[73.79290770081329,20.00869137635241],[73.79329311724675,20.0087007974826],[73.7937114918368,20.00866812408326],[73.79414673009961,20.00865077690372],[73.79440708678487,20.00864801761078],[73.7945267813834,20.00876948261381],[73.79466752112666,20.00907593818384],[73.79505622990116,20.00907312614246],[73.7955750079375,20.00904496162092],[73.79593419864709,20.00893229148201],[73.79649515862127,20.00888733970351],[73.79682912599453,20.00887844712848],[73.79718542049386,20.0089181071479],[73.79766430098176,20.00881610542631],[73.79825491151932,20.00880661879086],[73.79827938943971,20.00832933901027],[73.79830339350156,20.00783885241234],[73.79804663515297,20.00772279433891],[73.79768696477812,20.00742564953601],[73.79744936742807,20.0071799153848],[73.79713262562178,20.00688683862868],[73.79647034827542,20.00678570366602],[73.79620941109025,20.0067066719222],[73.79592027108836,20.00663032793021],[73.7957196233559,20.00663894593916],[73.79546841808835,20.00664449080909],[73.79522165385183,20.0066170203572],[73.79512399445306,20.00657949678631],[73.79488198672374,20.00645378522673],[73.79464538977344,20.00635281455257],[73.79458112191783,20.00632454215475],[73.79413510256694,20.00627206369809],[73.7938301103027,20.0062012689197],[73.79357428031199,20.00613675771191],[73.79349873019011,20.00631054226601],[73.79333049256867,20.00658589106845],[73.79313847218049,20.00699499727743],[73.79304398220445,20.00722627735387],[73.79298835891723,20.00760791401754],[73.7929335663625,20.00790041683856],[73.7926616647769,20.00829694257907]]}},{"type":"Feature","properties":{"name":"Indira Gandhi Hospital","stroke":"#ffa500","stroke-opacity":1,"stroke-width":4,"fill":"#ff5454","fill-opacity":0.698,"sourceFolder":"Routes / Emergency routes / Emergency route to Ram Kund","source":"Mobility plan Nashik KMZ (NTKMA)"},"geometry":{"type":"LineString","coordinates":[[73.79255995410752,20.0085970087591],[73.79278574431669,20.00890862819134],[73.79289577312728,20.00910996089046],[73.79304645819634,20.00946084854218],[73.79319031730691,20.00982414717854],[73.7934636802285,20.00985667246104],[73.79370728068633,20.00988934085841],[73.7942346725331,20.00983488758408],[73.79450428443566,20.00981681507146],[73.79482099134162,20.00978927309269],[73.79498041519717,20.00982083181231],[73.79526335890044,20.00990912562538]]}},{"type":"Feature","properties":{"name":"Zakir Hussain hospital","stroke":"#ffa500","stroke-opacity":1,"stroke-width":4,"fill":"#ff5454","fill-opacity":0.698,"sourceFolder":"Routes / Emergency routes / Talkuteshwar ghat - Rokdoba ghat - Gandhi talao ghat : Emergency route / Government hospital","source":"Mobility plan Nashik KMZ (NTKMA)"},"geometry":{"type":"LineString","coordinates":[[73.79851144925792,20.00121834137057],[73.79806885857003,20.00069184143234],[73.79759765880424,20.00007238022459],[73.79740691706002,19.99972536887967],[73.79720600271354,19.99930869391503],[73.79701063272721,19.99884666318109],[73.7969390977796,19.99864811966549],[73.79683749257742,19.99845675703992],[73.79662270952922,19.99801271289995],[73.7966240137464,19.99786200788586],[73.79687519160953,19.99773665410381],[73.79740378252883,19.99765239966975],[73.79777446745742,19.99763017578011],[73.79829744843589,19.99735009919983],[73.79914647497365,19.99702206291967],[73.7994859719673,19.9968934553814],[73.79979276289501,19.99670675259004],[73.80005885212476,19.99646119872898],[73.80033327517545,19.9961670662211]]}},{"type":"Feature","properties":{"name":"Admin / emergency to Talkuteshwar ghat - Rokdoba ghat - Gandhi Talao","stroke":"#ffa500","stroke-opacity":1,"stroke-width":4,"fill":"#ff5454","fill-opacity":0.698,"sourceFolder":"Routes / Emergency routes / Talkuteshwar ghat - Rokdoba ghat - Gandhi talao ghat : Emergency route / Government hospital","source":"Mobility plan Nashik KMZ (NTKMA)"},"geometry":{"type":"LineString","coordinates":[[73.79338244543754,20.00282611845437],[73.79354215717579,20.00255396065325],[73.79392409365911,20.00234242396965],[73.79433848304672,20.00213839659384],[73.79473884470497,20.0019455872697],[73.7951414349999,20.00167614908494],[73.79547015993091,20.00144595561918],[73.79577126930539,20.00133867811135],[73.79642990778994,20.00132207928384],[73.79702745611267,20.00127193610027],[73.79769501280623,20.00123482214865],[73.79805185769413,20.00121021007927],[73.79823645057415,20.00114892215124],[73.7982684800608,20.0009639935469],[73.79810239941074,20.00078939310987],[73.79798078239025,20.00063957642717],[73.79756092693283,20.00008275667444],[73.79725727530871,19.99949216112409],[73.79704009636181,19.99899035314466],[73.79688209732366,19.99867345255534],[73.79661108944758,19.99811796824922],[73.79651852545801,19.99782375702404],[73.7965380305745,19.99761735278826],[73.79651468252716,19.99726519632151],[73.79653353505577,19.99709053126691],[73.79641441425477,19.99683384630656],[73.79609461663352,19.99656190111932],[73.79564048725744,19.99611569207556],[73.79541398940161,19.99598081024339],[73.7949842043851,19.99601504107865],[73.79474270742527,19.99605643371216],[73.79448037770229,19.99599231518735],[73.79436600833493,19.99596355573752],[73.79417183124356,19.99590145543965],[73.79401356185056,19.99585998804729],[73.79379795397725,19.99582503551648],[73.79343202194313,19.99579747086705],[73.79303858369911,19.99579130751047],[73.79268607033528,19.99580039633399],[73.79254479471491,19.99580922643258],[73.79247350170974,19.99583135508392],[73.79246271399413,19.99582741789303],[73.7922997712365,19.99581925686345],[73.79211901031022,19.99573855684364],[73.79210337635693,19.99558940516553],[73.79201299696284,19.9954506702754],[73.79179215584529,19.99525389681126],[73.79167629965407,19.9950810306261],[73.79155780028829,19.99492887599985],[73.79133131104389,19.99468280215352],[73.79123712141103,19.99458261673908],[73.79114546979535,19.99446686706425],[73.79102674978775,19.99436259808857],[73.79102376186638,19.99436150758774],[73.79082270459023,19.99435466519877],[73.79068607308312,19.99430198256024],[73.79017276957647,19.99407045508026],[73.78979772667276,19.99398251454061],[73.78947106984594,19.99390669847769],[73.78931273327156,19.99387117355998],[73.78877905058248,19.99377906929863],[73.78823368268199,19.99368794478168],[73.78776771583809,19.99360961708298],[73.78738699239865,19.99349712831388],[73.78686012544922,19.99334721758609],[73.78656186365875,19.99327198352547],[73.78632750244063,19.99321026438712],[73.78586225053348,19.99322872702128],[73.78538151057069,19.99324675237217],[73.78450831655677,19.99327932313424],[73.78434520528316,19.99328589623861],[73.78383529433685,19.99334602373327],[73.78348384669754,19.99338704658075],[73.78282742738807,19.99352074264709],[73.78258401908286,19.99363491945923],[73.78180710380471,19.99358615710728],[73.7808219951122,19.99351595076234],[73.7798575950693,19.99344188226808],[73.77929764745156,19.9932169828529],[73.77874092121023,19.99305952063709],[73.77827503304734,19.99299655332715],[73.77801726811698,19.99300185226672],[73.77721890825282,19.99305131985845],[73.77683769695176,19.99308687150548],[73.77642662872674,19.99301238273614],[73.77636184449156,19.99311087919763],[73.776276770034,19.99312029740683],[73.77621822047404,19.99311978978195],[73.77624436846877,19.993437287205],[73.77623559548131,19.9939639057471],[73.77620808888211,19.99429072354801],[73.77614401396188,19.9945867765588],[73.77597906374262,19.99515500368931],[73.7758940249353,19.99544818261006],[73.77594060777704,19.99569369977956],[73.77639710098678,19.99584239378634],[73.77717242743569,19.99608843886215],[73.77798091723385,19.99634028851921],[73.7784374126285,19.99648290351771],[73.77837233336734,19.99664486322723]]}},{"type":"Feature","properties":{"name":"Civil hospital","sourceFolder":"Routes / Emergency routes / Talkuteshwar ghat - Rokdoba ghat - Gandhi talao ghat : Emergency route / Government hospital","source":"Mobility plan Nashik KMZ (NTKMA)"},"geometry":{"type":"Point","coordinates":[73.77828669664851,19.99688479134171]}},{"type":"Feature","properties":{"name":"Indira Gandhi hospital","stroke":"#ffa500","stroke-opacity":1,"stroke-width":4,"sourceFolder":"Routes / Emergency routes / Talkuteshwar ghat - Rokdoba ghat - Gandhi talao ghat : Emergency route / Government hospital","source":"Mobility plan Nashik KMZ (NTKMA)"},"geometry":{"type":"LineString","coordinates":[[73.79048385854226,20.00783104666495],[73.79040587470968,20.0079346334809],[73.79028756218786,20.00807972385057],[73.79018768513096,20.00816060405456],[73.79016164745143,20.00841830965924],[73.79003380055141,20.00853204763246],[73.78979252417528,20.00863154704252],[73.78965896016652,20.00872409098437],[73.7895257824634,20.00866966893791],[73.78943739663599,20.00840159675353],[73.78939155013319,20.00823961681443],[73.78924755664947,20.00816749856613],[73.78923026853478,20.00797697494998],[73.78924980756558,20.00749513878821],[73.78934241396661,20.00728479058598],[73.78972785804703,20.00734152420324],[73.78981980358918,20.00746173733899],[73.7899320365509,20.00772657983588],[73.79002267582796,20.007867002972],[73.79028886318078,20.00817802060639],[73.79045452556782,20.00837569064428],[73.79074340793127,20.0086977322087],[73.7909641485254,20.00893201059729],[73.79123675167155,20.00925969899321],[73.79149715650036,20.00942955428292],[73.79172510855962,20.0095830362745],[73.79195560701649,20.00973179806235],[73.79210557216022,20.00970966910176],[73.79250455620947,20.00981074370526],[73.79304843643253,20.00993674910526],[73.79376755484083,20.01002335040909],[73.79432193468348,20.0099680142734],[73.79457826658688,20.00996016950696],[73.79481253692003,20.00999002757197],[73.79513947852844,20.00992575224592]]}},{"type":"Feature","properties":{"name":"Indira Gandhi hospital","sourceFolder":"Routes / Emergency routes / Talkuteshwar ghat - Rokdoba ghat - Gandhi talao ghat : Emergency route / Government hospital","source":"Mobility plan Nashik KMZ (NTKMA)"},"geometry":{"type":"Point","coordinates":[73.79543731049134,20.00987951142814]}},{"type":"Feature","properties":{"name":"Arogya Shala from Gandhi talao","stroke":"#ffa500","stroke-opacity":1,"stroke-width":4,"fill":"#ff5454","fill-opacity":0.698,"sourceFolder":"Routes / Emergency routes / Talkuteshwar ghat - Rokdoba ghat - Gandhi talao ghat : Emergency route / Government hospital","source":"Mobility plan Nashik KMZ (NTKMA)"},"geometry":{"type":"LineString","coordinates":[[73.79254445452094,20.00559819443114],[73.79270134691599,20.00509643310409],[73.79286119812511,20.00469001262158],[73.79295466564737,20.00441590849947],[73.79304671820923,20.0041773106114],[73.79368809325142,20.00436260109854],[73.79412255821218,20.00447021003301],[73.7945071754546,20.00459507737788],[73.79450203588713,20.00460047694893],[73.79497415290912,20.00475960348694],[73.79524099932986,20.00490852994063],[73.7956853851869,20.00514660278388],[73.7958262716289,20.00522161000109],[73.79596641136837,20.00494059125475]]}},{"type":"Feature","properties":{"name":"Arogya Shala","sourceFolder":"Routes / Emergency routes / Talkuteshwar ghat - Rokdoba ghat - Gandhi talao ghat : Emergency route / Government hospital","source":"Mobility plan Nashik KMZ (NTKMA)"},"geometry":{"type":"Point","coordinates":[73.79602839536258,20.00465137909003]}},{"type":"Feature","properties":{"name":"Arogya shala from Rokdoba Maidan ghat","stroke":"#ffa500","stroke-opacity":1,"stroke-width":4,"fill":"#ff5454","fill-opacity":0.698,"sourceFolder":"Routes / Emergency routes / Talkuteshwar ghat - Rokdoba ghat - Gandhi talao ghat : Emergency route / Government hospital","source":"Mobility plan Nashik KMZ (NTKMA)"},"geometry":{"type":"LineString","coordinates":[[73.79305655097482,20.00415471798481],[73.79332772282594,20.00423815306317],[73.79377960062325,20.00436828126215],[73.79408263725665,20.00443481127276],[73.79420559099518,20.00447478751957],[73.79444943729114,20.00454872451998],[73.7946812047755,20.00462771269122],[73.7949893227268,20.00473084827046],[73.79518078464959,20.00483798202763],[73.79540186662925,20.00495754748819],[73.7956218233206,20.00506372039782],[73.79582196313439,20.00518054773489],[73.79593354748648,20.00493659560375]]}},{"type":"Feature","properties":{"name":"Jijamata Hospital","sourceFolder":"Routes / Emergency routes / Talkuteshwar ghat - Rokdoba ghat - Gandhi talao ghat : Emergency route / Government hospital","source":"Mobility plan Nashik KMZ (NTKMA)"},"geometry":{"type":"Point","coordinates":[73.78963401714262,20.00260495643217]}},{"type":"Feature","properties":{"name":"Jijamata Hospital","stroke":"#ffa500","stroke-opacity":1,"stroke-width":4,"fill":"#ff5454","fill-opacity":0.698,"sourceFolder":"Routes / Emergency routes / Talkuteshwar ghat - Rokdoba ghat - Gandhi talao ghat : Emergency route / Government hospital","source":"Mobility plan Nashik KMZ (NTKMA)"},"geometry":{"type":"LineString","coordinates":[[73.79331329184993,20.00289545495509],[73.79296422974897,20.00277128374969],[73.79282953173845,20.00267754421795],[73.79269595672848,20.00256804097346],[73.79259147147496,20.00244400416794],[73.79251873004631,20.00235035156051],[73.79237904517308,20.00219442384439],[73.79229019721035,20.00203319120196],[73.7921785624565,20.00189865795716],[73.79206093647684,20.00187824189858],[73.79191067695193,20.00192137234172],[73.79164675606474,20.00194857258956],[73.79143721551038,20.0019596817236],[73.79095977249943,20.00192057844293],[73.79068568818455,20.00195649771041],[73.7903923910682,20.00197494960278],[73.79004701074949,20.00197469681428],[73.78990914553727,20.00201424588918],[73.78993206433027,20.00222939605182],[73.78990586137245,20.00250081070874],[73.78983527674035,20.00256893434891]]}},{"type":"Feature","properties":{"name":"Talkuteshwar ghat exit to Zakir Hussain hospital","stroke":"#ffa500","stroke-opacity":1,"stroke-width":4,"fill":"#ff5454","fill-opacity":0.698,"sourceFolder":"Routes / Emergency routes / Talkuteshwar ghat - Rokdoba ghat - Gandhi talao ghat : Emergency route / Government hospital","source":"Mobility plan Nashik KMZ (NTKMA)"},"geometry":{"type":"LineString","coordinates":[[73.80242329083492,20.0012445192022],[73.80266954960526,20.00099397375743],[73.80295396577378,20.00060840718549],[73.80302541902844,20.00036927797095],[73.80300240257884,19.99981303798685],[73.8028839390197,19.99929704502079],[73.802562820001,19.99829551642577],[73.80232103226383,19.99781872164135],[73.80219591214555,19.99745113455323],[73.80185353736572,19.99700387324282],[73.80160869638537,19.99676302660822],[73.80118906709728,19.99645481004871],[73.8009317115056,19.99629701233177],[73.8004742752716,19.9960591288196],[73.80037623381197,19.99613228975061],[73.80016322067462,19.99600631508646],[73.79960376303079,19.99571845844125]]}},{"type":"Feature","properties":{"name":"Talkuteshwar ghat to Sadguru Hospital","stroke":"#ffa500","stroke-opacity":1,"stroke-width":4,"fill":"#ff5454","fill-opacity":0.698,"sourceFolder":"Routes / Emergency routes / Talkuteshwar ghat - Rokdoba ghat - Gandhi talao ghat : Emergency route","source":"Mobility plan Nashik KMZ (NTKMA)"},"geometry":{"type":"LineString","coordinates":[[73.79420122309985,20.00446436343198],[73.79457697010214,20.00356153891381],[73.79492146140153,20.0029130703382],[73.79535676641586,20.00246958715221],[73.7960242877831,20.00216486923138],[73.79660012872647,20.00209657084555],[73.7982334263947,20.00210500276646],[73.79872504202247,20.00206490444289],[73.79888028329569,20.00241705860809],[73.79896282969533,20.00263690122681],[73.79929375178534,20.00275060617696],[73.79988474605295,20.00269342710746],[73.80071115685207,20.00262566955061],[73.8012930128277,20.00232098336218],[73.80185019587024,20.00218723601389],[73.80262061069865,20.0021821765456],[73.80308870499385,20.00229886496454],[73.80303390934911,20.00315929274344],[73.80300095198771,20.00402530155074],[73.80301602298796,20.00444940670936],[73.80320126676656,20.00504347455477],[73.80339698452863,20.00569945389436],[73.80372138616461,20.00642767702183],[73.80398891507795,20.00691558848543],[73.80413146426434,20.0071374216984],[73.8047829629279,20.00803738161723],[73.8057047940294,20.00893637489584],[73.80604445839487,20.00922601343983],[73.80616032257582,20.00939146175358],[73.80567568349215,20.00939938446139],[73.8051882650294,20.00938954074411],[73.80431394068246,20.00930374428058],[73.80374179421125,20.00924178052094],[73.80293809637791,20.00899124035673],[73.80282141213743,20.00896797825441]]}},{"type":"Feature","properties":{"name":"UPHC","stroke":"#ffa500","stroke-opacity":1,"stroke-width":4,"fill":"#ff5454","fill-opacity":0.698,"sourceFolder":"Routes / Emergency routes / Someshwar ghat / Govt hospital","source":"Mobility plan Nashik KMZ (NTKMA)"},"geometry":{"type":"LineString","coordinates":[[73.719749866509,20.02873742361599],[73.71989390262748,20.02810070869797],[73.71993597132585,20.02762006522246],[73.71992585974564,20.02706074341259],[73.71980983881738,20.02644019731459],[73.71970903636681,20.02614522095929],[73.71963862835035,20.02605039915393],[73.71936576811457,20.0262722131278],[73.71882968913162,20.02678138210706],[73.7183460644777,20.02731936547843],[73.71798713213302,20.02778704293236],[73.7178688418588,20.02794079158249],[73.71771656764037,20.02814402475034],[73.71751221857704,20.0283950157205],[73.71721702592797,20.02880379568308],[73.71693052277739,20.02915943306728],[73.71671738902322,20.02936929968826],[73.71655412323744,20.02950210229783],[73.71635900605644,20.02965055652309],[73.71620144741223,20.02978828586624],[73.71659369329254,20.0297670852453],[73.7168391867206,20.02975719860163],[73.71719871838187,20.02976403305335],[73.71759604880106,20.02978177469802],[73.7177435772632,20.02981727627465]]}},{"type":"Feature","properties":{"name":"ESIS Hospital","stroke":"#ffa500","stroke-opacity":1,"stroke-width":4,"fill":"#ff5454","fill-opacity":0.698,"sourceFolder":"Routes / Emergency routes / Someshwar ghat / Govt hospital","source":"Mobility plan Nashik KMZ (NTKMA)"},"geometry":{"type":"LineString","coordinates":[[73.71979678911534,20.02910693511401],[73.71991760236857,20.0287438997476],[73.71997104579812,20.02850581449854],[73.72007566578743,20.02801858835643],[73.72012936910781,20.02767119527676],[73.72007708259139,20.02727877275465],[73.72007955266314,20.02686362194637],[73.72000993603447,20.02639072797179],[73.7200010890664,20.02637809552139],[73.72000006495634,20.02613244416305],[73.72004258345268,20.02594856652653],[73.72027375710017,20.02576763604925],[73.7209175670065,20.02529395423032],[73.72120477606339,20.02506735381434],[73.72166529102276,20.02476286499527],[73.72183734792995,20.02454684483883],[73.72156300697199,20.02418797955378],[73.72140139179275,20.02407731547013],[73.72123051868553,20.02383023517178],[73.72118176280684,20.02335288099073],[73.72120941655828,20.02287948460286],[73.72114607238156,20.02270622639798],[73.72099208463209,20.02244418538313],[73.72048853760282,20.0219337336952],[73.72005873780456,20.02151293979975],[73.71973655424635,20.02102569072786],[73.71966111981173,20.02089016871835],[73.71947078385614,20.02050675043056],[73.71918238900173,20.01987247189165],[73.71889709709808,20.01916389170571],[73.71860995360711,20.01855244332796],[73.71830414495469,20.01797784215326],[73.71746355553655,20.01650675131305],[73.71709870217254,20.01587291429],[73.71633180245111,20.01452226098121],[73.71552139611268,20.01314359446649],[73.71517576059655,20.01256855614933],[73.71505271489563,20.01206936631137],[73.71480205806381,20.0114639851789],[73.71415944743248,20.0101363558651],[73.71337108768371,20.00883587325477],[73.712894899285,20.00805930446746],[73.71200050649503,20.00670174498435],[73.71175094171076,20.00610875428972],[73.71153066544343,20.00482842059388],[73.71149171182807,20.0039457453794],[73.71147316133957,20.00324387973129],[73.71149534575919,20.00023377163228],[73.71156981832762,19.99738576389278],[73.71154128483795,19.99528857697501],[73.71153270339185,19.9943839091231],[73.71148964573135,19.99330486054489],[73.71175028432869,19.99235182500588],[73.712489731476,19.99096300844422],[73.71375579025387,19.98898777583402],[73.71578858821714,19.98573169282528],[73.71639304369947,19.98497532432141],[73.71710996360439,19.9841845533337],[73.71819403681734,19.98345096591675],[73.71861913185471,19.98369088808165],[73.71953627638075,19.98412794364613],[73.72020323612512,19.98442777705527],[73.72093180401393,19.98475464085836],[73.72136165920715,19.98500678373363],[73.72190214281756,19.98522125722241],[73.72265288115571,19.98562433070518],[73.7235738098165,19.98607474633912],[73.72390223595175,19.98617717068157],[73.7251426588065,19.98696855104345],[73.72676766086052,19.98799510065073],[73.7284481333616,19.98928112687673],[73.72931482474371,19.98973317202012],[73.73076894971724,19.99032131184538],[73.73233370741228,19.9907416567089],[73.73370419073984,19.99096888230833],[73.73403821825801,19.99103673538889],[73.73423118260469,19.9910545956211],[73.7342032986533,19.99126804031183]]}},{"type":"Feature","properties":{"name":"Civil Hospital","stroke":"#ffa500","stroke-opacity":1,"stroke-width":4,"fill":"#ff5454","fill-opacity":0.698,"sourceFolder":"Routes / Emergency routes / Someshwar ghat / Govt hospital","source":"Mobility plan Nashik KMZ (NTKMA)"},"geometry":{"type":"LineString","coordinates":[[73.71979678911534,20.02910693511401],[73.71991760236857,20.0287438997476],[73.71997104579812,20.02850581449854],[73.72007566578743,20.02801858835643],[73.72012936910781,20.02767119527676],[73.72007708259139,20.02727877275465],[73.72007955266314,20.02686362194637],[73.72000993603447,20.02639072797179],[73.7200010890664,20.02637809552139],[73.72000006495634,20.02613244416305],[73.72004258345268,20.02594856652653],[73.72027375710017,20.02576763604925],[73.7209175670065,20.02529395423032],[73.72120477606339,20.02506735381434],[73.72166529102276,20.02476286499527],[73.72183734792995,20.02454684483883],[73.72156300697199,20.02418797955378],[73.72140009973184,20.02407653934906],[73.72123094066508,20.02383081567637],[73.72118137277667,20.02335173896142],[73.72121013272333,20.02287757554783],[73.72114607759197,20.02270404978246],[73.72099208463209,20.02244418538313],[73.72048264575405,20.02192559779662],[73.72005697616453,20.02151077594474],[73.7197330349708,20.0210197781762],[73.71965880787243,20.02088796809693],[73.71947712308254,20.02051830981999],[73.7193289904105,20.0201984535796],[73.71917584964805,20.01985959723048],[73.71889270538544,20.01915258877077],[73.71874846517944,20.01884690366028],[73.7186064830349,20.01854563112233],[73.71825458908316,20.01788822166511],[73.71765592030299,20.01684183566154],[73.7172836926935,20.01619258826965],[73.71709395265381,20.01586483134823],[73.71632719660231,20.01451604013667],[73.7158600518769,20.01371948565355],[73.71549643292364,20.01310362452829],[73.71517504235962,20.01256589479121],[73.71505554338276,20.0120823636525],[73.71480003269052,20.01145858964433],[73.71431697840026,20.01045920085842],[73.71415674873445,20.01013034113408],[73.71342580795258,20.00892411798659],[73.71319322912622,20.00853838704294],[73.71288831106325,20.00805167470747],[73.7119983038409,20.00669960525721],[73.71175153333002,20.00610914917451],[73.71153129930488,20.00481522669525],[73.71148929289669,20.00392669642967],[73.71147316133957,20.00324387973129],[73.7114958840318,20.00022731412755],[73.71154450534951,19.9983792731742],[73.71156855600356,19.99739373162247],[73.7115473672168,19.99581391206954],[73.71153578761714,19.99460357740275],[73.71152810573372,19.99427003976698],[73.71148964573135,19.99330486054489],[73.71175028432869,19.99235182500588],[73.712489731476,19.99096300844422],[73.7137539671523,19.98899410210466],[73.71527415879753,19.98655518444111],[73.7157933718571,19.9857260249679],[73.71640127672535,19.98496611898037],[73.71671107286335,19.98462655231799],[73.71711686065782,19.98417853994751],[73.71819473446914,19.98345200017968],[73.71862502936537,19.9836943508952],[73.7193028905532,19.98401659500297],[73.71985921949374,19.98427084989527],[73.72061385554733,19.9846101238863],[73.72093286776797,19.98475542483058],[73.72135657157298,19.98500395133777],[73.72183530284204,19.98518889663768],[73.72258415736802,19.98558452009634],[73.72281810414353,19.98570410137879],[73.72326812632787,19.98592365103422],[73.7235743582934,19.98606747683613],[73.72390239605654,19.98617656888698],[73.7250816191581,19.98692934553907],[73.72612795537808,19.98758778312884],[73.7267575603014,19.98798688166081],[73.72748529738337,19.98854589410971],[73.72844502118417,19.98927822944512],[73.72870086845788,19.98941508445271],[73.72931235294453,19.98973296490031],[73.72966309268624,19.98987302231733],[73.73076788077567,19.99032096829469],[73.73186190416232,19.9906160213417],[73.73232641316356,19.99074056507379],[73.73281605239858,19.99082276723568],[73.73370812852531,19.99096813349119],[73.73403821825801,19.99103673538889],[73.73442855744591,19.99107110614507],[73.73889616218568,19.99149474862134],[73.74152611225044,19.99177941917229],[73.74444569172786,19.99220773288818],[73.74499779663837,19.99231092761852],[73.74826321695264,19.99291043940218],[73.74936701187488,19.99312629450696],[73.7516589351462,19.99353918932839],[73.7539741910161,19.99390965277648],[73.75811928153668,19.99440239029821],[73.75923215964848,19.99448029538284],[73.76128300241018,19.99458820625582],[73.76236111723094,19.99465077494854],[73.7636760036185,19.99470481587575],[73.76559054080018,19.9947148596619],[73.76840059377093,19.99473533370328],[73.7717595418363,19.99463466076646],[73.77228318881066,19.99461855039718],[73.77264451602102,19.9946809764207],[73.77465522871621,19.99528971314821],[73.7758988410891,19.99568256140672],[73.77748497893401,19.99618936096753],[73.77843572031725,19.99648325024661],[73.77837225554235,19.99664517129512]]}},{"type":"Feature","properties":{"name":"ESIS Hospital","sourceFolder":"Routes / Emergency routes / Someshwar ghat / Govt hospital","source":"Mobility plan Nashik KMZ (NTKMA)"},"geometry":{"type":"Point","coordinates":[73.73378592704424,19.99181862770179]}},{"type":"Feature","properties":{"name":"UPHC","sourceFolder":"Routes / Emergency routes / Someshwar ghat / Govt hospital","source":"Mobility plan Nashik KMZ (NTKMA)"},"geometry":{"type":"Point","coordinates":[73.71751084656808,20.02944576593081]}},{"type":"Feature","properties":{"name":"Guruji Hospital","stroke":"#ffa500","stroke-opacity":1,"stroke-width":4,"fill":"#ff5454","fill-opacity":0.698,"sourceFolder":"Routes / Emergency routes / Someshwar ghat / Private hospital","source":"Mobility plan Nashik KMZ (NTKMA)"},"geometry":{"type":"LineString","coordinates":[[73.71979678911534,20.02910693511401],[73.71991760236857,20.0287438997476],[73.71997104579812,20.02850581449854],[73.72007566578743,20.02801858835643],[73.72012936910781,20.02767119527676],[73.72007708259139,20.02727877275465],[73.72007955266314,20.02686362194637],[73.72000993603447,20.02639072797179],[73.7200010890664,20.02637809552139],[73.72000006495634,20.02613244416305],[73.72004258345268,20.02594856652653],[73.72027375710017,20.02576763604925],[73.7209175670065,20.02529395423032],[73.72120477606339,20.02506735381434],[73.72166529102276,20.02476286499527],[73.72183734792995,20.02454684483883],[73.72216333363097,20.02427995594921],[73.72260743502034,20.02393873383322],[73.72306172716398,20.02360522697908],[73.72389699974198,20.02311665885674],[73.72467469306426,20.02265806964215],[73.72556138554349,20.02225243195928],[73.72632064045415,20.02191801252638],[73.72714435370847,20.02155578571213],[73.72791711101712,20.02114262803871],[73.72947899661015,20.02048840543233],[73.7306281558646,20.01995281471422],[73.73172415532397,20.0194188727688],[73.73257229554555,20.0190183627812],[73.73335014491761,20.0185412521923],[73.7339917348513,20.01829353973336],[73.7344097034097,20.01782805838253],[73.73494254800102,20.01733328144656],[73.73526039873406,20.01712201199166],[73.73598205250138,20.01681875054137],[73.73650631339662,20.01641569208248],[73.73699865308504,20.01589142164778],[73.73738593666098,20.01538279603107],[73.7377835107651,20.01500752572852],[73.73826191282613,20.0146605277033],[73.73885367210407,20.0143640959022],[73.73974902910757,20.01406816897078],[73.74046555002516,20.01384309824449],[73.74106194006764,20.01363604645875],[73.74190549809344,20.01339653692891],[73.7424616207132,20.01323724092135],[73.74307343907026,20.01299295093495],[73.74395135722453,20.01276778564645],[73.74447499755085,20.01261497698411],[73.74522825221827,20.01244421715082],[73.74604993290541,20.0123959388308],[73.74659862073344,20.01233499384995],[73.74746856637267,20.01229560532779],[73.74769454653563,20.01229878747695],[73.74773226689652,20.01211667832394],[73.74780556299673,20.01206677772287],[73.74798483870836,20.01203779753616],[73.74840648889895,20.01202925808028],[73.74869831645294,20.01203800571275],[73.74866671866,20.01199204725734]]}},{"type":"Feature","properties":{"name":"Guruji Hospital","sourceFolder":"Routes / Emergency routes / Someshwar ghat / Private hospital","source":"Mobility plan Nashik KMZ (NTKMA)"},"geometry":{"type":"Point","coordinates":[73.74860327583313,20.01156329523641]}},{"type":"Feature","properties":{"name":"Zakir Hussain hospital","sourceFolder":"Routes / Emergency routes / Kapila Sangam","source":"Mobility plan Nashik KMZ (NTKMA)"},"geometry":{"type":"Point","coordinates":[73.79912770930166,19.99584917660715]}},{"type":"Feature","properties":{"name":"Tapovan Hospital","stroke":"#ffa500","stroke-opacity":1,"stroke-width":4,"fill":"#ff5454","fill-opacity":0.698,"sourceFolder":"Routes / Emergency routes / Kapila Sangam","source":"Mobility plan Nashik KMZ (NTKMA)"},"geometry":{"type":"LineString","coordinates":[[73.81094414785655,20.0004789942265],[73.81135707715853,20.00105544889546],[73.81177377336063,20.00163261982091],[73.81212999675816,20.00230972063032],[73.81271523141478,20.00334179320325],[73.81338852480297,20.00467989173745],[73.81392713724271,20.00563635658957],[73.81430841071604,20.00658996933073],[73.81471156823629,20.00739734539638],[73.8148110843803,20.00764972022454],[73.81494776257675,20.00763976463422],[73.81511400467427,20.00759468696663]]}},{"type":"Feature","properties":{"name":"Samrudhi  Hospital","stroke":"#ffa500","stroke-opacity":1,"stroke-width":4,"fill":"#ff5454","fill-opacity":0.698,"sourceFolder":"Routes / Emergency routes / Kapila Sangam","source":"Mobility plan Nashik KMZ (NTKMA)"},"geometry":{"type":"LineString","coordinates":[[73.81096211423723,20.00046778068825],[73.81135619518926,20.00101759897941],[73.81179307706917,20.00162153226205],[73.81215067556609,20.0023033118648],[73.81233837333765,20.00262759247948],[73.8126015891155,20.00308636919465],[73.8127478805819,20.00334119337917],[73.81341366175262,20.00466535947307],[73.81394571536303,20.00561895607364],[73.81433574683606,20.00659322422416],[73.81473632600998,20.00739243889215],[73.81486042533471,20.00771969631824],[73.81507889069714,20.00814490960291],[73.81528191784413,20.00856943523076],[73.81594553301152,20.00840654851216],[73.81741116603028,20.00821863216947],[73.81793160502178,20.00811644712474],[73.81843911672598,20.00790338028953],[73.8198505104855,20.00738403944698],[73.82141142668986,20.00676876101989],[73.82205921082148,20.00650718207298],[73.82285397468917,20.00611009963305],[73.82324817853701,20.00592164672913],[73.82361507560225,20.00573051052591],[73.8241304978418,20.00546179756001],[73.8250471116866,20.00504516764718],[73.82600907583111,20.00473468951628],[73.82694740559111,20.00437853574469],[73.82798829328172,20.00397818901666],[73.82882586018825,20.00356892047918],[73.83029828069452,20.00276199577686],[73.83139779485946,20.00218991837198],[73.83247817122913,20.00167106988827],[73.83343477547002,20.00113975900906],[73.8340899642976,20.00076286859605],[73.83483128624722,20.00022662181728],[73.835725923241,19.99962529424018],[73.83603244236484,19.99948336824278],[73.83615781018452,19.99970361644956]]}},{"type":"Feature","properties":{"name":"Tapovan Hospital","sourceFolder":"Routes / Emergency routes / Kapila Sangam","source":"Mobility plan Nashik KMZ (NTKMA)"},"geometry":{"type":"Point","coordinates":[73.81540217509531,20.00756234825224]}},{"type":"Feature","properties":{"name":"Samrudhi Hospital","sourceFolder":"Routes / Emergency routes / Kapila Sangam","source":"Mobility plan Nashik KMZ (NTKMA)"},"geometry":{"type":"Point","coordinates":[73.83622662123862,19.99980359718831]}},{"type":"Feature","properties":{"name":"Zakir Hussain","stroke":"#ffa500","stroke-opacity":1,"stroke-width":4,"fill":"#ff5454","fill-opacity":0.698,"sourceFolder":"Routes / Emergency routes / Kapila Sangam","source":"Mobility plan Nashik KMZ (NTKMA)"},"geometry":{"type":"LineString","coordinates":[[73.81080646277391,20.00041539088152],[73.81065775318517,20.0001613854079],[73.81043978052799,19.99984208980338],[73.81017476163615,19.99946147113014],[73.81010525903682,19.99926904509206],[73.80998629423036,19.99886884335507],[73.80991682139398,19.99854239996455],[73.80981720299046,19.99811213365955],[73.80978244836295,19.99794827646979],[73.80973684741485,19.99724118988512],[73.80965593111685,19.9959938604212],[73.80950864488581,19.99530184318866],[73.8094066697664,19.9948235459444],[73.80928727748996,19.9940404693184],[73.80920932010271,19.9940715086049],[73.80905840122568,19.99410680665672],[73.80874597309351,19.99418818916794],[73.80816025865397,19.99436000926215],[73.80722873518785,19.99473282906789],[73.80692542303109,19.99482405499636],[73.80656415387632,19.99488935675955],[73.80588926367447,19.99486116006171],[73.80558955527069,19.99485646817237],[73.80492082331759,19.99488923167611],[73.80445479166576,19.99496060407737],[73.80341795331033,19.99518352312293],[73.80269391040979,19.99531208103534],[73.80212172358011,19.99545918549726],[73.80116956542088,19.99570634277326],[73.80084693526335,19.99584845389567],[73.80043806992457,19.99616206068411],[73.80038285226523,19.99613047491763],[73.8002136677099,19.99603524447054],[73.79960059656564,19.99571482336196]]}}]}
