{"type":"FeatureCollection","features":[{"type":"Feature","geometry":{"type":"Point","coordinates":[73.789177,20.02657]},"properties":{"Name":"Ehs World","Address":"Makhmalabad, Nashik","locationConfidence":"locality-match","Rating":"4.9"}},{"type":"Feature","geometry":{"type":"Point","coordinates":[73.72949,19.989584]},"properties":{"Name":"Lifeline Fire Services","Address":"Satpur Midc Road Satpur Colony, Nashik","locationConfidence":"locality-match","Rating":"4.9"}},{"type":"Feature","geometry":{"type":"Point","coordinates":[73.742419,19.967274]},"properties":{"Name":"Firefox Fire And Safety Services","Address":"Ambad Midc Plot No -25a Kothe Nagar, Nashik","locationConfidence":"locality-match","Rating":"5.0"}},{"type":"Feature","geometry":{"type":"Point","coordinates":[73.771252,19.958642]},"properties":{"Name":"Ss Fire & Safety Services","Address":"Pathardi Phata Road Prashant Nagar, Nashik","locationConfidence":"locality-match","Rating":"4.7"}},{"type":"Feature","geometry":{"type":"Point","coordinates":[73.809317,20.002954]},"properties":{"Name":"Nmc Fire Rescue Station","Address":"St Savata Sant Savata Mali Nagar, Nashik","locationConfidence":"approximate","Rating":"4.1"}},{"type":"Feature","geometry":{"type":"Point","coordinates":[73.846806,20.2038]},"properties":{"Name":"Sp Engineering And Services","Address":"Dindori Road Shiv Prerana Society, Nashik","locationConfidence":"locality-match","Rating":"4.3"}},{"type":"Feature","geometry":{"type":"Point","coordinates":[73.787995,20.024154]},"properties":{"Name":"Om Shiv Fire Services","Address":"Makhmalabad Naka Madhuban Colony Road Panchavati, Nashik","locationConfidence":"locality-match","Rating":"5.0"}},{"type":"Feature","geometry":{"type":"Point","coordinates":[73.796221,20.006387]},"properties":{"Name":"Veer Dadasaheb Laxman Kale Agnishaman Kendra","Address":"Malegaon Stand Nashik Panchavati, Nashik","locationConfidence":"locality-match","Rating":"3.0"}},{"type":"Feature","geometry":{"type":"Point","coordinates":[73.82693,19.899991]},"properties":{"Name":"Urs Enterprise","Address":"Ta Road Deolali Camp, Deolali","locationConfidence":"locality-match","Rating":"5.0"}},{"type":"Feature","geometry":{"type":"Point","coordinates":[73.98983,19.83993]},"properties":{"Name":"Sharma Security & Fire Services Pvt Ltd","Address":"Pune Road Sinnar, Nashik","locationConfidence":"locality-match","Rating":"3.0"}}]}