{"type":"FeatureCollection","features":[{"type":"Feature","properties":{"name":"Odha Ghat - Proposed","sourceFolder":"Railway station / Odha Ghat - Proposed.kml","source":"Mobility plan Nashik KMZ (NTKMA)","category":"ghat","role":"area"},"geometry":{"type":"Polygon","coordinates":[[[73.90534805713789,19.99407022186985],[73.90568091590166,19.99408802423222],[73.90574315768266,19.99418211705298],[73.90593800117351,19.9941948323695],[73.90613555060582,19.9942304348206],[73.90632227519423,19.99426095094537],[73.9065008813524,19.99430926817123],[73.90686621214283,19.99438301462613],[73.90687162444983,19.99438301459476],[73.90704752487133,19.99444658954411],[73.90731543506536,19.994515249756],[73.90749404249514,19.9945711952565],[73.9078079597633,19.99467800040727],[73.90780796064654,19.99473903363064],[73.90779713723781,19.99482804049523],[73.90779172606308,19.99490433215031],[73.90765912255553,19.99485855831388],[73.90748322021189,19.99477463907857],[73.90721530875213,19.99468054836278],[73.90682562116672,19.99458391515336],[73.90644946510565,19.99446693693849],[73.90617343710684,19.99439318949422],[73.90590011508532,19.9943499580921],[73.90569444659872,19.99434487196804],[73.90533452556915,19.99433215608213],[73.90534805713789,19.99407022186985]]]}},{"type":"Feature","properties":{"name":"Odha Ghat - Proposed","sourceFolder":"Railway station / Odha Ghat - Proposed.kml","source":"Mobility plan Nashik KMZ (NTKMA)","category":"ghat","role":"marker"},"geometry":{"type":"Point","coordinates":[73.90663660696435,19.994447665972164]}},{"type":"Feature","properties":{"name":"Ramkund and near by Ghats","sourceFolder":"Routes / VIP routes.kmz","source":"Mobility plan Nashik KMZ (NTKMA)","category":"ghat","role":"area"},"geometry":{"type":"Polygon","coordinates":[[[73.79359431824538,20.00513859569647],[73.79349751066083,20.00560916139635],[73.79314411643726,20.00560315669951],[73.7931216502454,20.00591399478547],[73.79346531315556,20.00589910349974],[73.79343219304262,20.00600865295432],[73.79331168319231,20.00606887007642],[73.79313792220354,20.00650564311645],[73.79301319041758,20.00675581246517],[73.79301988779505,20.00675570434503],[73.79304309683974,20.00674264234559],[73.7930564628116,20.00674242989008],[73.79306979040084,20.00673914345471],[73.79307319046053,20.00674225828947],[73.79306684168445,20.00676129622057],[73.79305407590753,20.00679648583154],[73.79304454196897,20.0068315639218],[73.79303168368035,20.00687326131328],[73.7930221933581,20.00691539389051],[73.79300918448007,20.00695146730605],[73.79300606462382,20.00697109360647],[73.79291073415028,20.00696387058489],[73.79283247787949,20.00709486095593],[73.79283974043267,20.00722607289427],[73.79285409395025,20.00734212746643],[73.79276266093082,20.00736272741208],[73.79276264355518,20.00736967051263],[73.79275201398593,20.00738383254908],[73.79275195807628,20.00740125486546],[73.79274832508507,20.0074293045374],[73.79274826454764,20.00744683498632],[73.79274816756593,20.00747497208643],[73.79274799912388,20.00753388642351],[73.79274430593925,20.00757577387044],[73.7927442529375,20.00759324504623],[73.79261409183218,20.0076834452466],[73.79260870119536,20.00783586470573],[73.79257756175008,20.00822450363881],[73.79243350615428,20.00826855505554],[73.79234444636269,20.00820978250805],[73.79227730497541,20.0081851948377],[73.7922180988085,20.00826064913407],[73.79208781223942,20.00830516859121],[73.792076450985,20.00830527423531],[73.79205389871149,20.00830492983674],[73.79203506176324,20.00830479434856],[73.79202728994376,20.00830883124584],[73.79200841071568,20.00830881532363],[73.79199307517688,20.00831284805361],[73.79197395311905,20.00831687990263],[73.79195884147953,20.00831686709532],[73.79193239648195,20.00831684497474],[73.79191350747197,20.00831682906696],[73.79190170572258,20.00832479079577],[73.79190039772163,20.00834848017116],[73.79191318523488,20.00839880739624],[73.79191952368956,20.00842599103994],[73.79192207969646,20.00845323247036],[73.79173329958188,20.00849241732255],[73.79137218657877,20.00857870938404],[73.79115905315939,20.00875243792926],[73.79096063116185,20.00852706495094],[73.7911165747663,20.00845848368197],[73.7914761672073,20.00831147513828],[73.79173582271001,20.00816084063022],[73.791860130309,20.00816657458368],[73.79184593280384,20.00821360392628],[73.79198946628512,20.00824444463029],[73.79211073955122,20.00821784372386],[73.79225707118533,20.00811626237788],[73.79233122287854,20.00814812439866],[73.7924563159874,20.00792928319981],[73.79246270143236,20.00780640474235],[73.79252031813562,20.00765839665444],[73.79252719116515,20.00747320829896],[73.79250868975116,20.00732640736743],[73.79247650867221,20.00719201284087],[73.79248156843857,20.00712399057478],[73.79260675566024,20.00637925649771],[73.79268327449904,20.00621276881446],[73.7928496047842,20.00589935502297],[73.7930984991337,20.00550555129873],[73.79352348143252,20.00443211295701],[73.79365903057028,20.00448289886697],[73.79359431824538,20.00513859569647]]]}},{"type":"Feature","properties":{"name":"Ramkund and near by Ghats","sourceFolder":"Routes / VIP routes.kmz","source":"Mobility plan Nashik KMZ (NTKMA)","category":"ghat","role":"marker"},"geometry":{"type":"Point","coordinates":[73.79253235773048,20.007382471417426]}}]}
