{"type":"FeatureCollection","features":[{"type":"Feature","geometry":{"type":"Point","coordinates":[73.754411,20.015146]},"properties":{"Name":"Hostello World Pvt Ltd","Address":"Old Gangapur Road Gangapur Road, Nashik","locationConfidence":"locality-match","Phone":"08460301113"}},{"type":"Feature","geometry":{"type":"Point","coordinates":[73.780779,19.981911]},"properties":{"Name":"Sawant Stays","Address":"Sawata Mali Road Suchita Nagar, Nashik","locationConfidence":"locality-match","Phone":"08401567745"}},{"type":"Feature","geometry":{"type":"Point","coordinates":[73.782874,19.980744]},"properties":{"Name":"Nashik Pg","Address":"Veer Sawarkar Marg Ashwini Nagar, Nashik","locationConfidence":"locality-match","Phone":"08401338538"}},{"type":"Feature","geometry":{"type":"Point","coordinates":[73.785175,19.988773]},"properties":{"Name":"Panchavati Hostels","Address":"MG Road Mumbai Naka, Nashik","locationConfidence":"locality-match"}},{"type":"Feature","geometry":{"type":"Point","coordinates":[74.243818,20.329751]},"properties":{"Name":"D & J Boyes Hostel","Address":"Bhairavnath Colony Chandwad, Nashik","locationConfidence":"locality-match"}},{"type":"Feature","geometry":{"type":"Point","coordinates":[73.792808,20.005494]},"properties":{"Name":"Dr Panjabrao Deshmukh Niwasi Hostel","Address":"Dindori Road Panchavati, Nashik","locationConfidence":"locality-match"}},{"type":"Feature","geometry":{"type":"Point","coordinates":[73.730696,19.991709]},"properties":{"Name":"PG LIFE","Address":"Gangapur Satpur Link Road Satpur, Nashik","locationConfidence":"locality-match"}},{"type":"Feature","geometry":{"type":"Point","coordinates":[73.80765,20.011129]},"properties":{"Name":"Vedant Boys and Girls Hostel","Address":"Mumbai Agra Highway Adgaon, Nashik","locationConfidence":"locality-match"}},{"type":"Feature","geometry":{"type":"Point","coordinates":[73.80668,20.008723]},"properties":{"Name":"Yovar Hospitality","Address":"Mumbai Agra Highway Indira Nagar Nashik, Nashik","locationConfidence":"approximate"}},{"type":"Feature","geometry":{"type":"Point","coordinates":[73.796719,20.005797]},"properties":{"Name":"Annapurna Bhojnalay and Hostel","Address":"Durga Nagar Panchavati, Nashik","locationConfidence":"locality-match"}},{"type":"Feature","geometry":{"type":"Point","coordinates":[73.827869,19.957832]},"properties":{"Name":"Sai Shradha Hostel","Address":"Shivshakti Nagar Jail Road Nashik Road, Nashik","locationConfidence":"locality-match"}},{"type":"Feature","geometry":{"type":"Point","coordinates":[73.754092,20.014964]},"properties":{"Name":"Shree Sai Ram Hostel","Address":"Spandan Complex Gangapur Road, Nashik","locationConfidence":"locality-match"}},{"type":"Feature","geometry":{"type":"Point","coordinates":[73.794238,20.007589]},"properties":{"Name":"Shree Yog Hostel","Address":"Mumbai Agra Road Panchavati, Nashik","locationConfidence":"locality-match"}},{"type":"Feature","geometry":{"type":"Point","coordinates":[73.782617,19.979859]},"properties":{"Name":"Shivji Hospitality and Sawant Hostel","Address":"Suchita Nagar Indira Nagar Nashik, Nashik","locationConfidence":"locality-match"}},{"type":"Feature","geometry":{"type":"Point","coordinates":[73.791922,20.021862]},"properties":{"Name":"Panchavati Hostel","Address":"BEHIND PURANDARE HOSPITAL Bhabha Nagar, Nashik","locationConfidence":"approximate"}},{"type":"Feature","geometry":{"type":"Point","coordinates":[73.754889,20.017161]},"properties":{"Name":"Shrisha Girls and Boys Hostel","Address":"7 Shradha Sankul Gangapur Road, Nashik","locationConfidence":"locality-match"}},{"type":"Feature","geometry":{"type":"Point","coordinates":[73.798832,19.992114]},"properties":{"Name":"Dreamland Hostels and Catering","Address":"Nashik","locationConfidence":"approximate"}},{"type":"Feature","geometry":{"type":"Point","coordinates":[73.78491,19.97256]},"properties":{"Name":"Swami Vivekanand Boys Hostel","Address":"Mumbai Agra Highway Pimpalgaon Baswant, Nashik","locationConfidence":"approximate"}},{"type":"Feature","geometry":{"type":"Point","coordinates":[73.793663,20.020418]},"properties":{"Name":"Mitra Hostel","Address":"Sarswatui Nagar Hanuman Nagar, Nashik","locationConfidence":"approximate"}},{"type":"Feature","geometry":{"type":"Point","coordinates":[73.782133,20.02066]},"properties":{"Name":"Samarth Hostel and Mess","Address":"Near Mhada Building Saivishwa Malegaon, Nashik","locationConfidence":"approximate"}},{"type":"Feature","geometry":{"type":"Point","coordinates":[73.798934,19.993233]},"properties":{"Name":"Bahalla Nivas","Address":"Ne Engineering College Back Side Mira Mandeer Dwarka, Nashik","locationConfidence":"locality-match"}},{"type":"Feature","geometry":{"type":"Point","coordinates":[73.772556,20.000215]},"properties":{"Name":"Hostel Manorath","Address":"Sharanpur Road Sharanpur, Nashik","locationConfidence":"locality-match"}},{"type":"Feature","geometry":{"type":"Point","coordinates":[73.800556,19.99996]},"properties":{"Name":"my step girls hotel","Address":"Mahila X Mein Oid Nashik, Nashik","locationConfidence":"approximate"}}]}