{"type":"FeatureCollection","features":[{"type":"Feature","properties":{"name":"Holding area - besides Sai Leela","sourceFolder":"Holding Areas / Holding Area.kmz / Holding Area / Dhule road","source":"Mobility plan Nashik KMZ (NTKMA)","role":"area"},"geometry":{"type":"Polygon","coordinates":[[[73.83322737815621,19.99923222394887],[73.83369293696379,19.99927105265997],[73.83373770234252,20.00008791699231],[73.8331089235718,20.00007656849212],[73.8323806908443,20.00007656820928],[73.83191577698109,20.00009927827998],[73.8311881444513,20.00002567216793],[73.83107759254398,19.99909637166149],[73.83322737815621,19.99923222394887]]]}},{"type":"Feature","properties":{"name":"Holding area - besides Sai Leela","sourceFolder":"Holding Areas / Holding Area.kmz / Holding Area / Dhule road","source":"Mobility plan Nashik KMZ (NTKMA)","role":"marker"},"geometry":{"type":"Point","coordinates":[73.8326173915568,19.99968865292898]}},{"type":"Feature","properties":{"name":"Holding area -Pomegranate parking","sourceFolder":"Holding Areas / Holding Area.kmz / Holding Area / Dhule road","source":"Mobility plan Nashik KMZ (NTKMA)","role":"area"},"geometry":{"type":"Polygon","coordinates":[[[73.83169255440825,20.00572629968689],[73.83161111622475,20.0048088796182],[73.83270561748763,20.00479611806119],[73.83417962630283,20.00482166756135],[73.8350039025552,20.00481846622595],[73.83567057108911,20.00480248792433],[73.83567058478758,20.00443959747795],[73.83671911812529,20.00451060457536],[73.83669106772025,20.00482958082808],[73.83627618058662,20.00482012071111],[73.83627876108528,20.00533214773884],[73.83526457348508,20.00534189931317],[73.83457328653711,20.00530620472512],[73.83453910945306,20.00574269358406],[73.83236857149257,20.00565982929904],[73.83192909924999,20.00566272868287],[73.8319267203854,20.00570045756226],[73.83169255440825,20.00572629968689]]]}},{"type":"Feature","properties":{"name":"Holding area -Pomegranate parking","sourceFolder":"Holding Areas / Holding Area.kmz / Holding Area / Dhule road","source":"Mobility plan Nashik KMZ (NTKMA)","role":"marker"},"geometry":{"type":"Point","coordinates":[73.83415516752135,20.00515811573682]}},{"type":"Feature","properties":{"name":"Anand College - Manur","sourceFolder":"Holding Areas / Holding Area.kmz / Holding Area / Ch. Sambhajinagar road","source":"Mobility plan Nashik KMZ (NTKMA)","role":"area"},"geometry":{"type":"Polygon","coordinates":[[[73.84979217056475,19.99600528074499],[73.84972474275564,19.99588505706494],[73.84967664293335,19.99579150427085],[73.84972521811164,19.99567532939425],[73.8515995707205,19.9957331251915],[73.85159372498985,19.99604585224914],[73.84979217056475,19.99600528074499]]]}},{"type":"Feature","properties":{"name":"Anand College - Manur","sourceFolder":"Holding Areas / Holding Area.kmz / Holding Area / Ch. Sambhajinagar road","source":"Mobility plan Nashik KMZ (NTKMA)","role":"marker"},"geometry":{"type":"Point","coordinates":[73.85027203437721,19.995877347094382]}},{"type":"Feature","properties":{"name":"S. no. 14 Manur (Opp. Mahadeo Ceramic) - Staging / Holding area","sourceFolder":"Holding Areas / Holding Area.kmz / Holding Area / Ch. Sambhajinagar road","source":"Mobility plan Nashik KMZ (NTKMA)","role":"area"},"geometry":{"type":"Polygon","coordinates":[[[73.84811015576295,19.99754938690975],[73.84814295423693,19.99671541835708],[73.84736188194839,19.99660755330145],[73.8474685708401,19.9955335626086],[73.84771534108117,19.99556098836898],[73.84780556404912,19.99519622745826],[73.84802786454743,19.99522346311462],[73.84798234320104,19.99572165843812],[73.8482179077817,19.99571301439748],[73.84822293098959,19.99539708688553],[73.84864845985777,19.99541285988547],[73.84866031077753,19.99530657376097],[73.84896406267029,19.99529384670025],[73.84898295961217,19.99594196807933],[73.84907226664471,19.9964731507096],[73.84889039248542,19.99654107774715],[73.84894621198441,19.9966918271223],[73.84918342913862,19.99665081289228],[73.84920147757487,19.99716030266699],[73.84930260379402,19.99716451114652],[73.84934821747945,19.99765460512585],[73.84811015576295,19.99754938690975]]]}},{"type":"Feature","properties":{"name":"S. no. 14 Manur (Opp. Mahadeo Ceramic) - Staging / Holding area","sourceFolder":"Holding Areas / Holding Area.kmz / Holding Area / Ch. Sambhajinagar road","source":"Mobility plan Nashik KMZ (NTKMA)","role":"marker"},"geometry":{"type":"Point","coordinates":[73.84847118464639,19.99622996739029]}},{"type":"Feature","properties":{"name":"Nandurgaon NMC school no. 34-80","sourceFolder":"Holding Areas / Holding Area.kmz / Holding Area / Ch. Sambhajinagar road","source":"Mobility plan Nashik KMZ (NTKMA)","role":"area"},"geometry":{"type":"Polygon","coordinates":[[[73.84415206282642,19.99246126557302],[73.84393897726983,19.9922872400285],[73.84409639461974,19.99176162220584],[73.84445958533342,19.99176864627274],[73.84448514099617,19.99186191135279],[73.84426844815924,19.99219176590179],[73.84415206282642,19.99246126557302]]]}},{"type":"Feature","properties":{"name":"Nandurgaon NMC school no. 34-80","sourceFolder":"Holding Areas / Holding Area.kmz / Holding Area / Ch. Sambhajinagar road","source":"Mobility plan Nashik KMZ (NTKMA)","role":"marker"},"geometry":{"type":"Point","coordinates":[73.84422181029018,19.99211338812967]}},{"type":"Feature","properties":{"name":"Jail road Water tank - Hold nrelease point","sourceFolder":"Holding Areas / Holding Area.kmz / Holding Area / Pune road","source":"Mobility plan Nashik KMZ (NTKMA)","role":"area"},"geometry":{"type":"Polygon","coordinates":[[[73.83817696339933,19.96995847412855],[73.83786087614018,19.96992233971514],[73.8375594820684,19.96989128281266],[73.837459584222,19.96989128178534],[73.83747187953891,19.96982286310132],[73.83761199375178,19.96982286456327],[73.83817087427252,19.96987940872547],[73.83842599506656,19.96991425085148],[73.8384249372423,19.97000842807048],[73.83817696339933,19.96995847412855]]]}},{"type":"Feature","properties":{"name":"Jail road Water tank - Hold nrelease point","sourceFolder":"Holding Areas / Holding Area.kmz / Holding Area / Pune road","source":"Mobility plan Nashik KMZ (NTKMA)","role":"marker"},"geometry":{"type":"Point","coordinates":[73.83793395491013,19.969906966788226]}},{"type":"Feature","properties":{"name":"Shivajinagar - Hold n release point","sourceFolder":"Holding Areas / Holding Area.kmz / Holding Area / Pune road","source":"Mobility plan Nashik KMZ (NTKMA)","role":"area"},"geometry":{"type":"Polygon","coordinates":[[[73.8409175115062,19.97425622388384],[73.84087838014906,19.97407922663514],[73.84077298330595,19.97357859152571],[73.84076322288662,19.97350944933114],[73.84086916067082,19.97348807780513],[73.84088569236954,19.9735602800871],[73.84098839625699,19.97409968325087],[73.84105548937954,19.97440763833523],[73.84094470724074,19.97442523560882],[73.8409175115062,19.97425622388384]]]}},{"type":"Feature","properties":{"name":"Shivajinagar - Hold n release point","sourceFolder":"Holding Areas / Holding Area.kmz / Holding Area / Pune road","source":"Mobility plan Nashik KMZ (NTKMA)","role":"marker"},"geometry":{"type":"Point","coordinates":[73.84089930552716,19.973966063034688]}},{"type":"Feature","properties":{"name":"Narayan Bapu Nagar - Hold n release point","sourceFolder":"Holding Areas / Holding Area.kmz / Holding Area / Pune road","source":"Mobility plan Nashik KMZ (NTKMA)","role":"area"},"geometry":{"type":"Polygon","coordinates":[[[73.84215703510417,19.97830134777843],[73.84209200073923,19.97812770039684],[73.84203159416624,19.97790999736859],[73.84195385245957,19.97767913902723],[73.84189185362402,19.97749782025621],[73.84198115930478,19.97746142283684],[73.84204023865625,19.97761438713849],[73.8421395079253,19.97790326656934],[73.84232667397659,19.97840593263279],[73.84220176007167,19.97845917115075],[73.84215703510417,19.97830134777843]]]}},{"type":"Feature","properties":{"name":"Narayan Bapu Nagar - Hold n release point","sourceFolder":"Holding Areas / Holding Area.kmz / Holding Area / Pune road","source":"Mobility plan Nashik KMZ (NTKMA)","role":"marker"},"geometry":{"type":"Point","coordinates":[73.84208842828473,19.977969230266723]}},{"type":"Feature","properties":{"name":"Adhav Petrol pump - Hold n Release point","sourceFolder":"Holding Areas / Holding Area.kmz / Holding Area / Pune road","source":"Mobility plan Nashik KMZ (NTKMA)","role":"area"},"geometry":{"type":"Polygon","coordinates":[[[73.84448672302456,19.98284413096322],[73.84440413257788,19.98261127605797],[73.8443323739041,19.98240259733366],[73.84426117955284,19.98218616961867],[73.84421634348215,19.98208344746277],[73.8441718876203,19.98199740624181],[73.84427372677926,19.98195696640378],[73.84431341920285,19.98205776777009],[73.84435268335176,19.98214811075996],[73.84440277893133,19.98233006879866],[73.84443662736308,19.982428046058],[73.8444921388714,19.9825934620829],[73.84455848213031,19.98281868236659],[73.84448672302456,19.98284413096322]]]}},{"type":"Feature","properties":{"name":"Adhav Petrol pump - Hold n Release point","sourceFolder":"Holding Areas / Holding Area.kmz / Holding Area / Pune road","source":"Mobility plan Nashik KMZ (NTKMA)","role":"marker"},"geometry":{"type":"Point","coordinates":[73.84437065855832,19.982378733062948]}},{"type":"Feature","properties":{"name":"St. Philomena school","sourceFolder":"Holding Areas / Holding Area.kmz / Holding Area / Pune road","source":"Mobility plan Nashik KMZ (NTKMA)","role":"area"},"geometry":{"type":"Polygon","coordinates":[[[73.8389275926946,19.96177596150483],[73.83761156616086,19.9616979141805],[73.83759471849747,19.96111796542987],[73.83809188206975,19.96109656527352],[73.838077867828,19.96058545986235],[73.83850076156868,19.96063751403512],[73.83848876120143,19.96045254708643],[73.83880377520462,19.96051448482976],[73.8388483895759,19.96108749655871],[73.8389275926946,19.96177596150483]]]}},{"type":"Feature","properties":{"name":"St. Philomena school","sourceFolder":"Holding Areas / Holding Area.kmz / Holding Area / Pune road","source":"Mobility plan Nashik KMZ (NTKMA)","role":"marker"},"geometry":{"type":"Point","coordinates":[73.8383872907496,19.96107418702659]}},{"type":"Feature","properties":{"name":"Ground opposite MSRTC Bus depot no. 3","sourceFolder":"Holding Areas / Holding Area.kmz / Holding Area / Pune road","source":"Mobility plan Nashik KMZ (NTKMA)","role":"area"},"geometry":{"type":"Polygon","coordinates":[[[73.83302233577065,19.95024165023455],[73.83388121526694,19.95010156068742],[73.83386863622988,19.951167354147],[73.83293242825808,19.95113031067901],[73.83302233577065,19.95024165023455]]]}},{"type":"Feature","properties":{"name":"Ground opposite MSRTC Bus depot no. 3","sourceFolder":"Holding Areas / Holding Area.kmz / Holding Area / Pune road","source":"Mobility plan Nashik KMZ (NTKMA)","role":"marker"},"geometry":{"type":"Point","coordinates":[73.83334539025924,19.9505765051965]}},{"type":"Feature","properties":{"name":"MALDHKKA HOLDING AREA","sourceFolder":"Holding Areas / Holding Area.kmz / Holding Area / Pune road","source":"Mobility plan Nashik KMZ (NTKMA)","role":"area"},"geometry":{"type":"Polygon","coordinates":[[[73.84136562188043,19.94472285372607],[73.84065312657843,19.94402892639776],[73.84034679592303,19.94358463878416],[73.84025853744086,19.94337628659432],[73.84023921797878,19.94322711011246],[73.84010986200452,19.94282355282813],[73.8400065699954,19.94245132834543],[73.83986165741608,19.94188713454795],[73.83973247717536,19.94139589876195],[73.83960160970463,19.94090752883431],[73.83952186828289,19.94046457710071],[73.83973558017782,19.94033200279614],[73.83992552306967,19.94019190730516],[73.84042388033173,19.93990585912193],[73.84140128673813,19.94464755871374],[73.84136562188043,19.94472285372607]]]}},{"type":"Feature","properties":{"name":"MALDHKKA HOLDING AREA","sourceFolder":"Holding Areas / Holding Area.kmz / Holding Area / Pune road","source":"Mobility plan Nashik KMZ (NTKMA)","role":"marker"},"geometry":{"type":"Point","coordinates":[73.84028432728614,19.94241687610602]}},{"type":"Feature","properties":{"name":"NMC school Panchak","sourceFolder":"Holding Areas / Holding Area.kmz / Holding Area / Pune road","source":"Mobility plan Nashik KMZ (NTKMA)","role":"area"},"geometry":{"type":"Polygon","coordinates":[[[73.84896606269328,19.98538462730921],[73.84985625633142,19.9855389913694],[73.85010880220544,19.98558991790716],[73.84975149774246,19.98611296376318],[73.84931919997142,19.98602302463109],[73.84887850922082,19.98582033276409],[73.84896606269328,19.98538462730921]]]}},{"type":"Feature","properties":{"name":"NMC school Panchak","sourceFolder":"Holding Areas / Holding Area.kmz / Holding Area / Pune road","source":"Mobility plan Nashik KMZ (NTKMA)","role":"marker"},"geometry":{"type":"Point","coordinates":[73.84940662726545,19.985693497864762]}},{"type":"Feature","properties":{"name":"K. N. Kela school","sourceFolder":"Holding Areas / Holding Area.kmz / Holding Area / Pune road","source":"Mobility plan Nashik KMZ (NTKMA)","role":"area"},"geometry":{"type":"Polygon","coordinates":[[[73.83965705974263,19.96551879593301],[73.84051855230267,19.96546916778833],[73.84053104387135,19.96546157275727],[73.84057924586898,19.96634252617385],[73.8398095424043,19.96666996274206],[73.83965705974263,19.96551879593301]]]}},{"type":"Feature","properties":{"name":"K. N. Kela school","sourceFolder":"Holding Areas / Holding Area.kmz / Holding Area / Pune road","source":"Mobility plan Nashik KMZ (NTKMA)","role":"marker"},"geometry":{"type":"Point","coordinates":[73.8401254173221,19.96583013688792]}},{"type":"Feature","properties":{"name":"Untitled Polygon","sourceFolder":"Holding Areas / Holding Area.kmz / Holding Area / Pune road","source":"Mobility plan Nashik KMZ (NTKMA)","role":"area"},"geometry":{"type":"Polygon","coordinates":[[[73.83956046671963,19.94073632875732],[73.83959289938304,19.94092067275928],[73.83974107760702,19.94144840831096],[73.84005373069151,19.9426973574884],[73.8402228367755,19.94322644285698],[73.84027243535584,19.94341793262835],[73.84044026374362,19.94375100075293],[73.84078310197714,19.94419594779886],[73.84050765114331,19.94457361677377],[73.84035758334846,19.94456946880946],[73.83971893769066,19.94469399033738],[73.83941923893167,19.94444137329661],[73.83881780096542,19.94385290935492],[73.83814052542411,19.94313705436933],[73.83702748573853,19.94198557146812],[73.83956046671963,19.94073632875732]]]}},{"type":"Feature","properties":{"name":"Untitled Polygon","sourceFolder":"Holding Areas / Holding Area.kmz / Holding Area / Pune road","source":"Mobility plan Nashik KMZ (NTKMA)","role":"marker"},"geometry":{"type":"Point","coordinates":[73.83963853138845,19.943024025282504]}},{"type":"Feature","properties":{"name":"Wadala naka - Hold n release point","sourceFolder":"Holding Areas / Holding Area.kmz / Holding Area / Mumbai road","source":"Mobility plan Nashik KMZ (NTKMA)","role":"area"},"geometry":{"type":"Polygon","coordinates":[[[73.79339562900334,19.99196478212387],[73.79334523072373,19.99204812911236],[73.792493026996,19.99159453468726],[73.79254793554563,19.99153379490852],[73.79339562900334,19.99196478212387]]]}},{"type":"Feature","properties":{"name":"Wadala naka - Hold n release point","sourceFolder":"Holding Areas / Holding Area.kmz / Holding Area / Mumbai road","source":"Mobility plan Nashik KMZ (NTKMA)","role":"marker"},"geometry":{"type":"Point","coordinates":[73.79303549025441,19.991821204591176]}},{"type":"Feature","properties":{"name":"Dwarka chowk","sourceFolder":"Holding Areas / Holding Area.kmz / Holding Area / Mumbai road","source":"Mobility plan Nashik KMZ (NTKMA)","role":"area"},"geometry":{"type":"Polygon","coordinates":[[[73.79642191070178,19.99372984427399],[73.79649071039384,19.99361809855264],[73.79733525691084,19.99406805584124],[73.79727549744892,19.99418566351422],[73.79642191070178,19.99372984427399]]]}},{"type":"Feature","properties":{"name":"Dwarka chowk","sourceFolder":"Holding Areas / Holding Area.kmz / Holding Area / Mumbai road","source":"Mobility plan Nashik KMZ (NTKMA)","role":"marker"},"geometry":{"type":"Point","coordinates":[73.79678905723144,19.993866301291213]}},{"type":"Feature","properties":{"name":"","sourceFolder":"Holding Areas / Holding Area.kmz / Holding Area / Mumbai road","source":"Mobility plan Nashik KMZ (NTKMA)","role":"area"},"geometry":{"type":"Polygon","coordinates":[[[73.80218716384482,19.99719366580452],[73.80204916737296,19.99703451740793],[73.80187980844978,19.99687340412516],[73.8017397216044,19.99673783297549],[73.80180244716091,19.99668085393079],[73.80188189937753,19.99674569236636],[73.80206171244456,19.9969087704877],[73.80230216084456,19.99715829934659],[73.80245479420408,19.99736263813722],[73.80236070564413,19.99741568786552],[73.80218716384482,19.99719366580452]]]}},{"type":"Feature","properties":{"name":"","sourceFolder":"Holding Areas / Holding Area.kmz / Holding Area / Mumbai road","source":"Mobility plan Nashik KMZ (NTKMA)","role":"marker"},"geometry":{"type":"Point","coordinates":[73.80208243134477,19.997027729841076]}},{"type":"Feature","properties":{"name":"Open ground near Maharashtra Darbar","sourceFolder":"Holding Areas / Holding Area.kmz / Holding Area / Trimbakeshwar road","source":"Mobility plan Nashik KMZ (NTKMA)","role":"area"},"geometry":{"type":"Polygon","coordinates":[[[73.79637043286131,19.99530597465919],[73.79674082426887,19.99482731142497],[73.7973291921922,19.99515048363212],[73.79695821309255,19.99564869456892],[73.79637043286131,19.99530597465919]]]}},{"type":"Feature","properties":{"name":"Open ground near Maharashtra Darbar","sourceFolder":"Holding Areas / Holding Area.kmz / Holding Area / Trimbakeshwar road","source":"Mobility plan Nashik KMZ (NTKMA)","role":"marker"},"geometry":{"type":"Point","coordinates":[73.79675381905524,19.995247687788876]}},{"type":"Feature","properties":{"name":"Holding area","sourceFolder":"Holding Areas / Holding Area.kmz / Holding Area / Trimbakeshwar road","source":"Mobility plan Nashik KMZ (NTKMA)","role":"area"},"geometry":{"type":"Polygon","coordinates":[[[73.8007358857335,19.9969922324439],[73.80098997358996,19.99692552621276],[73.80157883865316,19.99750158710653],[73.80103154560568,19.99759953512365],[73.8007358857335,19.9969922324439]]]}},{"type":"Feature","properties":{"name":"Holding area","sourceFolder":"Holding Areas / Holding Area.kmz / Holding Area / Trimbakeshwar road","source":"Mobility plan Nashik KMZ (NTKMA)","role":"marker"},"geometry":{"type":"Point","coordinates":[73.80101442586316,19.99720222266615]}},{"type":"Feature","properties":{"name":"Holding area","sourceFolder":"Holding Areas / Holding Area.kmz / Holding Area / Trimbakeshwar road","source":"Mobility plan Nashik KMZ (NTKMA)","role":"area"},"geometry":{"type":"Polygon","coordinates":[[[73.7988916468751,19.99811936238053],[73.7987963377463,19.99782036781268],[73.79913816442797,19.99778283300224],[73.799204914833,19.99804009309699],[73.7988916468751,19.99811936238053]]]}},{"type":"Feature","properties":{"name":"Holding area","sourceFolder":"Holding Areas / Holding Area.kmz / Holding Area / Trimbakeshwar road","source":"Mobility plan Nashik KMZ (NTKMA)","role":"marker"},"geometry":{"type":"Point","coordinates":[73.7989845421515,19.997976403734594]}},{"type":"Feature","properties":{"name":"BD Bhalekar Holding Area","sourceFolder":"Holding Areas / Holding Area.kmz / Holding Area / Trimbakeshwar road","source":"Mobility plan Nashik KMZ (NTKMA)","role":"area"},"geometry":{"type":"Polygon","coordinates":[[[73.7844269457508,19.99968680363795],[73.78418959370237,19.99813668748462],[73.78497281301912,19.99838832466752],[73.78506548785339,19.99976226932293],[73.7844269457508,19.99968680363795]]]}},{"type":"Feature","properties":{"name":"BD Bhalekar Holding Area","sourceFolder":"Holding Areas / Holding Area.kmz / Holding Area / Trimbakeshwar road","source":"Mobility plan Nashik KMZ (NTKMA)","role":"marker"},"geometry":{"type":"Point","coordinates":[73.7846163572153,19.99913217775019]}},{"type":"Feature","properties":{"name":"Yashwant Gymkhana","sourceFolder":"Holding Areas / Holding Area.kmz / Holding Area / Trimbakeshwar road","source":"Mobility plan Nashik KMZ (NTKMA)","role":"area"},"geometry":{"type":"Polygon","coordinates":[[[73.78609393665445,20.00407722297083],[73.78599646918308,20.00377879500729],[73.785907159132,20.00341516638679],[73.78657256542049,20.00324981879973],[73.7866101047903,20.00331243433796],[73.78665569312538,20.00342301791278],[73.78672245459764,20.00362689039303],[73.78676059964808,20.00384813797404],[73.78682072796494,20.00402902265864],[73.78681598440052,20.00412128524206],[73.78667457236824,20.00417761367878],[73.7864837183799,20.00422751208092],[73.78617669444023,20.00428525081795],[73.78609393665445,20.00407722297083]]]}},{"type":"Feature","properties":{"name":"Yashwant Gymkhana","sourceFolder":"Holding Areas / Holding Area.kmz / Holding Area / Trimbakeshwar road","source":"Mobility plan Nashik KMZ (NTKMA)","role":"marker"},"geometry":{"type":"Point","coordinates":[73.78645604405426,20.003832099373685]}},{"type":"Feature","properties":{"name":"Shalimar holding area","sourceFolder":"Holding Areas / Holding Area.kmz / Holding Area / Trimbakeshwar road","source":"Mobility plan Nashik KMZ (NTKMA)","role":"area"},"geometry":{"type":"Polygon","coordinates":[[[73.7858979917656,20.0008187730339],[73.78611844640578,20.00065881377642],[73.78628834354795,20.00053028305348],[73.78634261861865,20.00046846657632],[73.78636436433274,20.00043402467431],[73.78639020628297,20.00037913031728],[73.78640322555692,20.00027740180123],[73.78640503730713,20.00008758345715],[73.78637993573719,19.99985432544376],[73.78648093664744,19.99984813950738],[73.78650941752798,20.00007587398135],[73.7865173273991,20.00023282014617],[73.78651676413826,20.00034460948422],[73.78649330251481,20.00040907916435],[73.7864505526462,20.00049117989499],[73.78641085319244,20.00054971918325],[73.78624434083693,20.00070211246749],[73.7859686994143,20.00089780232402],[73.7858979917656,20.0008187730339]]]}},{"type":"Feature","properties":{"name":"Shalimar holding area","sourceFolder":"Holding Areas / Holding Area.kmz / Holding Area / Trimbakeshwar road","source":"Mobility plan Nashik KMZ (NTKMA)","role":"marker"},"geometry":{"type":"Point","coordinates":[73.78632001871777,20.00041467954321]}},{"type":"Feature","properties":{"name":"mari mata mandir holding area","sourceFolder":"Holding Areas / Holding Area.kmz / Holding Area / Gangapur road and Peth road","source":"Mobility plan Nashik KMZ (NTKMA)","role":"area"},"geometry":{"type":"Polygon","coordinates":[[[73.71674786543646,20.0310629597697],[73.7164879663103,20.02983349849607],[73.71747384067794,20.02986298583681],[73.71751031878387,20.03082215735455],[73.71752205717961,20.03108543683124],[73.71674786543646,20.0310629597697]]]}},{"type":"Feature","properties":{"name":"mari mata mandir holding area","sourceFolder":"Holding Areas / Holding Area.kmz / Holding Area / Gangapur road and Peth road","source":"Mobility plan Nashik KMZ (NTKMA)","role":"marker"},"geometry":{"type":"Point","coordinates":[73.7170816523041,20.030621666343013]}},{"type":"Feature","properties":{"name":"holding area - RK","sourceFolder":"Holding Areas / Holding Area.kmz / Holding Area / Gangapur road and Peth road","source":"Mobility plan Nashik KMZ (NTKMA)","role":"area"},"geometry":{"type":"Polygon","coordinates":[[[73.78876527735783,20.00693188479239],[73.78863108476837,20.0062559011152],[73.78867996168222,20.00629588400233],[73.78907585019705,20.00660155593385],[73.7891086654859,20.00669602862068],[73.78919006229118,20.0068626566677],[73.78876527735783,20.00693188479239]]]}},{"type":"Feature","properties":{"name":"holding area - RK","sourceFolder":"Holding Areas / Holding Area.kmz / Holding Area / Gangapur road and Peth road","source":"Mobility plan Nashik KMZ (NTKMA)","role":"marker"},"geometry":{"type":"Point","coordinates":[73.78888802559149,20.006653685132076]}},{"type":"Feature","properties":{"name":"Holding Point - Ashok Stambh","sourceFolder":"Holding Areas / Holding Area.kmz / Holding Area / Gangapur road and Peth road","source":"Mobility plan Nashik KMZ (NTKMA)","role":"area"},"geometry":{"type":"Polygon","coordinates":[[[73.78450949520605,20.00697353081648],[73.78443306337832,20.00706310702256],[73.78433650306248,20.00707909499105],[73.78398860743219,20.00703992739173],[73.78380664028312,20.00699751871942],[73.78382893325649,20.00699743496572],[73.78350719889892,20.00689366676177],[73.7835531918007,20.00677164436645],[73.78386835588245,20.00686516427429],[73.78400909692976,20.00690316279568],[73.7841251251196,20.00689677714983],[73.78431890763822,20.0069253041194],[73.78450904022861,20.00693587698067],[73.78450949520605,20.00697353081648]]]}},{"type":"Feature","properties":{"name":"Holding Point - Ashok Stambh","sourceFolder":"Holding Areas / Holding Area.kmz / Holding Area / Gangapur road and Peth road","source":"Mobility plan Nashik KMZ (NTKMA)","role":"marker"},"geometry":{"type":"Point","coordinates":[73.78409311816593,20.006951124369397]}},{"type":"Feature","properties":{"name":"Holding area near KTHM College","sourceFolder":"Holding Areas / Holding Area.kmz / Holding Area / Gangapur road and Peth road","source":"Mobility plan Nashik KMZ (NTKMA)","role":"area"},"geometry":{"type":"Polygon","coordinates":[[[73.77886022228108,20.00616081534674],[73.77985217222248,20.00615963552262],[73.78035705985893,20.00619686207934],[73.78060795911382,20.0062062639165],[73.78061222927087,20.00667525204017],[73.7806209059391,20.00699767928883],[73.78015182777413,20.00697756486943],[73.77970966258276,20.00696477045274],[73.77941311806595,20.00691557329079],[73.77956414176514,20.00670727786489],[73.77885592200751,20.0063042458352],[73.77886022228108,20.00616081534674]]]}},{"type":"Feature","properties":{"name":"Holding area near KTHM College","sourceFolder":"Holding Areas / Holding Area.kmz / Holding Area / Gangapur road and Peth road","source":"Mobility plan Nashik KMZ (NTKMA)","role":"marker"},"geometry":{"type":"Point","coordinates":[73.77978878693024,20.00653556298783]}},{"type":"Feature","properties":{"name":"Adiwashi pada takli holding point","sourceFolder":"Holding Areas / Holding Area.kmz / Holding Area / Deolali station road","source":"Mobility plan Nashik KMZ (NTKMA)","role":"area"},"geometry":{"type":"Polygon","coordinates":[[[73.82148487372237,19.98692905467588],[73.8206921647822,19.98702875742604],[73.82055319925442,19.98664796490787],[73.82129981244444,19.98643137189882],[73.82148487372237,19.98692905467588]]]}},{"type":"Feature","properties":{"name":"Adiwashi pada takli holding point","sourceFolder":"Holding Areas / Holding Area.kmz / Holding Area / Deolali station road","source":"Mobility plan Nashik KMZ (NTKMA)","role":"marker"},"geometry":{"type":"Point","coordinates":[73.82110298478517,19.9867932407169]}},{"type":"Feature","properties":{"name":"Holding area - Private ownership (Owner - Kokani)","sourceFolder":"Holding Areas / Holding Area.kmz / Holding Area / Deolali station road","source":"Mobility plan Nashik KMZ (NTKMA)","role":"area"},"geometry":{"type":"Polygon","coordinates":[[[73.81640087076882,19.97818893583843],[73.81718156655256,19.97817284188023],[73.81751715441287,19.97816681657881],[73.81757925823015,19.97823748065003],[73.81764916448229,19.97843777434778],[73.81764409913302,19.97842938260453],[73.81759570662756,19.97915347422737],[73.81648200502757,19.97925068293851],[73.81640087076882,19.97818893583843]]]}},{"type":"Feature","properties":{"name":"Holding area - Private ownership (Owner - Kokani)","sourceFolder":"Holding Areas / Holding Area.kmz / Holding Area / Deolali station road","source":"Mobility plan Nashik KMZ (NTKMA)","role":"marker"},"geometry":{"type":"Point","coordinates":[73.81716118844484,19.978469591656008]}},{"type":"Feature","properties":{"name":"Someshwar Ghat - 16248 Sq.M.","sourceFolder":"Holding Areas","source":"Mobility plan Nashik KMZ (NTKMA)","role":"area"},"geometry":{"type":"Polygon","coordinates":[[[73.71959111585852,20.02961017860724],[73.71983434409047,20.02988275066249],[73.72005362506405,20.02995640999564],[73.7206192343013,20.02998072793348],[73.72131482904301,20.03000443982445],[73.7216794173008,20.0300048210266],[73.72168179302045,20.03044035681284],[73.72083414011874,20.03037960066112],[73.72012626001926,20.03037274233818],[73.71977702483235,20.03035427766295],[73.71952590054131,20.03023874899439],[73.71940834271953,20.02990762138448],[73.71959111585852,20.02961017860724]]]}},{"type":"Feature","properties":{"name":"Someshwar Ghat - 16248 Sq.M.","sourceFolder":"Holding Areas","source":"Mobility plan Nashik KMZ (NTKMA)","role":"marker"},"geometry":{"type":"Point","coordinates":[73.72031054944371,20.0300571426547]}},{"type":"Feature","properties":{"name":"Navashya Ganpati HA - 12956 sqm","sourceFolder":"Holding Areas","source":"Mobility plan Nashik KMZ (NTKMA)","role":"area"},"geometry":{"type":"Polygon","coordinates":[[[73.74318907911137,20.01658314940605],[73.74290407123152,20.0167616784316],[73.74269406532223,20.01690262189296],[73.74242405734535,20.01711403655841],[73.74217904939316,20.01734424334535],[73.74194404085888,20.01755565771652],[73.74182903710772,20.01749458208019],[73.74183903802974,20.0173536389712],[73.74184403886184,20.01719860161277],[73.74183903867839,20.01719390350009],[73.74182403829637,20.01716571486355],[73.74179903760822,20.01714222427798],[73.74178403715555,20.01713282803491],[73.7417690367239,20.01711873369132],[73.74174903614846,20.01710463933006],[73.74173903588607,20.0170858468824],[73.74171903529283,20.01707645061619],[73.74170903503375,20.0170576581755],[73.74169403460958,20.01704356382416],[73.74167903418667,20.01702946946199],[73.74165903364312,20.01701067698856],[73.74164403324602,20.01699188452288],[73.74163403302686,20.01697779017971],[73.74161403243323,20.01695899769404],[73.74159903201684,20.01694490332406],[73.74157903145712,20.01693080893198],[73.74155903087328,20.01692141263886],[73.74153903028906,20.01691201634187],[73.74152903004577,20.01689322388687],[73.7415190298033,20.01687443142958],[73.74150902959134,20.01686033707593],[73.74150902971891,20.01683684656385],[73.74150902981995,20.01681805415668],[73.74151903022926,20.01679456369539],[73.74152903064088,20.01678046943534],[73.74153403087753,20.01676167705817],[73.74153903116742,20.01674288467167],[73.74154903153881,20.0167240923196],[73.74156403207745,20.01670999807495],[73.74157403247455,20.01669590382282],[73.741594033163,20.01667711151892],[73.74160903374995,20.0166489229692],[73.74162403428932,20.01663013063825],[73.74163903480411,20.01661603640714],[73.74165403531485,20.01660194217489],[73.74166403561625,20.01659254600114],[73.74168403630658,20.01657845178966],[73.74169903684057,20.01655496135142],[73.74171403730155,20.01655026331667],[73.74172903773801,20.01653616907817],[73.74175403852108,20.01652677298159],[73.7417890395812,20.01650798068221],[73.7418140403501,20.01649858457681],[73.74183904105838,20.01648918846763],[73.7418590416374,20.01647979233702],[73.74188404240353,20.01646569811954],[73.74190404297411,20.01645630198322],[73.74192404355793,20.01645160394576],[73.74194904426102,20.01644690592067],[73.741969044812,20.0164422078774],[73.741994045546,20.0164328117436],[73.742014046109,20.01641871749142],[73.74203904680677,20.01640932134999],[73.74205904738167,20.01639992515653],[73.74208404807194,20.01639052900734],[73.74210404861297,20.01638113284405],[73.74212404917292,20.01637643477995],[73.74214404971444,20.01636234050869],[73.74215404998644,20.01635294432055],[73.74218405080998,20.0163388500587],[73.7422090514848,20.01632475578374],[73.7422190517611,20.01632005769294],[73.74224405243012,20.01630596341084],[73.7422640529615,20.01630126532637],[73.74228405348691,20.01629186913535],[73.74229905388546,20.01629186914559],[73.74232405454417,20.01627777481106],[73.74234405507012,20.01627307675113],[73.74236405559503,20.01626837861513],[73.74238405611749,20.01626837861694],[73.74240405664047,20.01625898240717],[73.74242405716113,20.01625428433518],[73.74244405768279,20.01624958618705],[73.74246405820193,20.01624958617721],[73.74248405872275,20.01624488809616],[73.74250905937022,20.01624018993454],[73.74253406001722,20.01623549176815],[73.74255406053666,20.01623079367629],[73.7425840613283,20.0162307936361],[73.74260406185218,20.01623079360565],[73.74262406236294,20.01623079357225],[73.7426490630162,20.01623079352639],[73.74267406367667,20.01623549154504],[73.74268906407589,20.01623549151262],[73.74270906462492,20.01624018960902],[73.74273406529124,20.01624488768993],[73.742754065809,20.01624488763771],[73.7427740663637,20.0162495856517],[73.74279406690995,20.01626367994685],[73.74281906757778,20.01626367987067],[73.74284406826706,20.0162730760009],[73.7428640688147,20.01628247214397],[73.74287406914894,20.01630126452936],[73.74288406948577,20.01632005691265],[73.74288906966086,20.01634354741568],[73.74289406981515,20.01635764170916],[73.74290407017047,20.01638113219022],[73.74290407022968,20.01640462270472],[73.74291407057818,20.01642341511534],[73.74292907097207,20.01643281126508],[73.7429440714501,20.01645160361747],[73.74296407209887,20.01646569784657],[73.74298407268297,20.01647509397124],[73.74300407321167,20.01646569768549],[73.74302407377083,20.0164656976009],[73.74304407437162,20.01646099941111],[73.74306907506144,20.01646099929802],[73.74308907559333,20.01645160299849],[73.74310907619804,20.01644690479863],[73.74312907674872,20.01644220659562],[73.74314907728291,20.01643281028552],[73.7431640777616,20.01644220641474],[73.74318907911137,20.01658314940605]]]}},{"type":"Feature","properties":{"name":"Navashya Ganpati HA - 12956 sqm","sourceFolder":"Holding Areas","source":"Mobility plan Nashik KMZ (NTKMA)","role":"marker"},"geometry":{"type":"Point","coordinates":[73.7422071805642,20.01658185174371]}},{"type":"Feature","properties":{"name":"Lakshminarayan Ghat 14525Sq.M","sourceFolder":"Holding Areas","source":"Mobility plan Nashik KMZ (NTKMA)","role":"area"},"geometry":{"type":"Polygon","coordinates":[[[73.80946412635382,20.00166447782458],[73.80953083572928,20.00144545385926],[73.80925437747123,20.00136085009439],[73.80924827527262,20.00122255067823],[73.8097754654446,20.00085396657526],[73.81006206768608,20.00073636371683],[73.8104677404575,20.00053786553839],[73.81072520911061,20.00044507058406],[73.81079431232133,20.00040459581436],[73.81119665436816,20.00096627441584],[73.81119642687105,20.00101967078194],[73.81055526121274,20.00120457904702],[73.81067314550431,20.00136688641448],[73.81058384119538,20.00137895613991],[73.81043094858933,20.00138499332617],[73.81012767524332,20.00153037818568],[73.80982433272251,20.00162172352207],[73.8096860235109,20.00172569853666],[73.80946412635382,20.00166447782458]]]}},{"type":"Feature","properties":{"name":"Lakshminarayan Ghat 14525Sq.M","sourceFolder":"Holding Areas","source":"Mobility plan Nashik KMZ (NTKMA)","role":"marker"},"geometry":{"type":"Point","coordinates":[73.81016109712729,20.001186043835773]}},{"type":"Feature","properties":{"name":"Kapila Sangam Ghat - 26983","sourceFolder":"Holding Areas","source":"Mobility plan Nashik KMZ (NTKMA)","role":"area"},"geometry":{"type":"Polygon","coordinates":[[[73.81344341302797,19.99869980043749],[73.8132647864892,19.99730455027261],[73.81392344355245,19.99733077390295],[73.81429184547888,19.99739371462707],[73.81476630212107,19.99733076431239],[73.81500075004716,19.99820148353994],[73.81507332869216,19.9991718623546],[73.81496727226,19.9991666183498],[73.8149226138947,19.99896729772937],[73.81484446777156,19.99899877041874],[73.81482213585672,19.99868405320538],[73.8143030216079,19.99875224754923],[73.81432534964186,19.99880470020329],[73.8139290368867,19.99885715626341],[73.81344341302797,19.99869980043749]]]}},{"type":"Feature","properties":{"name":"Kapila Sangam Ghat - 26983","sourceFolder":"Holding Areas","source":"Mobility plan Nashik KMZ (NTKMA)","role":"marker"},"geometry":{"type":"Point","coordinates":[73.8143547453571,19.99842423957358]}},{"type":"Feature","properties":{"name":"Nandur Dasak HA - 3126 sq.m.","sourceFolder":"Holding Areas","source":"Mobility plan Nashik KMZ (NTKMA)","role":"area"},"geometry":{"type":"Polygon","coordinates":[[[73.84717368441147,19.99001292427887],[73.8473381435455,19.98971273678794],[73.84771766573876,19.98943038060592],[73.8477176666473,19.98961168198747],[73.84772082968664,19.98966518071866],[73.84770185390644,19.98974840109763],[73.84772715636353,19.98987025924582],[73.84767022914092,19.99010208749222],[73.84755637312696,19.99032499959864],[73.84739507453519,19.99025664036221],[73.84739507375734,19.99010506048971],[73.84717368441147,19.99001292427887]]]}},{"type":"Feature","properties":{"name":"Nandur Dasak HA - 3126 sq.m.","sourceFolder":"Holding Areas","source":"Mobility plan Nashik KMZ (NTKMA)","role":"marker"},"geometry":{"type":"Point","coordinates":[73.84752395293928,19.98990443974533]}},{"type":"Feature","properties":{"name":"Nandur Dasak HA - 9506 sq.m.","sourceFolder":"Holding Areas","source":"Mobility plan Nashik KMZ (NTKMA)","role":"area"},"geometry":{"type":"Polygon","coordinates":[[[73.84774631032955,19.99019831944176],[73.84784102947336,19.9896019108711],[73.84826254712146,19.98973543197559],[73.84867459263391,19.98973542780702],[73.8487787876493,19.98969091842395],[73.84915294634845,19.98975322488823],[73.8491529466558,19.98977547898625],[73.84914821106838,19.98981553644416],[73.84913873936179,19.98986449560021],[73.84912926766224,19.98991345474839],[73.84912453196377,19.98994461054666],[73.8491197961643,19.98997576634723],[73.84911032445304,19.99001582384173],[73.84910558852779,19.99003807799719],[73.84909611651929,19.99006478303048],[73.8490913805675,19.99007813554681],[73.84908664481587,19.99010484051841],[73.8490866450837,19.99012264379594],[73.84908190936677,19.99015825040173],[73.8490819096384,19.99017605367997],[73.84908190997994,19.9901983077676],[73.84908191025482,19.99021611105559],[73.84908191060047,19.99023836514475],[73.84908191087858,19.9902561684168],[73.84908191129851,19.99028287334349],[73.84907243909153,19.99029622591006],[73.84907243944379,19.99031848001975],[73.84906296741138,19.99033628340392],[73.84905349527503,19.99035408678725],[73.84904875929661,19.99037189011629],[73.84903455093146,19.99038524273275],[73.84902981477386,19.99038524278569],[73.84854198682109,19.99033628875899],[73.84795943804626,19.990296235947],[73.84779367183704,19.99019386837962],[73.84774631032955,19.99019831944176]]]}},{"type":"Feature","properties":{"name":"Nandur Dasak HA - 9506 sq.m.","sourceFolder":"Holding Areas","source":"Mobility plan Nashik KMZ (NTKMA)","role":"marker"},"geometry":{"type":"Point","coordinates":[73.84885654587985,19.990095199302896]}},{"type":"Feature","properties":{"name":"Nandur Dasak  HA - 11434 sq.m.","sourceFolder":"Holding Areas","source":"Mobility plan Nashik KMZ (NTKMA)","role":"area"},"geometry":{"type":"Polygon","coordinates":[[[73.8461975815887,19.99101282014239],[73.84615969403586,19.99043866485874],[73.84646754622982,19.99018496953672],[73.8469506351383,19.99017606862879],[73.84715429007757,19.99023392901589],[73.84714955427214,19.99036745331348],[73.84750003082438,19.99053213217152],[73.84738162773836,19.9907947301208],[73.84737215646895,19.99108403253156],[73.84675645262848,19.99106177965069],[73.84642018288903,19.99104842705738],[73.8462544157206,19.99107068086738],[73.8461975815887,19.99101282014239]]]}},{"type":"Feature","properties":{"name":"Nandur Dasak  HA - 11434 sq.m.","sourceFolder":"Holding Areas","source":"Mobility plan Nashik KMZ (NTKMA)","role":"marker"},"geometry":{"type":"Point","coordinates":[73.84676628840008,19.990693731387516]}},{"type":"Feature","properties":{"name":"Nadur Dasak HA - 54603 sq.m.","sourceFolder":"Holding Areas","source":"Mobility plan Nashik KMZ (NTKMA)","role":"area"},"geometry":{"type":"Polygon","coordinates":[[[73.84676327748238,19.98824494185023],[73.8462328346453,19.98761737644701],[73.8463180836708,19.98604178084329],[73.84854876780497,19.98621535833895],[73.84868611505429,19.9863933905547],[73.84851089876364,19.98824048268979],[73.84757315042297,19.98815592335529],[73.84676327748238,19.98824494185023]]]}},{"type":"Feature","properties":{"name":"Nadur Dasak HA - 54603 sq.m.","sourceFolder":"Holding Areas","source":"Mobility plan Nashik KMZ (NTKMA)","role":"marker"},"geometry":{"type":"Point","coordinates":[73.84742455066583,19.987394274491187]}},{"type":"Feature","properties":{"name":"Navashya Ganpati Add HA - 53993 sq.m.","sourceFolder":"Holding Areas","source":"Mobility plan Nashik KMZ (NTKMA)","role":"area"},"geometry":{"type":"Polygon","coordinates":[[[73.74194301171751,20.01755176074846],[73.7414892058106,20.01806531324624],[73.74109999441535,20.01853429310551],[73.74075979804026,20.01901485100598],[73.74039919516265,20.01940935600411],[73.74022505140609,20.01964965600786],[73.74011672519002,20.01976560966096],[73.73999712329118,20.01940935440555],[73.7406445763061,20.01840691508343],[73.74007292718746,20.01763380362734],[73.73970565554258,20.01617780860267],[73.73982514543347,20.01613086812236],[73.74069939815828,20.01649861726586],[73.74054256865493,20.0158982443945],[73.74085028625238,20.0157624414316],[73.74125577830168,20.0158246894144],[73.74167474059075,20.0158148831337],[73.7416595395481,20.01592654052314],[73.7418213197701,20.01601922046538],[73.74195761122144,20.01608466479654],[73.7421092206079,20.01613192604935],[73.74224656151128,20.01615363761003],[73.74231610318219,20.01623077756188],[73.74232778289212,20.01628020309896],[73.74229088328768,20.01629381088421],[73.74225118306309,20.01629835900404],[73.74219694666114,20.0163303712359],[73.74216150376769,20.01633727077117],[73.7421287469954,20.01636269126942],[73.74209103208516,20.01637896811234],[73.74204413053958,20.01639532356099],[73.74200169333814,20.01643063877476],[73.74197236203906,20.01644724525017],[73.74190658062591,20.01644724489639],[73.7418631992119,20.01647350481174],[73.74179895944285,20.01649755298907],[73.74174566582333,20.01652420144032],[73.74169886653314,20.01655105694644],[73.74167944320742,20.01657812198795],[73.74165290542331,20.01660539887578],[73.74162649212462,20.01662537108727],[73.7416045957204,20.01664545772342],[73.7415890961206,20.01667580428651],[73.7415490785058,20.01672181808688],[73.74153233794505,20.01675432334278],[73.74152410737402,20.0167867295212],[73.74151796793689,20.01681038867133],[73.74150696283148,20.01685013265958],[73.74151178907266,20.01686028697173],[73.74153686999772,20.01690119325119],[73.74156964414678,20.01692289294788],[73.74159992888707,20.01695019983188],[73.74161869666938,20.01696668210992],[73.74164700686222,20.01699154469424],[73.74168495764208,20.01702775543844],[73.74171870209841,20.01706186232512],[73.74173677075409,20.01709152129],[73.74175992085338,20.01711141062036],[73.74179038177903,20.01712638942772],[73.74183013409065,20.01716406951116],[73.74185112476053,20.01720208649887],[73.74182070744907,20.01749433938931],[73.74194301171751,20.01755176074846]]]}},{"type":"Feature","properties":{"name":"Navashya Ganpati Add HA - 53993 sq.m.","sourceFolder":"Holding Areas","source":"Mobility plan Nashik KMZ (NTKMA)","role":"marker"},"geometry":{"type":"Point","coordinates":[73.74151259853299,20.016914622485903]}},{"type":"Feature","properties":{"name":"Add Holding Area - 91444 sq.m.","sourceFolder":"Holding Areas","source":"Mobility plan Nashik KMZ (NTKMA)","role":"area"},"geometry":{"type":"Polygon","coordinates":[[[73.84150741863048,19.98484042065099],[73.84103099542814,19.98451695676455],[73.84013819450377,19.98406991914866],[73.83985286964543,19.98395987527282],[73.83938443117675,19.98377796517865],[73.83884407247709,19.98351747331208],[73.83824813708044,19.98357996124147],[73.83775627002133,19.98363369931612],[73.8370078651032,19.98376878954732],[73.83647464928058,19.98379590862755],[73.83591467689834,19.98401458691257],[73.83535004934186,19.9841156984867],[73.83466764335692,19.9844413326541],[73.83376655985656,19.98385096285154],[73.83511701328358,19.9836464342632],[73.83514183857916,19.98284227843703],[73.83942192182636,19.98282790943095],[73.83936650145982,19.98304750442166],[73.84027017657182,19.98327560990741],[73.8402722630439,19.98276227305653],[73.8408927687283,19.98279146376282],[73.84088781221078,19.98338641144587],[73.84124068759351,19.98341600997533],[73.84124300941968,19.98351972831337],[73.84159105692589,19.98364600817437],[73.84145853094176,19.98413214796198],[73.84256531600491,19.98437347088109],[73.84235521556728,19.98532869064863],[73.84205204129292,19.98531323801004],[73.84150741863048,19.98484042065099]]]}},{"type":"Feature","properties":{"name":"Add Holding Area - 91444 sq.m.","sourceFolder":"Holding Areas","source":"Mobility plan Nashik KMZ (NTKMA)","role":"marker"},"geometry":{"type":"Point","coordinates":[73.83917758016268,19.983834438310215]}},{"type":"Feature","properties":{"name":"Odha Holding Area - 17986 sq.m.","sourceFolder":"Holding Areas","source":"Mobility plan Nashik KMZ (NTKMA)","role":"area"},"geometry":{"type":"Polygon","coordinates":[[[73.90887207514055,19.99734748268414],[73.90896587130617,19.99704090081524],[73.9085499020053,19.99683395879136],[73.90804013686784,19.99673048713054],[73.90809723207074,19.99627444839373],[73.90834599668791,19.99630127470024],[73.90829705897141,19.99653887461728],[73.908643698741,19.99668450063098],[73.90860291758595,19.99678413940575],[73.9086518550749,19.99683395877772],[73.90885983949207,19.99688761031306],[73.90903927579534,19.99651971295496],[73.90905150884733,19.99608283538848],[73.90893324362925,19.99601385502572],[73.908721182301,19.99597553280421],[73.90883129072552,19.99572643555381],[73.9094511628185,19.99587589133592],[73.909434851474,19.99613265313766],[73.90996500848878,19.99617863659962],[73.90981412873809,19.99733981629393],[73.90950826565273,19.99725933923308],[73.909357376117,19.99752759945251],[73.90887207514055,19.99734748268414]]]}},{"type":"Feature","properties":{"name":"Odha Holding Area - 17986 sq.m.","sourceFolder":"Holding Areas","source":"Mobility plan Nashik KMZ (NTKMA)","role":"marker"},"geometry":{"type":"Point","coordinates":[73.90890895450748,19.99661901855322]}},{"type":"Feature","properties":{"name":"Talkuteshwar - 47759 Sq.M.","sourceFolder":"Holding Areas","source":"Mobility plan Nashik KMZ (NTKMA)","role":"area"},"geometry":{"type":"Polygon","coordinates":[[[73.7963496984286,20.00220480070572],[73.79719958111328,20.00220924576259],[73.79726096115246,20.00241777462834],[73.79740260786511,20.00240002811643],[73.79737427863523,20.00222255694331],[73.79796447260824,20.00221368391464],[73.79799752366856,20.0026218665201],[73.79838469141306,20.00258193405708],[73.79831858918396,20.00224030312521],[73.79875297302736,20.00220036868866],[73.7987813050543,20.00313208845537],[73.79839885741069,20.00316314807675],[73.79837524924615,20.00304335622192],[73.79809195532418,20.00308328789828],[73.79802585368279,20.00328294119453],[73.7981061207214,20.00350034083789],[73.79826665571593,20.00396619686048],[73.79838469786768,20.00446311045566],[73.79838942274169,20.00501770368164],[73.79776144611607,20.00497333665304],[73.79769062198693,20.00452966228359],[73.79723262589607,20.00457846593664],[73.7969351722078,20.00296793052649],[73.79610889305107,20.00311433536876],[73.79596724856096,20.00229353051046],[73.7963496984286,20.00220480070572]]]}},{"type":"Feature","properties":{"name":"Talkuteshwar - 47759 Sq.M.","sourceFolder":"Holding Areas","source":"Mobility plan Nashik KMZ (NTKMA)","role":"marker"},"geometry":{"type":"Point","coordinates":[73.79768735388879,20.00310103069728]}},{"type":"Feature","properties":{"name":"Laksminarayan Ghat D - 73965 sq.m.","sourceFolder":"Holding Areas","source":"Mobility plan Nashik KMZ (NTKMA)","role":"area"},"geometry":{"type":"Polygon","coordinates":[[[73.80531964286678,20.00153095647009],[73.80529622403034,20.00123761052285],[73.80450796134564,20.00036491620409],[73.80534302678299,20.00013756074111],[73.80592835120011,20.00008621444286],[73.80595956089638,19.99980020082173],[73.80628734151193,19.99978552654915],[73.80631855541667,19.99966818713729],[73.80681802849396,19.99960950557763],[73.80775454390731,19.99961681115457],[73.80850375398666,19.99949944478491],[73.8090578606779,19.99944075191857],[73.8092841832355,19.9993307358559],[73.80948710286486,19.99946273326926],[73.8094871097206,19.99963140876383],[73.81012706473913,19.99941136498744],[73.8102207282485,19.99963137223609],[73.81010366576133,19.99974138432484],[73.80734877351392,20.0012155599442],[73.80713805912053,20.00131823704788],[73.80685710138154,20.00129624385525],[73.80620153816278,20.00143559973804],[73.80531964286678,20.00153095647009]]]}},{"type":"Feature","properties":{"name":"Laksminarayan Ghat D - 73965 sq.m.","sourceFolder":"Holding Areas","source":"Mobility plan Nashik KMZ (NTKMA)","role":"marker"},"geometry":{"type":"Point","coordinates":[73.8073334704666,20.000207968818163]}},{"type":"Feature","properties":{"name":"Takali Sangam Ghat - 75465 Sq.m.","sourceFolder":"Holding Areas","source":"Mobility plan Nashik KMZ (NTKMA)","role":"area"},"geometry":{"type":"Polygon","coordinates":[[[73.8218678597461,19.98735062175046],[73.82286376061812,19.98692221060449],[73.8238406987634,19.98664169942721],[73.82499491884224,19.98637444684486],[73.82558808235652,19.98842334574964],[73.8233437291007,19.98895694692782],[73.82266977188387,19.9890231939469],[73.8218678597461,19.98735062175046]]]}},{"type":"Feature","properties":{"name":"Takali Sangam Ghat - 75465 Sq.m.","sourceFolder":"Holding Areas","source":"Mobility plan Nashik KMZ (NTKMA)","role":"marker"},"geometry":{"type":"Point","coordinates":[73.82337958513214,19.98763038587523]}},{"type":"Feature","properties":{"name":"Nandini Sangam Left Bank -72465 sq.m.","sourceFolder":"Holding Areas","source":"Mobility plan Nashik KMZ (NTKMA)","role":"area"},"geometry":{"type":"Polygon","coordinates":[[[73.8250294468099,19.98939516544563],[73.82545348876432,19.98936586772409],[73.82542854553667,19.98916075954724],[73.82681290902337,19.98869780232571],[73.82751133735616,19.99033279884545],[73.82341429487302,19.99127628379335],[73.82298402735023,19.99002218019347],[73.8250294468099,19.98939516544563]]]}},{"type":"Feature","properties":{"name":"Nandini Sangam Left Bank -72465 sq.m.","sourceFolder":"Holding Areas","source":"Mobility plan Nashik KMZ (NTKMA)","role":"marker"},"geometry":{"type":"Point","coordinates":[73.82520793706546,19.98970575291507]}},{"type":"Feature","properties":{"name":"Holding Area - Lakshminarayan Ghat Left Bank  - 65864 sq.m.","sourceFolder":"Holding Areas","source":"Mobility plan Nashik KMZ (NTKMA)","role":"area"},"geometry":{"type":"Polygon","coordinates":[[[73.79892923575544,20.00276207281808],[73.80070540588537,20.00264738094249],[73.80066818562184,20.00312816676242],[73.80141936722016,20.00312816142283],[73.80149209214117,20.00226798728526],[73.80171320069469,20.00214646877779],[73.80298279946415,20.00223221090351],[73.80294177470034,20.00366791091786],[73.8029446646474,20.00399979797397],[73.80052455384079,20.00425999603331],[73.80046224995094,20.00376887726981],[73.79974037454505,20.00383379951458],[73.7989570481106,20.00379772591573],[73.79892923575544,20.00276207281808]]]}},{"type":"Feature","properties":{"name":"Holding Area - Lakshminarayan Ghat Left Bank  - 65864 sq.m.","sourceFolder":"Holding Areas","source":"Mobility plan Nashik KMZ (NTKMA)","role":"marker"},"geometry":{"type":"Point","coordinates":[73.80088644202381,20.003171616382552]}},{"type":"Feature","properties":{"name":"Holding Area - Nandur Dasak - 69067 sq.m.","sourceFolder":"Holding Areas","source":"Mobility plan Nashik KMZ (NTKMA)","role":"area"},"geometry":{"type":"Polygon","coordinates":[[[73.8412331042156,19.9859337442579],[73.84153506533924,19.98631364212963],[73.84172065272887,19.98654469668457],[73.8418609540308,19.98673492946854],[73.84201291653584,19.9869047342079],[73.84218711580642,19.98721041107761],[73.84229741897285,19.98750383533973],[73.84233467546187,19.9875783626291],[73.84242324508371,19.98781953494743],[73.8425030990853,19.98800076204218],[73.8426327985534,19.98824050666724],[73.84267324578046,19.98831925684359],[73.84295553270377,19.98883200828615],[73.84313918813359,19.98913029798555],[73.84321445915752,19.9892752927382],[73.84319864058868,19.98928440633642],[73.8433865333409,19.98952923621557],[73.84342476025532,19.98959822983613],[73.84363102568223,19.98988367748991],[73.84368527432565,19.9899434529585],[73.84382910019923,19.99004268330854],[73.84389599953225,19.99008138270391],[73.8442457609501,19.99023625577894],[73.84460421155777,19.9902890423522],[73.84465667489579,19.99031666928806],[73.84462542411924,19.99097321443693],[73.84338998286348,19.9908733701445],[73.84338986323235,19.99036922424867],[73.84328316488627,19.99036444710545],[73.84256013280968,19.99024102403373],[73.84254181429517,19.99025518930558],[73.84253732218438,19.99027410693396],[73.84254660064687,19.99028357887568],[73.8425729502701,19.99019144405752],[73.84256617207592,19.98982045334772],[73.84255036460814,19.98948659359215],[73.84197065553023,19.98944727413944],[73.84163989214902,19.98869786079685],[73.84152885549518,19.98817500453521],[73.84131186966736,19.98779857545039],[73.84094529527701,19.98739438319047],[73.84017452304133,19.98673423126955],[73.8412331042156,19.9859337442579]]]}},{"type":"Feature","properties":{"name":"Holding Area - Nandur Dasak - 69067 sq.m.","sourceFolder":"Holding Areas","source":"Mobility plan Nashik KMZ (NTKMA)","role":"marker"},"geometry":{"type":"Point","coordinates":[73.8426662660531,19.988857227239425]}},{"type":"Feature","properties":{"name":"Holding Area trimbak 1","sourceFolder":"Holding Areas","source":"Mobility plan Nashik KMZ (NTKMA)","role":"area"},"geometry":{"type":"Polygon","coordinates":[[[73.54879671055446,19.94707927638201],[73.54959398969025,19.94590663171208],[73.5496690260164,19.94597716779706],[73.54975344178717,19.94606533775823],[73.54984723735265,19.94610942296725],[73.54992227369803,19.94615350805232],[73.5499597919358,19.94617114207866],[73.54998793057615,19.94617995913144],[73.55003482830459,19.946206410089],[73.55009110565759,19.94623286112843],[73.55015676248202,19.94626812901236],[73.55017552152994,19.94629457980145],[73.55023179880158,19.94633866454234],[73.55026931700576,19.94636511539358],[73.55029745564282,19.94639156617528],[73.55036311254008,19.94642683396046],[73.55044752857918,19.94646210173687],[73.5505131855162,19.94648855251179],[73.55054132422042,19.9464885525348],[73.55059760162285,19.94649736946545],[73.55066325860194,19.94650618637548],[73.55068201774462,19.94650618637335],[73.5507382951606,19.94649736945322],[73.55077581345651,19.94651500326292],[73.55079457259059,19.94651500324738],[73.5508320908935,19.94652382009298],[73.55088836837247,19.94655908765498],[73.55088836842197,19.94660317216961],[73.55090712761564,19.9466384397723],[73.55091650722919,19.94665607355569],[73.55093526645183,19.94670015805303],[73.55095402568388,19.9467266087347],[73.5509915441388,19.94678832700116],[73.55101968307957,19.94685004527866],[73.5510572015195,19.94687649592402],[73.55109471990485,19.94687649584351],[73.55112285871051,19.94686767886926],[73.55118851582624,19.94683241107063],[73.55124479338917,19.94681477708763],[73.55129169141246,19.94681477693254],[73.55133858952479,19.94683241058356],[73.55139486720519,19.9468324103689],[73.55140424666462,19.94679714268867],[73.55139486688333,19.94676187508438],[73.55138548711011,19.94672660747777],[73.5513854869595,19.94669133984022],[73.55138548666814,19.94662080454397],[73.55138548656227,19.94659435380801],[73.55138548635608,19.94654145233189],[73.55138548622274,19.94650618466617],[73.5514042453336,19.94647973384998],[73.55145114314074,19.94643564902566],[73.55145114310656,19.94642683211384],[73.5514980409485,19.94639156416982],[73.55152617971669,19.94636511326084],[73.55155431834676,19.94632984538816],[73.55159183649938,19.94628576051701],[73.5516105956101,19.94625930962667],[73.55163873438417,19.94623285866081],[73.5516574933575,19.94619759075655],[73.55170439136329,19.94617113961822],[73.55172315037775,19.94614468868036],[73.5517606686929,19.94610942057503],[73.55179818705379,19.94608296944674],[73.55183570528247,19.94604770135674],[73.55189198291416,19.94602124999959],[73.55192950143015,19.94602124962913],[73.55195764019408,19.94600361538433],[73.55196701957564,19.94595953054531],[73.55197639906702,19.94591544568713],[73.55197639877528,19.94584490997161],[73.55197639860428,19.94580082516948],[73.55197639844194,19.94575674028157],[73.55197639828833,19.94571265544251],[73.55196701846734,19.94566857062613],[73.55196701838526,19.9456421197021],[73.55195763866057,19.94558921794348],[73.5519576385194,19.94553631604306],[73.551948258721,19.94548341408957],[73.5519388790413,19.94543051224031],[73.5519294993769,19.94537761035838],[73.5519294993019,19.94533352533223],[73.55194825838414,19.94530707392751],[73.55196701755035,19.94526298860784],[73.55201391555349,19.94523653691045],[73.55206081359414,19.94521890219847],[73.55212647093761,19.94521008420227],[73.55215460988268,19.94520126674184],[73.55219212833624,19.94520126615697],[73.5522390264594,19.94516599725255],[73.55229530423907,19.94514836222458],[73.55232344334135,19.94513072764475],[73.5523703414831,19.9451219097643],[73.55239848043144,19.94512190925509],[73.55244537883223,19.94511309133211],[73.55249227707185,19.94511309044087],[73.55382421108165,19.94562444850008],[73.55241725545733,19.94722916605264],[73.55154495061429,19.94808441483337],[73.55134797684656,19.94811968294735],[73.54983784845851,19.94777582038487],[73.54918127496336,19.9473526043918],[73.54879671055446,19.94707927638201]]]}},{"type":"Feature","properties":{"name":"Holding Area trimbak 1","sourceFolder":"Holding Areas","source":"Mobility plan Nashik KMZ (NTKMA)","role":"marker"},"geometry":{"type":"Point","coordinates":[73.55125717736819,19.946228662000205]}}]}
