{"type":"FeatureCollection","features":[{"type":"Feature","geometry":{"type":"Point","coordinates":[73.797381,20.007842]},"properties":{"Name":"Vits Hotel Kamat India Ltd","Address":"Opposite Nashik Club,Nashik-pune Highway,Pune Road,Near Nasardi Bridge, Nashik - 422011 (Maharashtra) India","locationConfidence":"approximate"}},{"type":"Feature","geometry":{"type":"Point","coordinates":[73.782081,19.988018]},"properties":{"Name":"Vikrant Residency Hotel","Address":"Old Agra Road,Mumbai Naka,Motkari Wadi Near State Bank Of India Near Mahamarg Bus Stand, Nashik - 422009 (Maharashtra) India","locationConfidence":"locality-match"}},{"type":"Feature","geometry":{"type":"Point","coordinates":[73.59374,19.951944]},"properties":{"Name":"The Status Hotel","Address":"Plot No 7/8/9,Trimbak Road,Satpur,Beside Rohit Petrol Pump,Near Papaya Nursery, Nashik - 422007 (Maharashtra) India","locationConfidence":"locality-match"}},{"type":"Feature","geometry":{"type":"Point","coordinates":[73.774822,19.993485]},"properties":{"Name":"The SSK Solitaire Hotel And Banquets","Address":"Ahilyabai Holkar Marg, Mumbai Naka, Tidke Colony, Nashik - 422002 (Maharashtra) India","locationConfidence":"locality-match"}},{"type":"Feature","geometry":{"type":"Point","coordinates":[73.773181,19.992707]},"properties":{"Name":"The SSK Solitaire Hotel & Banquets","Address":"Ahilyabai Holkar Marg,Tidke Colony, Nashik - 422002 (Maharashtra) India","locationConfidence":"locality-match"}},{"type":"Feature","geometry":{"type":"Point","coordinates":[73.772019,19.958836]},"properties":{"Name":"The Palm Hotels & Restaurants In","Address":"Opp Taj Gateway,Pathardi Rd,Dnyaneshwar Nagar,Pathardi Phata, Nashik - 422010 (Maharashtra) India","locationConfidence":"locality-match"}},{"type":"Feature","geometry":{"type":"Point","coordinates":[73.79699,19.998182]},"properties":{"Name":"The Hotel City Guest House","Address":"Shraddha Complex,Ashok Stambh, Nashik - 422001 (Maharashtra) India","locationConfidence":"approximate"}},{"type":"Feature","geometry":{"type":"Point","coordinates":[73.743737,19.964685]},"properties":{"Name":"The Gateway Hotel","Address":"Plot No 17,Midc,Mumbai Agra Road,Ambad, Nashik - 422010 (Maharashtra) India","locationConfidence":"locality-match"}},{"type":"Feature","geometry":{"type":"Point","coordinates":[73.593624,19.951695]},"properties":{"Name":"The Cloud Hotel And Resorts","Address":"Trimbak Road,Near Jakat Naka,Belgaon Dhaga, Nashik - 422002 (Maharashtra) India","locationConfidence":"locality-match"}},{"type":"Feature","geometry":{"type":"Point","coordinates":[73.741962,19.966761]},"properties":{"Name":"Tapovan Hotel","Address":"P-3,Mumbai Agra Road,Ambad,Midc Near Garvare Circle, Nashik - 422010 (Maharashtra) India","locationConfidence":"locality-match"}},{"type":"Feature","geometry":{"type":"Point","coordinates":[73.77209,19.955751]},"properties":{"Name":"Swiss Traffalgaar Luxury Hotels","Address":"910, Mumbai - Agra Road, Dnyaneshwar Nagar, Pathardi Phata, Nashik - 422009 (Maharashtra) India","locationConfidence":"locality-match"}},{"type":"Feature","geometry":{"type":"Point","coordinates":[73.742411,19.96764]},"properties":{"Name":"Suresh Plaza Hotel","Address":"Ambad Link Road,Ambad,Near Divya Adlabs Cinema Trimurti Chowk, Nashik - 422010 (Maharashtra) India","locationConfidence":"locality-match"}},{"type":"Feature","geometry":{"type":"Point","coordinates":[73.730835,19.989556]},"properties":{"Name":"Suresh P Shinde Hotel Shamsundar","Address":"P 17,Hotel Shyam Sunder,M I D C Satpur Satpur,Trambakeshwar Rd,Midc Area,Satpur Colony, Nashik - 422007 (Maharashtra) India","locationConfidence":"locality-match"}},{"type":"Feature","geometry":{"type":"Point","coordinates":[73.791543,20.009323]},"properties":{"Name":"Supriya Hotel","Address":"723,College Road,Kamaldham, Nashik - 422005 (Maharashtra) India","locationConfidence":"locality-match"}},{"type":"Feature","geometry":{"type":"Point","coordinates":[73.789602,20.012321]},"properties":{"Name":"Sunflower Hotel","Address":"New Agra Road, Nashik - 422001 (Maharashtra) India","locationConfidence":"approximate"}},{"type":"Feature","geometry":{"type":"Point","coordinates":[73.792508,20.007022]},"properties":{"Name":"Sudin Hotel","Address":"Mumbai Agra Road,Panchavati, Nashik - 422003 (Maharashtra) India","locationConfidence":"locality-match"}},{"type":"Feature","geometry":{"type":"Point","coordinates":[73.827934,19.95743]},"properties":{"Name":"Star I Hotel","Address":"Subhash Road And Nashik Road,Near Railway Station, Nashik - 422001 (Maharashtra) India","locationConfidence":"locality-match"}},{"type":"Feature","geometry":{"type":"Point","coordinates":[73.782675,20.004029]},"properties":{"Name":"Stanwood Hotel Private Limited","Address":"Mumbai Agra Road,Opposite Bhujbal Farm Chowk, Nashik - 422009 (Maharashtra) India","locationConfidence":"approximate"}},{"type":"Feature","geometry":{"type":"Point","coordinates":[73.798395,19.991728]},"properties":{"Name":"Singh Palace Hotel","Address":"Plot 811/3752,Tigraniya Road,Dwarka,Near Trator House, Nashik - 422011 (Maharashtra) India","locationConfidence":"locality-match"}},{"type":"Feature","geometry":{"type":"Point","coordinates":[73.731754,19.988108]},"properties":{"Name":"Shreenivas Hotel","Address":"Plot No P-31,Satpur,Midc, Nashik - 422007 (Maharashtra) India","locationConfidence":"locality-match"}},{"type":"Feature","geometry":{"type":"Point","coordinates":[73.847662,20.205055]},"properties":{"Name":"Shiva Hotel","Address":"Dindori Rd,Vadaje Mala,Mhasrul Gaon,Manora,Mhasrul, Nashik - 422004 (Maharashtra) India","locationConfidence":"locality-match"}},{"type":"Feature","geometry":{"type":"Point","coordinates":[73.594948,19.953861]},"properties":{"Name":"Shanti Inn Hotel","Address":"Sr 39/a/7,Nashik Pune Road,Shivaji Nagar,Beside Sakhala Arcade Opposite Inox Cinema Shivaji Nagar, Nashik - 422006 (Maharashtra) India","locationConfidence":"locality-match"}},{"type":"Feature","geometry":{"type":"Point","coordinates":[73.595975,19.953192]},"properties":{"Name":"Seble Hotel Deluxe Pvt Ltd","Address":"Boys Town Road,Trimbak Road,Opposite Trimbak Road, Nashik - 422007 (Maharashtra) India","locationConfidence":"locality-match"}},{"type":"Feature","geometry":{"type":"Point","coordinates":[73.789265,20.02626]},"properties":{"Name":"Sawli Hotel","Address":"At Post Makhmalabad Gaon Matori Toad Gopal Nagar Panchwati,Makhmalabad, Nashik - 422003 (Maharashtra) India","locationConfidence":"locality-match"}},{"type":"Feature","geometry":{"type":"Point","coordinates":[73.783265,19.988806]},"properties":{"Name":"Sandeep Hotel","Address":"102,Old Agra Road,Mumbai Naka,Beside Kalika Temple, Nashik - 422001 (Maharashtra) India","locationConfidence":"locality-match"}},{"type":"Feature","geometry":{"type":"Point","coordinates":[73.761229,19.973314]},"properties":{"Name":"Samarth Hotel","Address":"Cidco,Shivshakti Nagar Trimurti Chowk, Nashik - 422009 (Maharashtra) India","locationConfidence":"locality-match"}},{"type":"Feature","geometry":{"type":"Point","coordinates":[73.797705,19.994174]},"properties":{"Name":"Sai Saya Hotel","Address":"Bhujbal Farm,Mumbai Agra Road, Nashik - 422009 (Maharashtra) India","locationConfidence":"approximate"}},{"type":"Feature","geometry":{"type":"Point","coordinates":[73.779576,19.980433]},"properties":{"Name":"Sai Palace Hotel","Address":"Plot No 904 Sai Palace,Mumbai Agra Road,Ashwini Nagar,Opposite Orchid International School, Nashik - 422009 (Maharashtra) India","locationConfidence":"locality-match"}},{"type":"Feature","geometry":{"type":"Point","coordinates":[73.744217,19.966416]},"properties":{"Name":"Sagar Hotel","Address":"Plot P/21 Aima House,Ambad,Midc, Nashik - 422010 (Maharashtra) India","locationConfidence":"locality-match"}},{"type":"Feature","geometry":{"type":"Point","coordinates":[73.847448,20.203528]},"properties":{"Name":"Rudra Hotel","Address":"Dindori Road,Masrur Shivar,Gaykwad Mala,Nr Jakat Nakat, Nashik - 422001 (Maharashtra) India","locationConfidence":"locality-match"}},{"type":"Feature","geometry":{"type":"Point","coordinates":[73.783199,19.988796]},"properties":{"Name":"Ruchi Hotel","Address":"Kaut Ghat Road,Mumbai Naka,Near Mahamarg, Nashik - 422001 (Maharashtra) India","locationConfidence":"locality-match"}},{"type":"Feature","geometry":{"type":"Point","coordinates":[73.800415,19.993068]},"properties":{"Name":"Ravindra Hotel","Address":"Nasik Pune Road,Next Hotel Kaveri,Wadalanaka,Dwarka, Nashik - 422001 (Maharashtra) India","locationConfidence":"locality-match"}},{"type":"Feature","geometry":{"type":"Point","coordinates":[73.783027,19.998923]},"properties":{"Name":"Quality Inn Regency","Address":"Kshatriya Estate, Pune Road, Shivajinagar, Nashik - 422006 (Maharashtra) India","locationConfidence":"approximate"}},{"type":"Feature","geometry":{"type":"Point","coordinates":[73.787732,20.000506]},"properties":{"Name":"Pushkraj Hotel","Address":"1370-g,Tilak Road,Shalimar Chowk Near Tilakpath, Nashik - 422001 (Maharashtra) India","locationConfidence":"locality-match"}},{"type":"Feature","geometry":{"type":"Point","coordinates":[73.787566,20.00101]},"properties":{"Name":"Pushkaraj Hotels Pvt Ltd","Address":"Survey No 1370 G,Tilak Road,Shalimar Chowk Near Nehru Garden Opposite Nashik Gymkhana, Nashik - 422001 (Maharashtra) India","locationConfidence":"locality-match"}},{"type":"Feature","geometry":{"type":"Point","coordinates":[73.742973,19.967389]},"properties":{"Name":"Pravin Hotel","Address":"Plot Ss/48,Ambad,Midc, Nashik - 422010 (Maharashtra) India","locationConfidence":"locality-match"}},{"type":"Feature","geometry":{"type":"Point","coordinates":[73.592746,19.952936]},"properties":{"Name":"Pooja International Hotel","Address":"Bhagat Palaza,Trimbak Road,Shalimar,Near Thakkar Bus Stand,Opposite Zilla Parishad Office, Nashik - 422001 (Maharashtra) India","locationConfidence":"locality-match"}},{"type":"Feature","geometry":{"type":"Point","coordinates":[73.793612,20.006392]},"properties":{"Name":"Parth Hotel","Address":"Gangapur Ghat,Panchavati Karanja, Nashik - 422003 (Maharashtra) India","locationConfidence":"locality-match"}},{"type":"Feature","geometry":{"type":"Point","coordinates":[73.744705,19.966005]},"properties":{"Name":"Pandurang Hotel","Address":"Plot Ss/75,Ambad,Opp Pranay Stamping Midc, Nashik - 422010 (Maharashtra) India","locationConfidence":"locality-match"}},{"type":"Feature","geometry":{"type":"Point","coordinates":[73.795195,20.004544]},"properties":{"Name":"Panchavati Yatri Hotel","Address":"Plot No 430,M G Road,Panchavati,Chandak Wadi Vakilwadi, Nashik - 422003 (Maharashtra) India","locationConfidence":"locality-match"}},{"type":"Feature","geometry":{"type":"Point","coordinates":[73.592989,19.953576]},"properties":{"Name":"Panchavati Elite Inn Hotel","Address":"Plot No 1 And 2,Trimbak Road,Near Police Training Centre, Nashik - 422002 (Maharashtra) India","locationConfidence":"locality-match"}},{"type":"Feature","geometry":{"type":"Point","coordinates":[73.594511,19.952192]},"properties":{"Name":"Padma Laxmi Hotel","Address":"Trimbak Road,Thakkar Bazar New Cbs, Nashik - 422002 (Maharashtra) India","locationConfidence":"locality-match"}},{"type":"Feature","geometry":{"type":"Point","coordinates":[73.827756,19.95769]},"properties":{"Name":"OYO 4387 Hotel Theem Plaaza","Address":"Near Muktidham Mandir, Nashik Road, Nashik - 422101 (Maharashtra) India","locationConfidence":"locality-match"}},{"type":"Feature","geometry":{"type":"Point","coordinates":[73.828349,19.957712]},"properties":{"Name":"OYO 35803 Sachin Regency","Address":"Laxmi-Balwant Sankul, Jail Road, Near Road, Bytco Point, Nashik Road, Nashik - 422101 (Maharashtra) India","locationConfidence":"locality-match"}},{"type":"Feature","geometry":{"type":"Point","coordinates":[73.772142,19.957283]},"properties":{"Name":"Om Sai Hotel","Address":"Shop No 1 Panini Society,Wasan Nagar,Pathardi Phata,Near Police Quarters, Nashik - 422009 (Maharashtra) India","locationConfidence":"locality-match"}},{"type":"Feature","geometry":{"type":"Point","coordinates":[73.596609,19.951587]},"properties":{"Name":"Nimantran Hotels Pvt Limited","Address":"Nashik Pune Road,Datta Temple Signal Opposite Business Bank, Nashik - 422001 (Maharashtra) India","locationConfidence":"locality-match"}}]}