{"type":"FeatureCollection","features":[{"type":"Feature","geometry":{"type":"Point","coordinates":[73.76197,19.99055]},"properties":{"Name":"Nashik City Centre Mall","Address":"Untwadi Rd, Parijat Nagar","locationConfidence":"verified","Timings":"10:00 AM - 10:00 PM","Known For":"Largest and most popular mall in Nashik, PVR cinema, food court, national brands, family entertainment. Over 40,000 reviews online. (Punnaka)","locationSource":"OpenStreetMap way/1466134492 (shop=mall, landuse=retail, 316x119 m footprint) — centroid; corroborated by Photon geocoder at 19.99056, 73.76143 (57 m away, inside the same footprint)"}},{"type":"Feature","geometry":{"type":"Point","coordinates":[73.758596,19.995539]},"properties":{"Name":"Muhurat Shopping Mall","Address":"Lavate Nagar, Parijat Nagar","locationConfidence":"locality-match","Timings":"10:30 AM - 10:00 PM","Known For":"Modern shopping complex near City Centre, clothing stores, cafes, daily shopping."}},{"type":"Feature","geometry":{"type":"Point","coordinates":[73.790999,20.008881]},"properties":{"Name":"Shraddha Mall: Shopping Centre In Nashik","Address":"College Road, Ramdas Colony","locationConfidence":"locality-match","Timings":"9:00 AM - 10:00 PM","Known For":"Popular among students due to proximity to colleges, fashion stores and local brands. (Punnaka)"}},{"type":"Feature","geometry":{"type":"Point","coordinates":[73.829324,19.956726]},"properties":{"Name":"Star Zone Mall","Address":"Nashik Road, Viraj Corner","locationConfidence":"locality-match","Timings":"10:00 AM - 9:30 PM","Known For":"Main shopping destination on the Nashik Road side of the city."}},{"type":"Feature","geometry":{"type":"Point","coordinates":[73.78101,19.9966]},"properties":{"Name":"Pinnacle Mall","Address":"Trimbak Naka","locationConfidence":"verified","Timings":"11:00 AM - 10:00 PM","Known For":"Large mall with shopping, dining and entertainment facilities. One of Nashik's major malls. (Punnaka)","locationSource":"OpenStreetMap (shop=mall) — corroborated by Nominatim, which returned the same point"}},{"type":"Feature","geometry":{"type":"Point","coordinates":[73.771046,19.956055]},"properties":{"Name":"Atlanta Shoppers Mall","Address":"Pathardi Phata","locationConfidence":"locality-match","Timings":"9:00 AM - 8:30 PM","Known For":"Outlet-style shopping complex with local businesses."}},{"type":"Feature","geometry":{"type":"Point","coordinates":[73.754408,20.016131]},"properties":{"Name":"BOSCO CENTER","Address":"Gangapur Road","locationConfidence":"locality-match","Timings":"9:00 AM - 9:00 PM","Known For":"Small shopping centre with restaurants, offices and retail stores."}},{"type":"Feature","geometry":{"type":"Point","coordinates":[73.791256,20.008926]},"properties":{"Name":"SK Mall","Address":"College Road","locationConfidence":"locality-match","Timings":"10:00 AM - 9:00 PM","Known For":"Local shopping complex near educational institutions."}},{"type":"Feature","geometry":{"type":"Point","coordinates":[73.829612,19.958482]},"properties":{"Name":"CITI ARCADE","Address":"Jail Road, Nashik Road","locationConfidence":"locality-match","Timings":"8:00 AM - 9:00 PM","Known For":"Mixed-use shopping centre with grocery, services and retail outlets. (Yappe)"}},{"type":"Feature","geometry":{"type":"Point","coordinates":[73.789608,19.995108]},"properties":{"Name":"Anand Mall","Address":"Jail Road","locationConfidence":"approximate","Timings":"10:00 AM - 9:00 PM","Known For":"Neighborhood shopping complex serving Nashik Road area."}},{"type":"Feature","geometry":{"type":"Point","coordinates":[73.787458,20.00206]},"properties":{"Name":"Rajdhani super mall","Address":"Shalimar","locationConfidence":"locality-match","Timings":"6:00 AM - 9:00 PM","Known For":"Traditional shopping centre in the old city area."}}]}
