{"type":"FeatureCollection","features":[{"type":"Feature","properties":{"name":"Proposed Dugaon outer parking distance","stroke":"#ff0000","stroke-opacity":1,"stroke-width":5,"sourceFolder":"Routes / Movement / Gangapur road","source":"Mobility plan Nashik KMZ (NTKMA)"},"geometry":{"type":"LineString","coordinates":[[73.6634502391961,20.07133871543555],[73.66459514030205,20.07137789446955],[73.66662156347684,20.07114834565264],[73.67073864801092,20.07088280225746],[73.67287103004116,20.07074471770273],[73.67856266372446,20.0703516938771],[73.68035910872334,20.07022347142839],[73.68226894582095,20.07017701472027],[73.68322760771325,20.07006151046941],[73.68357775637963,20.06988960381795],[73.68391067430738,20.06947217291128],[73.68404061719176,20.06876077176502],[73.68408645366364,20.06806561604599],[73.68403984524043,20.06730698932445],[73.68358771627055,20.06522429576022],[73.68321593738983,20.06357539671986],[73.68302771301046,20.06271284749706],[73.6828224010919,20.06175089961388],[73.68273865636964,20.06144660452487],[73.68273420430491,20.06090380839395],[73.68282310255628,20.06012667347574],[73.68318173212766,20.05861104725795],[73.68393788887069,20.05534759726696],[73.68447210622682,20.05304903854336],[73.68514719816778,20.05010551139443],[73.68590448280268,20.04676813362822],[73.68617798706792,20.04619737724511],[73.68680655424524,20.04507721153783],[73.68828818903947,20.04249468521827],[73.68851240177499,20.0420603375827],[73.68872489703611,20.04149981242053],[73.688954101292,20.04007544431029],[73.68919652572718,20.03795592825946],[73.68930980931673,20.03668158871985],[73.68933084483045,20.03401947809273],[73.68937093143025,20.03368460460849],[73.68959566616161,20.03351254134457],[73.68987312817812,20.03346897879948],[73.6907124444535,20.03333056900848],[73.69244677672022,20.03306957614411],[73.69544558402691,20.03255468365341],[73.69746050670176,20.03217025556191],[73.69893285534062,20.03186555547532],[73.6999445358481,20.0316396454587],[73.70040818130059,20.0312223635996],[73.70097044858232,20.03049506224631],[73.70166323108096,20.0300546480251],[73.70235315814939,20.02980962153385],[73.70305593132628,20.02972715071949],[73.70448318157109,20.02952661652342],[73.70609591209461,20.02934283131764],[73.70768009392523,20.02924099532619],[73.70937025919876,20.02931194158785],[73.71090736082887,20.02951553359718],[73.71287179665626,20.02984080735755],[73.71390223340394,20.03000978871891],[73.71445636834066,20.03007892937829],[73.71496806212224,20.03013883020693],[73.71560589903493,20.03001695821055],[73.71635326357413,20.02975527552255],[73.7164992893279,20.02980539899719],[73.71692871228177,20.02978980969332],[73.71757443108277,20.02981941316362],[73.71763126332168,20.02985998834956],[73.71780937146534,20.02989045857679],[73.71817697939434,20.03006159252837]]}},{"type":"Feature","properties":{"name":"Ramshej Parking distance","stroke":"#ff0000","stroke-opacity":1,"stroke-width":5,"sourceFolder":"Routes / Movement / Peth road","source":"Mobility plan Nashik KMZ (NTKMA)"},"geometry":{"type":"LineString","coordinates":[[73.75851869455866,20.12915927560327],[73.75881394376995,20.12866577153982],[73.7592596349048,20.12824462605182],[73.75980697225296,20.12789503878758],[73.76048258035854,20.12750216597487],[73.76110628389192,20.12712020135413],[73.76177282442275,20.12676689725937],[73.7623112731521,20.12650033786318],[73.76265079982387,20.12629213609139],[73.7629340107732,20.12595449145493],[73.7630348937783,20.12563117030849],[73.76303446827858,20.12535061130925],[73.76286840792966,20.12496419176953],[73.76264146551216,20.12450788178293],[73.76239405637814,20.12388694334247],[73.76226122037095,20.12349691919017],[73.76221838087324,20.12295927136886],[73.76221635854606,20.12293902035536],[73.7621952935561,20.12252147186457],[73.76217749393071,20.12153856023927],[73.76225159263971,20.12114962290241],[73.76236114243699,20.12041180023424],[73.76249227340618,20.11997407243178],[73.76271933832633,20.11933572257725],[73.7628868332253,20.11884397208067],[73.76290225820146,20.1184575983261],[73.76264696045597,20.11744374276045],[73.76262893327794,20.11704912511101],[73.76265944192241,20.1166625966531],[73.76266613223517,20.11613266455586],[73.76267466568427,20.11569450184063],[73.76261355967608,20.11526696034416],[73.76257203946305,20.11468479309348],[73.76258855420778,20.11412252261474],[73.76264593037337,20.1135073928238],[73.7629270441483,20.11244167049198],[73.76403680585635,20.10837353475755],[73.76456312957238,20.10739976722782],[73.76510778535679,20.10659398405771],[73.76589365172144,20.10537802363302],[73.76689907471373,20.10453254889141],[73.76793187808438,20.10394304128954],[73.76871870651082,20.10286821052896],[73.7696186633734,20.10178518068254],[73.77047461130161,20.10072543046284],[73.77099339033268,20.09997499167558],[73.77135399696829,20.09930350827587],[73.77181493900467,20.09776365963453],[73.77218721705964,20.09686356331879],[73.772647174147,20.09603245438017],[73.77337133399121,20.09456338986161],[73.77386406103724,20.093556326027],[73.77424547081958,20.09274492251408],[73.77441384129179,20.09245959696038],[73.7747695893099,20.09193764536016],[73.77540690221666,20.0912662019738],[73.77565307374284,20.0907473346882],[73.77610240166237,20.08929094863174],[73.77646106616933,20.08809950333601],[73.77733200189255,20.08528767227408],[73.77756283001834,20.08469098201117],[73.77771296752562,20.08436684084208],[73.777863691858,20.08423581451115],[73.7788370362983,20.08276748402544],[73.77959139712524,20.08133463734629],[73.77974773365956,20.08034388015419],[73.78008541143109,20.0783612487806],[73.78031637277833,20.07724479772777],[73.78023931173371,20.07647798222008],[73.77980594419107,20.07577940496218],[73.77911758155318,20.07485247543697],[73.77879952121047,20.07434379237801],[73.77860083462336,20.0737090643193],[73.77860986548515,20.07294535889445],[73.77887486461977,20.07157589602895],[73.77924530628667,20.07023721965636],[73.77983922718646,20.06888678358996],[73.78044756128794,20.06716310537067],[73.78108015965995,20.06541054545653],[73.78164421920114,20.06414864952287],[73.78241548761832,20.06281464609694],[73.78388080136224,20.06032520298742],[73.784961724577,20.0584155621937],[73.78597612075781,20.05672405210822],[73.78725588099425,20.05455760075411],[73.78870641592476,20.05200409470613],[73.79014657927308,20.0494981742904],[73.79094173477613,20.04805851104078],[73.79192830764563,20.04644423681262]]}},{"type":"Feature","properties":{"name":"OUT ROUTE","stroke":"#0000ff","stroke-opacity":1,"stroke-width":5,"sourceFolder":"Routes / Movement / Dindori road","source":"Mobility plan Nashik KMZ (NTKMA)"},"geometry":{"type":"LineString","coordinates":[[73.77737586468399,20.04645510813701],[73.77762854011212,20.04620402110568],[73.77796080954484,20.04581778050515],[73.7782455480321,20.04548323084612],[73.77849842863382,20.0450751488826],[73.77869445757467,20.04461666615158],[73.77885087711654,20.04400119652966],[73.77908040394952,20.04365674851682],[73.77926132209745,20.04330489173059],[73.77954412252674,20.04285894345293],[73.77963934276622,20.04270111286248],[73.77942429891189,20.0426356929537],[73.77893952291505,20.0426642492277],[73.77811169570329,20.04273820172103],[73.77777987442727,20.04272995174822],[73.77728635417112,20.04272995656502],[73.77681835542857,20.04274234455258],[73.77615925010736,20.04282128425818],[73.77618105349241,20.04352232135882],[73.77312311874597,20.04360540509713],[73.77197851360961,20.04359772499475],[73.77191685558317,20.04333409397139],[73.77183356911111,20.04297005045019],[73.77179908360333,20.04287660954409],[73.77180820455928,20.04212736866998],[73.77177881682195,20.04145308621936],[73.77168352454099,20.04077856312172],[73.77147069973529,20.03920707850807],[73.77134493657049,20.03849021183069],[73.77118728107938,20.03772480572761],[73.77112030403086,20.03750273756086],[73.77091540620339,20.03695191184805],[73.77067366619947,20.0365605119872],[73.77047467805221,20.0362094859931],[73.77013167400015,20.03587958366712],[73.7700635907327,20.03571157458158],[73.77001282414564,20.03529592400225],[73.76997830585033,20.0348727262336],[73.76995315132872,20.03456613850442],[73.76988638440348,20.03415983206387],[73.76983767716382,20.03385090156633],[73.76974188246395,20.03362047552964],[73.76965980042598,20.03324330334216],[73.76966181689984,20.03305867057549],[73.76963191730768,20.0326803658172],[73.76960696938839,20.03214944603799],[73.7696226562355,20.0317480669568],[73.76963450747175,20.03128633553748],[73.76963939683428,20.03043787476649],[73.76963903404524,20.02948345772217],[73.76961276454853,20.02870710300574],[73.76963573556637,20.0280326465054],[73.76945668102452,20.02748689258525],[73.76931141145876,20.02695183325056],[73.76923217594937,20.02661798907805],[73.76918074550846,20.02614495887049],[73.76911292737809,20.02560682773891],[73.76902081774962,20.02510383015125],[73.76895048489145,20.02475160670959],[73.7689137568684,20.0242847072049],[73.76889662965311,20.02384072719862],[73.76878338169153,20.02341246959731],[73.7678483121215,20.02352119014125],[73.76702569127686,20.02354018550475],[73.76645826901503,20.02353240639347],[73.76429821461535,20.02362257578366],[73.76192017789523,20.02390068814917],[73.76027116046599,20.02395233583276],[73.75938307934105,20.02385820857039],[73.75864010642718,20.0236676593657],[73.7572707267049,20.02328765252292],[73.7566483755763,20.02311328530039],[73.75588733437415,20.02278409992148],[73.75553637863727,20.02263846093237],[73.75541534942623,20.02252311973281],[73.75530474591697,20.0224248945057],[73.75522446339139,20.02229906594587],[73.75476847100626,20.02226752852561],[73.75264623546194,20.02209972643043],[73.75199965386606,20.02202171402621],[73.75176963567826,20.02199402048579],[73.75143757877017,20.02194896112571]]}},{"type":"Feature","properties":{"name":"Dindori road - Bus movement ( Police Dept.)","stroke":"#ff0000","stroke-opacity":1,"stroke-width":5,"sourceFolder":"Routes / Movement / Dindori road","source":"Mobility plan Nashik KMZ (NTKMA)"},"geometry":{"type":"LineString","coordinates":[[73.80588564345993,20.0927202445653],[73.80535379304096,20.08988474881289],[73.80469928398307,20.08597296778688],[73.80433378238088,20.08372644012819],[73.80416406824928,20.0828346049649],[73.80401943422576,20.08172220652052],[73.80408198483043,20.08113124265304],[73.80418250777356,20.08045928419248],[73.80442805516361,20.07996191080862],[73.80478471485237,20.07937604816709],[73.80508305782939,20.0789751465577],[73.80528645666656,20.07810542393252],[73.80538132153377,20.07751746805351],[73.80534777376296,20.0763856988943],[73.80543122319155,20.07581879130371],[73.80556768420405,20.07487839293777],[73.80578051033994,20.07387121127403],[73.80596029368539,20.07323161766456],[73.80602329812156,20.07268350315269],[73.80599381777066,20.07213227042918],[73.80592725950073,20.07166996269886],[73.8058620912114,20.07110669519177],[73.80581762379704,20.07068693322529],[73.80582814739282,20.07039584894572],[73.80601486244674,20.06979516372984],[73.80618803391772,20.06926404586158],[73.8061861127382,20.06896467742732],[73.80612403148193,20.06859428317197],[73.80595128899989,20.06819787094893],[73.80583688284018,20.06792951699698],[73.8057682384789,20.06771779021571],[73.80572938256071,20.06750047044969],[73.80567924649381,20.0670035874599],[73.80565062396168,20.06648584888341],[73.80557863745541,20.06577591550381],[73.80553485452654,20.06514730733976],[73.8054934380817,20.06305055945635],[73.80559861117652,20.06198964743622],[73.80560655357239,20.06120872836154],[73.80567315130128,20.06031075472013],[73.80575335733214,20.05928904803619],[73.80574507958507,20.05821791964115],[73.80577591983176,20.05693205740371],[73.80570381977309,20.0559990074956],[73.80563027168628,20.05507824611197],[73.8055062345277,20.05446412028381],[73.80540488891116,20.0542286786586],[73.8053233578681,20.05401575083267],[73.80523789011713,20.05363775903726],[73.8051041558341,20.05337732230263],[73.8049731369133,20.05299921410836],[73.80491970994177,20.05278674926364],[73.80501107088948,20.05236489643865],[73.80531273336312,20.05165916350253],[73.80580386834683,20.05040039014184]]}},{"type":"Feature","properties":{"name":"pedestrian","stroke":"#38a800","stroke-opacity":1,"stroke-width":5,"sourceFolder":"Routes / Movement / Dindori road","source":"Mobility plan Nashik KMZ (NTKMA)"},"geometry":{"type":"LineString","coordinates":[[73.73648941838455,20.04063407240472],[73.73657647281114,20.03923137456785],[73.73668322448512,20.03839854216192],[73.7367317318269,20.03817923401436],[73.73682663258185,20.0380724940371],[73.73709235329439,20.03791314936343],[73.7373989862173,20.03769626147543],[73.73763479377773,20.03752868039912],[73.73784519701057,20.03741804292677],[73.73810159687677,20.03730737495959],[73.7383583106024,20.03710380861668],[73.73861947526922,20.03689203495146],[73.73881504354227,20.03672961063614],[73.73903950012792,20.03655787353256],[73.73911759361766,20.03649622559631],[73.73929960216064,20.03613857371056],[73.7396479654419,20.03507429089178],[73.73994532653728,20.03440815529084],[73.74032145362361,20.0336891669774],[73.74075761845343,20.03282531272329],[73.74129235932074,20.03182904313966],[73.74154074623311,20.0313161601807],[73.74204325568269,20.03029134430426],[73.74239022179059,20.02955564633931],[73.74250865933246,20.02929604228399],[73.74268120288808,20.02891138967574],[73.742836308589,20.02857146228071],[73.74296990340086,20.02815638387571],[73.74302791154673,20.02790758932547],[73.7430650790312,20.02765232760875],[73.7431660724081,20.02664007719591],[73.74328644916334,20.02510797173795],[73.7433596266427,20.02428794963553],[73.7434861561825,20.02341140269819],[73.74351803814906,20.02310597272709],[73.74361262655118,20.0224381959396],[73.74365170272742,20.02197442462962],[73.74366694819169,20.02176379133578],[73.74401646559109,20.02157582847484],[73.7443823171161,20.02135418422163],[73.74479856108465,20.02098252931129],[73.74540470313967,20.02033997956538],[73.74578682227516,20.01987948788743],[73.74596762829479,20.01952367006783],[73.74608388040622,20.01939291232446]]}},{"type":"Feature","properties":{"name":"anandwali ghat road","stroke":"#ff0000","stroke-opacity":1,"stroke-width":5,"sourceFolder":"Routes / Movement / Dindori road","source":"Mobility plan Nashik KMZ (NTKMA)"},"geometry":{"type":"LineString","coordinates":[[73.7364704386864,20.04041768234374],[73.7363812071307,20.04191497691356],[73.73634668205871,20.04385749939209],[73.72883024772257,20.04574162246699],[73.7290990945384,20.04818584529077],[73.72930529190148,20.04959688006605],[73.7295462416022,20.05064064161051],[73.72925683799974,20.05122986078953],[73.72862621853766,20.05149556837826],[73.72784860607679,20.0516943741311],[73.72702861947597,20.0520431158075],[73.72688739470998,20.05239542255186],[73.72867363841644,20.05297012081316],[73.73023787084203,20.05356759365066],[73.73213601006775,20.05441160493769],[73.73325292244729,20.05457931831655],[73.73514370927705,20.0542522002486],[73.7375801235972,20.05378545208973],[73.73846773005195,20.05375830140834],[73.74220660415077,20.0543316970135],[73.74446086927634,20.05427892174174],[73.74530923874313,20.05456441973542],[73.74668335170645,20.05519839631223],[73.74831282808803,20.0561297512893],[73.7499673725264,20.0561980275779],[73.75149643061181,20.05602516608365],[73.75242066221324,20.05583858808229],[73.75326264631094,20.05526376319113],[73.75466191023627,20.0544891932423],[73.75606016592167,20.05384998307242],[73.75765070952411,20.05331114283646],[73.75972588430845,20.0527488737934],[73.76214472264668,20.05199905733519],[73.76260829702113,20.05174952469716],[73.76367300869364,20.05126027283079],[73.76498314191565,20.05076713332841],[73.76586000114128,20.05044563656282],[73.76701046767377,20.0499726656216],[73.76785757550638,20.04953822944563],[73.7691109480826,20.04917947191969],[73.77002013089998,20.0486251605338],[73.77135800767871,20.04790235521297],[73.77195802271957,20.04768069140385],[73.77265531173138,20.04787199543531],[73.77334980535146,20.04784775587419],[73.77411478168526,20.04769736264246],[73.7751923591602,20.04729571455772],[73.77629127386531,20.04688263816075],[73.77719167350445,20.04651680611251],[73.77752021243874,20.0464140785728],[73.77808584873105,20.04624013897964],[73.77808518468512,20.04623401074999],[73.77908644474631,20.04591436469106],[73.78129897270098,20.04598047502474],[73.78396451188826,20.04606384936279],[73.78715001107906,20.04620321793052],[73.78891064977391,20.0462725933594],[73.79051920536438,20.04634149095759],[73.79051572130003,20.04632787770837],[73.79182525620548,20.04641854261799],[73.79379956710733,20.04698501647989],[73.79676310994923,20.04783929610106],[73.79952467626885,20.04867667980004],[73.80183649520845,20.04920574528131],[73.80323942873488,20.04963748605887],[73.80471806073704,20.05006159355462],[73.80580355635634,20.05040277243816]]}},{"type":"Feature","properties":{"name":"Entry route","stroke":"#38a800","stroke-opacity":1,"stroke-width":5,"fill":"#ff5454","fill-opacity":0.698,"sourceFolder":"Routes / Movement / Dhule road","source":"Mobility plan Nashik KMZ (NTKMA)"},"geometry":{"type":"LineString","coordinates":[[73.82646332755616,19.98871605875712],[73.82718689983601,19.98862914988934],[73.82772779496683,19.98853100987733],[73.82846712995763,19.98835618887419],[73.82931820104703,19.98813283653813],[73.82968939008352,19.98802327471589],[73.82990406852791,19.98905664263685],[73.83001333244655,19.98958060060723],[73.83008767024529,19.99019285681599],[73.83081836002533,19.99564614723612],[73.83088426767388,19.99621847189696],[73.83087985318181,19.99668857790337],[73.83087176706252,19.99743804978788],[73.83090587359689,19.99797532889485],[73.83093413653495,19.99834231746109],[73.83095386432161,19.99852296493933],[73.83105000279116,19.99930505204979],[73.83117989041193,20.00037041572304],[73.83139005336726,20.00214143134977],[73.8314336015061,20.00258958600324],[73.83149798782941,20.00397851180944],[73.83160333536561,20.00564276098597],[73.83178980510037,20.00814624020233],[73.83193237890072,20.00982294777122],[73.83198942773379,20.01242361363573]]}},{"type":"Feature","properties":{"name":"Yuva festival ground - ghat route","stroke":"#5500ff","stroke-opacity":1,"stroke-width":5,"sourceFolder":"Routes / Movement / Dhule road","source":"Mobility plan Nashik KMZ (NTKMA)"},"geometry":{"type":"LineString","coordinates":[[73.82279986948875,19.98992393867556],[73.82319875320543,19.9910190630222],[73.82394420306339,19.99513639439353],[73.82593966922686,19.99491469635534],[73.82783264089487,19.99472747578249],[73.82976402356648,19.99493494160451],[73.83065690284718,19.99499626555934],[73.8308251834723,19.99648057482252],[73.83078202801244,19.99735496886902],[73.83090876524697,19.99884466649051],[73.83111966688593,20.0005863979458],[73.83130295767587,20.00226405454917],[73.83192196444995,20.01246599366882]]}},{"type":"Feature","properties":{"name":"Adgaon Bus Terminal - Yuva Festival ground route (option1)","stroke":"#5500ff","stroke-opacity":1,"stroke-width":5,"sourceFolder":"Routes / Movement / Dhule road","source":"Mobility plan Nashik KMZ (NTKMA)"},"geometry":{"type":"LineString","coordinates":[[73.88964009265669,20.0611370852415],[73.88769084610767,20.05892475142278],[73.88570118308826,20.05697335873131],[73.88244260666275,20.05349321457145],[73.8806445166236,20.051384214207],[73.8792211519434,20.0499854330192],[73.87790794611323,20.04859031892957],[73.87686622311676,20.0473889956166],[73.87068037755256,20.04075070911721],[73.86951438597971,20.03972823868648],[73.86800771935111,20.03871626388419],[73.86772211596391,20.03849960930129],[73.86637260435546,20.0376917972286],[73.86571111748042,20.03725006456752],[73.8649576598172,20.03676443110107],[73.86351108221054,20.03582792105876],[73.86112388247288,20.03416443690507],[73.85942590035096,20.03291629181299],[73.85777688225107,20.03174773108222],[73.85600273809816,20.03052270705886],[73.85563429319033,20.0303594269023],[73.85405501302851,20.02971538149331],[73.85104723722715,20.0286445483842],[73.85035786662169,20.0284367415323],[73.84916406068042,20.02799120667763],[73.84673403778376,20.02725243840819],[73.84529614077724,20.0268340143997],[73.8439737103391,20.02642508389405],[73.84263056370605,20.02591788740972],[73.84185716851934,20.02556758284684],[73.84099965838891,20.0251208575105],[73.83984420754737,20.02441441547546],[73.838713375412,20.02374187494431],[73.83747065865253,20.02303038667757],[73.83693216901644,20.02274433935424],[73.83502803242844,20.02158643923738],[73.83371620426186,20.02078977954996],[73.83229910090955,20.0199135347875],[73.83158585735691,20.01949882715219],[73.8318478786201,20.01853590617032],[73.83188703253136,20.0181965639898],[73.8319318484138,20.01774552328994],[73.83191187243443,20.01695927409363],[73.83195145449618,20.01622158999591],[73.83198840348625,20.01546933524064],[73.8320208488335,20.01467990358456]]}},{"type":"Feature","properties":{"name":"Adgaon Bus Terminal - Yuva Festival ground route (option1)","stroke":"#ff0000","stroke-opacity":1,"stroke-width":5,"sourceFolder":"Routes / Movement / Dhule road","source":"Mobility plan Nashik KMZ (NTKMA)"},"geometry":{"type":"LineString","coordinates":[[73.8899318778997,20.0610319192363],[73.88807654977799,20.05902296782289],[73.88720613242972,20.05814745176866],[73.88643668244912,20.05745553153983],[73.8854068514671,20.05638885430655],[73.8843947686662,20.05531879435837],[73.88304151908099,20.05388667057218],[73.88238481415023,20.05316692061188],[73.8814573369073,20.05198049737294],[73.88060025237655,20.05101581392969],[73.8792491602247,20.04975225125775],[73.8779472399033,20.04834784036917],[73.87702219455768,20.0473095037594],[73.87674261936456,20.04701556375485],[73.87517762743519,20.0453283396199],[73.87320147177081,20.04318966951121],[73.87129375984532,20.04107338259865],[73.87069430181818,20.04040794890705],[73.86987522865337,20.03971879646674],[73.86775976267748,20.03838663193381],[73.86660089133929,20.03760995302725],[73.86623104637009,20.03738153357502],[73.86499778711968,20.03660017490802],[73.86356420859349,20.03559008504997],[73.86139969411194,20.03409041319444],[73.85923862066852,20.03249477026784],[73.85572459950698,20.03019733542002],[73.8541613131486,20.0295684650251],[73.85125107724829,20.02853158329291],[73.85043137054085,20.02824487071648],[73.84919694293039,20.0278474408213],[73.84672945455051,20.02706324335758],[73.84535258009456,20.02672566873904],[73.84409282745258,20.02623855767031],[73.84275931629115,20.02577163719683],[73.84213803504747,20.02548888846368],[73.84214269249162,20.0250631148769],[73.84216780292115,20.02415350538907],[73.84218271267197,20.02360565262333],[73.84242417278885,20.02215513683032],[73.84262653458214,20.02112140880645],[73.84273651746093,20.02070239814907],[73.84289954473948,20.01958280663575],[73.84302830535702,20.01880743536223],[73.84311801011833,20.017210731846],[73.84325098952567,20.01598910159569],[73.84337177879493,20.01537571588618],[73.84360673316198,20.01451094510747],[73.84387884432289,20.01340374763038],[73.84248924453978,20.0134783786494],[73.8396219559991,20.01386660837024],[73.83694658832711,20.01426922448817],[73.8368012368603,20.01421241468896]]}},{"type":"Feature","properties":{"name":"Inner to ghat (Sambhajinagar road)","stroke":"#5500ff","stroke-opacity":1,"stroke-width":5,"sourceFolder":"Routes / Movement / Ch. Sambhajinagar road","source":"Mobility plan Nashik KMZ (NTKMA)"},"geometry":{"type":"LineString","coordinates":[[73.86459672731854,19.99971220736503],[73.86453314917915,19.99985002872524],[73.8636414346213,19.99977931455195],[73.86226112412086,19.99967774200979],[73.86096096957463,19.99958877789887],[73.85967461125037,19.99947741340763],[73.8577871423901,19.99912056869793],[73.85685500230724,19.99899075445981],[73.85519628400287,19.99866716742831],[73.85336289464567,19.99845517389143],[73.85163401161103,19.99834226979426],[73.85067307137192,19.9981774886994],[73.84957314298715,19.997878566755],[73.84853094764573,19.9977167724232],[73.84712756748291,19.99750702991252],[73.84544515515745,19.99725657771354],[73.8441911157124,19.99700838711997],[73.84394939987884,19.99682483130722],[73.84393582459003,19.99651755379465],[73.84390967874222,19.99607135239734],[73.84387265081394,19.99549196103971],[73.84383609959643,19.99468082548894],[73.84390917597139,19.99366592165747],[73.84408456921113,19.9928829809674],[73.8444535275403,19.99227690204667],[73.84478208943351,19.99182930409315],[73.84501205398507,19.99158334518742],[73.84550311630528,19.99122437431702],[73.84577541752424,19.99090488399873],[73.84587983129487,19.99048393279134],[73.84643346986854,19.99011027775142],[73.84639716106746,19.98992360208122]]}},{"type":"Feature","properties":{"name":"Pedestrian movement - Police Dept.","stroke":"#38a800","stroke-opacity":1,"stroke-width":5,"fill":"#ff5454","fill-opacity":0.698,"sourceFolder":"Routes / Movement / Ch. Sambhajinagar road","source":"Mobility plan Nashik KMZ (NTKMA)"},"geometry":{"type":"LineString","coordinates":[[73.86444792003263,19.99978494743336],[73.86286264731244,19.99965174119714],[73.86167050412107,19.99957345614789],[73.86082684034099,19.99950074269145],[73.85964551835772,19.99940296615743],[73.85810195948011,19.99910920688792],[73.85705118870827,19.99895752209846],[73.85570494256999,19.99871448485397],[73.85518332173142,19.99859671365144],[73.85395430086055,19.99842553835511],[73.85334718656927,19.99837435083699],[73.852526257461,19.99832375930535],[73.85129871433396,19.99822142979721],[73.85063624451978,19.9981076623605],[73.8501375889706,19.99795155307093],[73.84974500265461,19.99771820460297],[73.84818897632489,19.99760607925472],[73.84672881177308,19.99730180730198],[73.84457354313918,19.99692854836704],[73.84338603882541,19.99662529183204],[73.8423020835659,19.99662502116078],[73.84107160145936,19.99688382459393],[73.84003177398225,19.99727258642104],[73.84028935868444,19.99568733899384],[73.8404387387312,19.99316888563789],[73.840984575344,19.98979451382436],[73.84211166913498,19.98674438053463]]}},{"type":"Feature","properties":{"name":"Pedestrian movement - Police Dept.","stroke":"#38a800","stroke-opacity":1,"stroke-width":5,"fill":"#ff5454","fill-opacity":0.698,"sourceFolder":"Routes / Movement / Ch. Sambhajinagar road","source":"Mobility plan Nashik KMZ (NTKMA)"},"geometry":{"type":"LineString","coordinates":[[73.86444792003263,19.99978494743336],[73.86286264731244,19.99965174119714],[73.86167050412107,19.99957345614789],[73.86082684034099,19.99950074269145],[73.85964551835772,19.99940296615743],[73.85810195948011,19.99910920688792],[73.85705118870827,19.99895752209846],[73.85570494256999,19.99871448485397],[73.85518332173142,19.99859671365144],[73.85395430086055,19.99842553835511],[73.85334718656927,19.99837435083699],[73.852526257461,19.99832375930535],[73.85129871433396,19.99822142979721],[73.85063624451978,19.9981076623605],[73.8501375889706,19.99795155307093],[73.84974500265461,19.99771820460297],[73.84971441502422,19.99739223352829],[73.84971698532762,19.99697636661611],[73.84971404512588,19.99671222672385],[73.84967537899458,19.99631076874541],[73.84961871039906,19.9959174481705],[73.84962225745909,19.99578945651393],[73.8496763187625,19.99518990214739],[73.84970638469403,19.99482767012191],[73.849663435506,19.99449238743518],[73.84962221810595,19.99412996572225],[73.84952481371185,19.99384021918581],[73.84934232813679,19.99359832495223],[73.84920921331103,19.9932681919881],[73.84920413467924,19.99281293054279],[73.8491930827272,19.99250770594221],[73.84924188707166,19.99204970389665],[73.84885148680698,19.99184626473513],[73.84861482942709,19.99171781844413],[73.84861943177225,19.99143671276341],[73.84841694024675,19.99139932591601],[73.84836384585397,19.9912550128386],[73.84838130067975,19.99096624721057],[73.84827019121208,19.99090231561504],[73.84815691551802,19.99069626330356],[73.84771313926154,19.9904246369425],[73.84732950606059,19.99024175621228],[73.84701881179072,19.99013744786082],[73.84702835203059,19.99001189790953]]}},{"type":"Feature","properties":{"name":"Revised pedestrian route","stroke":"#5500ff","stroke-opacity":1,"stroke-width":5,"sourceFolder":"Routes / Movement / Ch. Sambhajinagar road","source":"Mobility plan Nashik KMZ (NTKMA)"},"geometry":{"type":"LineString","coordinates":[[73.91897636715429,19.99847669992485],[73.9179664619764,19.99792881849692],[73.91723714032831,19.99758176915603],[73.91685200196177,19.99747765862698],[73.91631947938218,19.99738110001313],[73.91525893671283,19.99738375547336],[73.9141424670841,19.99750706515804],[73.91327434600069,19.99767951971022],[73.9123627053392,19.99800881914802],[73.9116908330733,19.99823624210478],[73.91101669507903,19.99830942956139],[73.9104708035265,19.99814474986026],[73.91045071629935,19.99814997299595],[73.90958484381578,19.99778837259441],[73.90834276271599,19.99736747144827],[73.90808423663141,19.99726818247689],[73.90760419043065,19.99714170438166],[73.90610633300548,19.99716342424032],[73.90537675392291,19.99713156515035],[73.90464592829429,19.99704388046267],[73.90403589473283,19.99696353286199],[73.90212848549562,19.99673646914858],[73.90070079277703,19.99660921339539],[73.89980153485499,19.99653812985391],[73.89901154875139,19.99645894252053],[73.89859960449579,19.99643124647646],[73.89810296992995,19.99652798647736],[73.89699090691263,19.99677861649909],[73.89588039486355,19.99705082562913],[73.89550810555976,19.99718672672111],[73.89470091970733,19.99773532545641],[73.8943308269914,19.99805251083187],[73.89387770049606,19.99832214888191],[73.89335294286063,19.99862235710303],[73.891435491075,19.99932162410158],[73.89062629312174,19.99965541533006],[73.88940347113517,20.00005373437337],[73.88748326355527,20.00049950795286],[73.8851278716662,20.00111924076763],[73.88513472846142,20.00112600037099],[73.88345858202722,20.00155003307507],[73.88180155429124,20.00187104678621],[73.88137318411677,20.00188488288224],[73.8809991746354,20.00188486306791],[73.88058308523243,20.00182953158039],[73.88000695070946,20.00186172448421],[73.87916336067654,20.00185706982088],[73.87840151159023,20.00178358019686],[73.8765776722279,20.00155736330435],[73.87614425478891,20.00147850894892],[73.8756764282757,20.00129151108078],[73.87531085588569,20.0011663143125],[73.87504271314566,20.00107371964388],[73.87457073807008,20.0010125931707],[73.87399367555571,20.00087041210972],[73.87346399837323,20.00082359194199],[73.87295411812403,20.00071924663887],[73.87179328189151,20.00072596582523],[73.87089648175711,20.00077293657144],[73.87021796515931,20.00090140802234],[73.8696017803759,20.00090142337174],[73.86881637064943,20.00074613528722],[73.86773288435249,20.00049823474985],[73.86597150738379,20.00010348635652],[73.86585041995644,20.00037440730995]]}},{"type":"Feature","properties":{"name":"Ch. Sambhajinagar road","stroke":"#ff0000","stroke-opacity":1,"stroke-width":0,"fill":"#f0ffff","fill-opacity":1,"sourceFolder":"Routes / Movement / Ch. Sambhajinagar road","source":"Mobility plan Nashik KMZ (NTKMA)"},"geometry":{"type":"LineString","coordinates":[[73.91903923614046,19.99839204419902],[73.91781738108622,19.99766014948336],[73.91727198563935,19.99740895615096],[73.91635514193561,19.99723859547261],[73.91540526043313,19.9972887248651],[73.91439768056355,19.9973475517493],[73.9136923937798,19.99743255829442],[73.9125589836878,19.99774481564023],[73.91200424691768,19.99797709972174],[73.91139647519708,19.99814388994812],[73.91088680862103,19.9981742366099],[73.9103299727534,19.99802683386852],[73.9096427319476,19.99776060513383],[73.90881605788142,19.99743319542794],[73.90819130875614,19.99719876215038],[73.90762770146367,19.99706472806985],[73.90727199967033,19.99706828150546],[73.90633312308636,19.99706193782195],[73.90562627478126,19.99705007387672],[73.90483186915709,19.99698487742531],[73.9038789701107,19.99687893913919],[73.90272949649247,19.99673299916051],[73.90185167187582,19.99664209566747],[73.90101228462055,19.99656879625098],[73.89985868936407,19.99646412227484],[73.89901778911569,19.9964022495005],[73.89862035324043,19.99637626627699],[73.89805676736025,19.99646457259897],[73.89703275949213,19.99670011622315],[73.89634147197894,19.99686129899418],[73.89577446003314,19.99702232380177],[73.8954074810994,19.99714561339642],[73.89491451785972,19.9974903486703],[73.8945341306871,19.99779191253049],[73.89397054406659,19.99821079141066],[73.89364991832578,19.99837302326358],[73.8932472648208,19.99857234644364],[73.89283347509337,19.99874777921851],[73.89237958266986,19.99890882681589],[73.89184705194937,19.99910477123183],[73.8911457569318,19.9993588200191],[73.89036286106717,19.99965115666053],[73.88934879717087,20.0000197786048],[73.88714759110812,20.00050530689649],[73.88509980256607,20.00102380510638],[73.88254337946108,20.00162424670464],[73.88163650769229,20.00173326592845],[73.87972069563817,20.0017971938695],[73.87910697126276,20.00178863163091],[73.87792016390802,20.00166931551313],[73.8764319634883,20.00148303674814],[73.87598804880665,20.0013554222255],[73.87509031831755,20.00105658638168],[73.8742337736917,20.00087694711987],[73.87325883496527,20.00071297517622],[73.87263189678175,20.00063964914087],[73.87221689959156,20.00059836968633],[73.87172027995183,20.00059857287003],[73.87123195559845,20.00066833079127],[73.87011166718014,20.00079611386419],[73.8700896093075,20.00079612334939],[73.86966540568655,20.00081172307351],[73.86881035791487,20.00066041908487],[73.86554392640552,19.99993959246551],[73.86519405038581,19.99989288621847],[73.86520232809204,19.99977266298605]]}},{"type":"Feature","properties":{"name":"Proposed Dasak ghat to Upnagar parking","stroke":"#5500ff","stroke-opacity":1,"stroke-width":5,"fill":"#ff5454","fill-opacity":0.698,"sourceFolder":"Routes / Movement / Pune road","source":"Mobility plan Nashik KMZ (NTKMA)"},"geometry":{"type":"LineString","coordinates":[[73.84271145907917,19.98390060432529],[73.84288460050645,19.98399193074859],[73.84297680676505,19.98404860244628],[73.8430238083416,19.98410372859875],[73.84306012953257,19.98424949359589],[73.84306933385778,19.98439040022819],[73.8430703425374,19.98452318783392],[73.8430749695383,19.98459495376216],[73.84311449543958,19.98468364786872],[73.84316141705642,19.98479293203632],[73.84321926423542,19.98489381296508],[73.84324789772731,19.98498565414327],[73.84325356386013,19.98505643490211],[73.84322504571044,19.9851080526838],[73.84313955641177,19.9851718992521],[73.84304392352041,19.98527225779883],[73.84295324318477,19.98534435864167],[73.84280137330353,19.98538995405757],[73.8426854629955,19.9854762198412],[73.84266369573118,19.98568890810085]]}},{"type":"Feature","properties":{"name":"Proposed Dasak ghat to Upnagar parking","stroke":"#5500ff","stroke-opacity":1,"stroke-width":5,"fill":"#ff5454","fill-opacity":0.698,"sourceFolder":"Routes / Movement / Pune road","source":"Mobility plan Nashik KMZ (NTKMA)"},"geometry":{"type":"LineString","coordinates":[[73.84239154596906,19.98529195440256],[73.84266144352232,19.98411699025202],[73.84271728446546,19.98388083172151],[73.84280104598736,19.98353971337291],[73.84291272841656,19.98301491394862],[73.84292823986858,19.98287205140971],[73.841168248831,19.98273337594205],[73.83997691100294,19.98272244493111],[73.83889019899833,19.98275674434109],[73.8370742721495,19.98277739512312],[73.8344109155863,19.9827772999219],[73.83348643515832,19.98279794098308],[73.83321938680591,19.97930855131006],[73.83309307195526,19.97790584932027],[73.83289057590012,19.97700214141895],[73.83093618649325,19.97788412504299],[73.82943206715663,19.97870805458489],[73.82845547820122,19.97942870698005],[73.82837622081463,19.97914663143619],[73.82816590984989,19.97715368053363],[73.8280156363309,19.97573134133246],[73.82791047607327,19.97432429177799],[73.82780853652359,19.97386661087074],[73.82750367703139,19.97379328382586],[73.82611806951422,19.97330692261176],[73.82310882580333,19.97282565798185],[73.82314680852112,19.97240750467854],[73.82312364804504,19.9719770584813],[73.82297233144361,19.97173830691113],[73.82248120069792,19.97086813227573],[73.8221629517858,19.97052000993047],[73.82164619926598,19.97015883357766],[73.8210444505507,19.96987821969378],[73.8199821119888,19.96946479812365],[73.81948187140956,19.96933120197216],[73.8189776521726,19.96909435084557],[73.8187729855598,19.96899347708073],[73.82105650906705,19.96706161388948],[73.82161624273829,19.96658997591521],[73.82220485642361,19.96701735975154],[73.82299732415895,19.96709005599029],[73.82383707263396,19.96713039611173],[73.82472286143253,19.96720029726446],[73.82473088675457,19.96769980424002]]}},{"type":"Feature","properties":{"name":"Emergency route","stroke":"#38a800","stroke-opacity":1,"stroke-width":5,"sourceFolder":"Routes / Movement / Pune road","source":"Mobility plan Nashik KMZ (NTKMA)"},"geometry":{"type":"LineString","coordinates":[[73.84229148644087,19.97864318267996],[73.8417227735797,19.97840524150446],[73.84116781538742,19.97786010130653],[73.84083318027326,19.97740103142864],[73.83978263288955,19.97745211494106],[73.83748137239074,19.97677737163915],[73.8359116505746,19.97608055975376],[73.83541055555709,19.976260748247],[73.83325799435546,19.9769361226329],[73.83282088921386,19.97712744121455],[73.8319212898659,19.97757200942304],[73.83100709716079,19.97798405751929],[73.82998606390757,19.9785696262716],[73.82916275920863,19.97905588258039],[73.82844391877845,19.97953184869503],[73.82828453088786,19.97994519869556],[73.82549259043547,19.98105183235077],[73.82462361100264,19.98151535300299],[73.82307632689142,19.98240215112968],[73.8222053674718,19.98291311343568],[73.82124832742277,19.983651620182],[73.81996638290885,19.98462912124388],[73.81943621816244,19.98528844541037],[73.81932365568346,19.98541318147754]]}},{"type":"Feature","properties":{"name":"Emergency route","stroke":"#38a800","stroke-opacity":1,"stroke-width":5,"sourceFolder":"Routes / Movement / Pune road","source":"Mobility plan Nashik KMZ (NTKMA)"},"geometry":{"type":"LineString","coordinates":[[73.84100436476021,19.97444054288617],[73.8404043828595,19.97459146014644],[73.83919069499682,19.97496315981707],[73.83704327917766,19.97564924345306],[73.8359116505746,19.97608055975376],[73.83541055555709,19.976260748247],[73.83325799435546,19.9769361226329],[73.83282088921386,19.97712744121455],[73.8319212898659,19.97757200942304],[73.83100709716079,19.97798405751929],[73.82998606390757,19.9785696262716],[73.82916275920863,19.97905588258039],[73.82844391877845,19.97953184869503],[73.82828453088786,19.97994519869556],[73.82549259043547,19.98105183235077],[73.82462361100264,19.98151535300299],[73.82307632689142,19.98240215112968],[73.8222053674718,19.98291311343568],[73.82124832742277,19.983651620182],[73.81996638290885,19.98462912124388],[73.81943621816244,19.98528844541037],[73.81932365568346,19.98541318147754]]}},{"type":"Feature","properties":{"name":"Dasak ghat to upnagar parking","stroke":"#5500ff","stroke-opacity":1,"stroke-width":5,"fill":"#ff5454","fill-opacity":0.698,"sourceFolder":"Routes / Movement / Pune road","source":"Mobility plan Nashik KMZ (NTKMA)"},"geometry":{"type":"LineString","coordinates":[[73.850569610786,19.98871758182437],[73.85047620147564,19.98858867160754],[73.85030987662333,19.98850113660514],[73.85006310494184,19.98832456113279],[73.85005303077843,19.98811278074263],[73.85003033730976,19.98782076374846],[73.85002235401421,19.98771293955585],[73.84969143863927,19.98741230908435],[73.84943155052898,19.98720230022285],[73.84911647699418,19.98686367118209],[73.84861973994995,19.98612400215997],[73.8479207985704,19.98511389884762],[73.84729364610484,19.98474105786987],[73.84592127788626,19.98412598797422],[73.84558743325692,19.98388672175096],[73.84488759205469,19.98330641551904],[73.84410179622245,19.9809527925295],[73.84277402274407,19.97892472658016],[73.84173812358291,19.97613319348707],[73.84147359921651,19.97493391927385],[73.84067475981205,19.97121971816483],[73.84035638858381,19.97015247021821],[73.84022772821355,19.96944614223071],[73.83986795487799,19.96712176288481],[73.83926234981315,19.96706115501802],[73.8387500363865,19.96706056214591],[73.83797497024763,19.9670105374208],[73.83729752936627,19.96698151543136],[73.83670092046322,19.96698560800618],[73.83556761785178,19.96695326554842],[73.8347872326142,19.96690428920282],[73.83403947610888,19.96683857054055],[73.83224640345833,19.96680841343868],[73.8314034967131,19.96680839297376],[73.83132240389327,19.96690873753248],[73.83120050554993,19.96696504360375],[73.83108015076772,19.96700673971763],[73.83105013332258,19.96728081194266],[73.83103594323114,19.96755300514986],[73.83097523897192,19.96845014399025],[73.83085219812888,19.96860904421847]]}},{"type":"Feature","properties":{"name":"Untitled Path","stroke":"#5500ff","stroke-opacity":1,"stroke-width":5,"fill":"#ff5454","fill-opacity":0.698,"sourceFolder":"Routes / Movement / Pune road","source":"Mobility plan Nashik KMZ (NTKMA)"},"geometry":{"type":"LineString","coordinates":[[73.8485244201393,19.98830846141518],[73.84855278411358,19.98811612264926],[73.84883489923205,19.98814458481002],[73.84913570674631,19.98819871868227],[73.8492019484943,19.98759450142707],[73.8493817037013,19.98755715829797],[73.84947694613177,19.98755143570846],[73.8496699248597,19.98740742794275]]}},{"type":"Feature","properties":{"name":"Untitled Path","stroke":"#5500ff","stroke-opacity":1,"stroke-width":5,"fill":"#ff5454","fill-opacity":0.698,"sourceFolder":"Routes / Movement / Pune road","source":"Mobility plan Nashik KMZ (NTKMA)"},"geometry":{"type":"LineString","coordinates":[[73.84719539562262,19.98826863931472],[73.84670548077946,19.98827981726988],[73.84620321704413,19.98757687635345],[73.84620096889641,19.98733408972371],[73.84622713934598,19.98653965726524],[73.84628594122728,19.98596806814413],[73.8463184683052,19.98568393012098],[73.84516140653132,19.98545851870569],[73.84499206333284,19.98443482460254],[73.84497173573477,19.98385074758484],[73.84487671062213,19.9833143713339]]}},{"type":"Feature","properties":{"name":"Untitled Path","stroke":"#55aa00","stroke-opacity":1,"stroke-width":5,"sourceFolder":"Routes / Movement / Pune road","source":"Mobility plan Nashik KMZ (NTKMA)"},"geometry":{"type":"LineString","coordinates":[[73.84494798441482,19.98603789637739],[73.84485675988424,19.98609818366899],[73.84468000135742,19.98630185371845],[73.84455115898419,19.98632787521002],[73.8445067556445,19.98631298983101],[73.84436548131649,19.98641807151092],[73.84426560476666,19.98657575534373],[73.84408624552448,19.98673011906995],[73.84380796420291,19.98685208226754],[73.84363082606092,19.98691864106135],[73.84327289022171,19.98706580378838]]}},{"type":"Feature","properties":{"name":"Untitled Path","stroke":"#55aa00","stroke-opacity":1,"stroke-width":5,"sourceFolder":"Routes / Movement / Pune road","source":"Mobility plan Nashik KMZ (NTKMA)"},"geometry":{"type":"LineString","coordinates":[[73.84519193582102,19.98763810237731],[73.84487640726408,19.98766252267235],[73.84462769659123,19.98772182725978],[73.84434186446299,19.98786136696272],[73.84433072724914,19.98822765999711],[73.84430474096517,19.98864628060689],[73.84427504310277,19.98882419468402]]}},{"type":"Feature","properties":{"name":"Untitled Path","stroke":"#55aa00","stroke-opacity":1,"stroke-width":5,"sourceFolder":"Routes / Movement / Pune road","source":"Mobility plan Nashik KMZ (NTKMA)"},"geometry":{"type":"LineString","coordinates":[[73.84519193582102,19.98763810237731],[73.84487640726408,19.98766252267235],[73.84462769659123,19.98772182725978],[73.84434186446299,19.98786136696272],[73.84412002355994,19.98795526615638],[73.84405397248747,19.98799182543151],[73.84375676237401,19.98814236182349],[73.84371879290205,19.98816159904061]]}},{"type":"Feature","properties":{"name":"Upnagar parking tp Dasak ghat","stroke":"#38a800","stroke-opacity":1,"stroke-width":5,"sourceFolder":"Routes / Movement / Pune road","source":"Mobility plan Nashik KMZ (NTKMA)"},"geometry":{"type":"LineString","coordinates":[[73.83078857799265,19.96928336599524],[73.83078136147942,19.96977625955343],[73.831328805692,19.96978308834742],[73.8322576358541,19.96980360820337],[73.83298647720937,19.96980360102565],[73.83371221957698,19.96985164153996],[73.83421344732662,19.96983788898467],[73.83475678983875,19.96978989528354],[73.8355869924545,19.96971488309434],[73.83596118144081,19.96972167885097],[73.8364689092821,19.96976255143194],[73.8373815084246,19.96984405425534],[73.83785722092533,19.96986714223211],[73.8383774239592,19.96990421631726],[73.83875978990366,19.96996481778757],[73.8391222720041,19.97008739003874],[73.8397274471887,19.97024566882175],[73.83992936391509,19.97033330286895],[73.84010041382834,19.9704696030828],[73.84038220703445,19.97149966045318],[73.84046287016893,19.97194573402502],[73.84059365453265,19.97255259263077],[73.84073238082378,19.97322035333083],[73.84084453529628,19.97369637836681],[73.84098906577707,19.97435156249498],[73.84117749732084,19.97515940519465],[73.84131373325899,19.97569335341047],[73.84142159851821,19.9760997137923],[73.8417396693109,19.97697357584273],[73.84186010338273,19.977287088706],[73.84237546048732,19.97868507105418],[73.8425579250726,19.97908300430232],[73.84280818837121,19.97948320144675],[73.84390001679184,19.98111583882548],[73.84437341277687,19.98239537313154],[73.84463432824387,19.98322745447792],[73.8448829252417,19.98527892251462],[73.84511835634027,19.9866527664368],[73.84531416395187,19.98765936135151],[73.84556114235907,19.98898398506824]]}},{"type":"Feature","properties":{"name":"Untitled Path","stroke":"#38a800","stroke-opacity":1,"stroke-width":5,"sourceFolder":"Routes / Movement / Pune road","source":"Mobility plan Nashik KMZ (NTKMA)"},"geometry":{"type":"LineString","coordinates":[[73.82525022142954,19.96951629352325],[73.82531517876414,19.96970940273501],[73.82532766064257,19.96988325524257],[73.82589871107265,19.96997055087925],[73.82617167000606,19.96999512649194],[73.82780913963664,19.969886850205],[73.82850641756295,19.96978718412757],[73.82906359921063,19.96970521210547],[73.82949446038181,19.96967270060676],[73.83035738489954,19.96976253739223],[73.83078476510467,19.96977532544648]]}},{"type":"Feature","properties":{"name":"APMC to Upnagar parking","stroke":"#ff0000","stroke-opacity":1,"stroke-width":5,"fill":"#ff5454","fill-opacity":0.698,"sourceFolder":"Routes / Movement / Pune road","source":"Mobility plan Nashik KMZ (NTKMA)"},"geometry":{"type":"LineString","coordinates":[[73.92260973549566,19.89830124734198],[73.92114698797867,19.89923670973576],[73.92055676027496,19.89963397990272],[73.91990039178852,19.90010203628237],[73.91928883961933,19.90050332860788],[73.91766744059545,19.90160013890333],[73.91669209013895,19.90229551162846],[73.91511636362004,19.90337004156779],[73.91447764591648,19.90381233710653],[73.91358361823806,19.9044055504926],[73.91241351384541,19.90520642388015],[73.9100526021558,19.90685868822957],[73.90923440099719,19.90742095395303],[73.90792947853129,19.90836654386581],[73.90723119267876,19.90885647822617],[73.90635324400135,19.90943972409929],[73.90523452603003,19.91022075561241],[73.90435762566183,19.91083945885211],[73.90329860184217,19.91156670782043],[73.90224489758064,19.91228229114327],[73.90081634589949,19.91325469388056],[73.89999358499001,19.91383822912339],[73.89939731364873,19.91427297943876],[73.8986643594127,19.91480362791718],[73.89830950653493,19.91504919121952],[73.89801403509384,19.91523680283316],[73.89741370553419,19.91554252129385],[73.89700966809487,19.91570080670102],[73.89661919512976,19.915828099616],[73.89603907671787,19.91599939427997],[73.89551422143555,19.91617610527052],[73.89414449621485,19.91660380121458],[73.89365266528957,19.91675792689137],[73.89307231162446,19.91691360010482],[73.89226467152383,19.91715408862657],[73.89158913229147,19.9173695797809],[73.89117841531872,19.91749445307367],[73.8907485317047,19.91767279612296],[73.89030246349338,19.91785364318506],[73.88983497587753,19.91804580410824],[73.8894283333497,19.91821326650034],[73.88868989198947,19.91849311902309],[73.88840803497041,19.91860849524414],[73.88799630307885,19.91877553470313],[73.8877589923338,19.91887706527221],[73.887435834429,19.9190104080003],[73.88707212913727,19.9191409792876],[73.8868703451649,19.91920963413136],[73.88625037391755,19.91942600451631],[73.88580857198087,19.9195909822925],[73.88540056460519,19.91972751999861],[73.88509163621049,19.91982850136472],[73.88479479387613,19.91994122712001],[73.88451202262796,19.92004612102735],[73.88427765141266,19.92014270860295],[73.88388426208108,19.92032973296463],[73.8834372591568,19.92055599324292],[73.88305782979417,19.92074761123384],[73.88270930613153,19.92093069811257],[73.88255196247854,19.92099639198369],[73.88220335309649,19.92122968481582],[73.88196545332924,19.92138496869319],[73.88164654246069,19.92162084710264],[73.88111907010979,19.92200763890625],[73.88074107303039,19.92233965050867],[73.88039044865306,19.92261430451279],[73.87996808684476,19.92297157882964],[73.87954114281246,19.92334196279402],[73.87910389540706,19.92369159281717],[73.87877359972353,19.92397906443856],[73.87829357057709,19.92440625486102],[73.87759175662383,19.92502518572415],[73.87726560529171,19.92528780660011],[73.87696995191696,19.92551850483489],[73.87675524080377,19.92572785778548],[73.87636052826896,19.92600703875198],[73.87592508929141,19.92630498486933],[73.8756716604533,19.92645058014805],[73.87529108508377,19.92665706917393],[73.87493012663921,19.92685325251367],[73.87404079777092,19.92722107941245],[73.87357914820412,19.92742044813582],[73.87282156801689,19.92774639551404],[73.87231641314855,19.92794820505526],[73.87016328225404,19.92889720942441],[73.86924489452213,19.9292321900136],[73.86813379232576,19.92975844641721],[73.86761499437878,19.93002177504278],[73.86707505655983,19.93024676509583],[73.86613482032062,19.93069303252497],[73.86557229399321,19.93098187796253],[73.865062921439,19.9312422806763],[73.86447213778068,19.93151090447722],[73.86411426976629,19.93170613402628],[73.86359451632053,19.93205020531629],[73.86298737966185,19.93264025817686],[73.86256872995243,19.9331185116279],[73.8620752779826,19.93360738481447],[73.86159079530663,19.93419505160269],[73.86127569095973,19.93461574705627],[73.86087074207282,19.93506739519463],[73.86047378783849,19.9354714647138],[73.86016454504737,19.93572870319104],[73.85990937710527,19.93594614739673],[73.85955535607044,19.93615862460275],[73.85920302319423,19.93635986245648],[73.85887150709605,19.93651987272959],[73.8578847489952,19.93703343498635],[73.8574031838559,19.93730257582604],[73.85698675064128,19.93749876517148],[73.85672078299962,19.93765284301112],[73.85653026455523,19.9377676221557],[73.85626070313815,19.93796956014272],[73.85590660440354,19.938256561934],[73.85552258455246,19.9386470089312],[73.85501306587241,19.93911248754747],[73.85022790866188,19.94395266694741],[73.84970086472798,19.94446012339586],[73.84923696640631,19.94494763794046],[73.84858131380335,19.94561319842071],[73.84837773013517,19.94582184641562],[73.84806729162909,19.94610034364212],[73.84779513813383,19.94632738645813],[73.84744436838943,19.9465994412676],[73.84721292451911,19.94681891151947],[73.84674650053728,19.94736406249699],[73.84623651935212,19.94821074838209],[73.8462285655899,19.94826883601214],[73.84618403666565,19.9485390112867],[73.84608126777144,19.948935793607],[73.84556573582574,19.94986472737894],[73.8452901345385,19.95022343742798],[73.84458018081288,19.950747930393],[73.84413655795656,19.95092852036663],[73.843333914897,19.95110846834298],[73.84250310316061,19.95124268876713],[73.8420066841095,19.95130923996793],[73.84162886792498,19.95135877597751],[73.84093319733529,19.9517292166617],[73.83959857334109,19.95248984112069],[73.83894138515103,19.95292959332091],[73.83719552286853,19.95427161245458],[73.83552873327878,19.95552894114134],[73.8341012353727,19.95656433297689],[73.83257164721286,19.95771734338755],[73.831416803512,19.95859521288517],[73.8299400505207,19.9597667718188],[73.82849985376768,19.96090296838404],[73.82705215656848,19.9620069127098],[73.8252606570017,19.96340256670978],[73.82274933330113,19.96530958690434],[73.82139416460154,19.96641319297668],[73.82180646117524,19.96667895684146],[73.82229691911401,19.96699552478816],[73.82378243586344,19.9670772886795],[73.8239164476558,19.96711899069258],[73.82383604447355,19.96871786578361],[73.82460612449998,19.96879102986196]]}},{"type":"Feature","properties":{"name":"Untitled Path","stroke":"#5500ff","stroke-opacity":1,"stroke-width":5,"fill":"#ff5454","fill-opacity":0.698,"sourceFolder":"Routes / Movement / Mumbai road","source":"Mobility plan Nashik KMZ (NTKMA)"},"geometry":{"type":"LineString","coordinates":[[73.81468770728,19.99727736588147],[73.81388980252609,19.99733563295308],[73.81327592441744,19.99730261645402],[73.81288752280608,19.99729129139441],[73.81254491692627,19.99726624798113],[73.81203270557607,19.99739885704143],[73.81173197790656,19.99751781353499],[73.81118399727087,19.99766223672298],[73.81076198265848,19.99771044262199],[73.81011244380262,19.99778065595036],[73.80990141958875,19.99775506885384],[73.80962284397562,19.9977517821575]]}},{"type":"Feature","properties":{"name":"Untitled Path","stroke":"#5500ff","stroke-opacity":1,"stroke-width":5,"fill":"#ff5454","fill-opacity":0.698,"sourceFolder":"Routes / Movement / Mumbai road","source":"Mobility plan Nashik KMZ (NTKMA)"},"geometry":{"type":"LineString","coordinates":[[73.81325318917222,19.99893978069195],[73.8131493974259,19.99831442227168],[73.8130629754572,19.9978520220383],[73.81302966496055,19.99728401494423]]}},{"type":"Feature","properties":{"name":"Untitled Path","stroke":"#5500ff","stroke-opacity":1,"stroke-width":5,"fill":"#ff5454","fill-opacity":0.698,"sourceFolder":"Routes / Movement / Mumbai road","source":"Mobility plan Nashik KMZ (NTKMA)"},"geometry":{"type":"LineString","coordinates":[[73.8117549365208,19.99919265163904],[73.81162735932675,19.99841013634498],[73.81156258826394,19.99787745835605],[73.81149870122918,19.9975753065686]]}},{"type":"Feature","properties":{"name":"Return route - pedestrian (Police Dept.)","stroke":"#5500ff","stroke-opacity":1,"stroke-width":5,"fill":"#ff5454","fill-opacity":0.698,"sourceFolder":"Routes / Movement / Mumbai road","source":"Mobility plan Nashik KMZ (NTKMA)"},"geometry":{"type":"LineString","coordinates":[[73.81012643258588,19.99940108619415],[73.80984562649522,19.99847694026031],[73.80973082742557,19.99792456193097],[73.80967890955166,19.99783411618339],[73.80964718221804,19.99775109285254],[73.80924862781883,19.99768785296882],[73.80635448035358,19.99732635438495],[73.80485972612506,19.9974096109895],[73.80312944871974,19.99742451317235],[73.80278363159518,19.99743985637456],[73.80264991855239,19.99735329768844],[73.80253541033369,19.99718211054265],[73.80236496019974,19.99691306066103],[73.80221784658593,19.99674791157985],[73.80201232077722,19.99653397086188],[73.80169138680388,19.99627581490046],[73.80146152814211,19.99612799092631],[73.80110565766567,19.99585063020857],[73.80082459687091,19.99572222077736],[73.80081715383561,19.99572222114324],[73.80054114994768,19.99558683515966],[73.80018238145031,19.99540130714758],[73.79995761601714,19.99527207354944],[73.79917257717794,19.99484369980999],[73.79871986552243,19.99461708583519],[73.79869012357447,19.99461708763588],[73.79818580762638,19.99436311152152],[73.79703124003856,19.99378647827358],[73.7965017598396,19.99350898904811],[73.79602351254572,19.99320280776978],[73.79468304215125,19.99253937247997],[73.79312208099313,19.99172985896625],[73.79308890511435,19.99172986257371],[73.79236633969764,19.99131666900423],[73.78872864049596,19.98940192519012],[73.78719496817581,19.98859080215767],[73.7860992461756,19.98799305796905],[73.78549075139232,19.98753281527137],[73.7851891178758,19.98728174742349],[73.78480452142138,19.98693620466189],[73.78436015759799,19.9870917846796],[73.78413637027981,19.98719289816476],[73.78391392985115,19.98724618032745],[73.78367673402141,19.98728569589467],[73.7835074052082,19.98731466301385]]}},{"type":"Feature","properties":{"name":"Untitled Path","stroke":"#5500ff","stroke-opacity":1,"stroke-width":5,"sourceFolder":"Routes / Movement / Mumbai road","source":"Mobility plan Nashik KMZ (NTKMA)"},"geometry":{"type":"LineString","coordinates":[[73.80926358914448,19.9993795095599],[73.80928587585511,19.99894458313934],[73.80929717993465,19.99862568249299],[73.80931280217243,19.99818497720586],[73.80931524471663,19.99770573471249]]}},{"type":"Feature","properties":{"name":"Return route - pedestrian (Police Dept.)","stroke":"#5500ff","stroke-opacity":1,"stroke-width":5,"fill":"#ff5454","fill-opacity":0.698,"sourceFolder":"Routes / Movement / Mumbai road","source":"Mobility plan Nashik KMZ (NTKMA)"},"geometry":{"type":"LineString","coordinates":[[73.80452358676152,20.00123901874415],[73.80413294199023,20.00045931563206],[73.80411316734452,20.00022472818596],[73.8040470419635,19.99980922695823],[73.80392254831702,19.99952446557832],[73.80381019179227,19.99902722130327],[73.80356310523864,19.9984537516934],[73.80342523225295,19.9979056166224],[73.80340202216071,19.99753811363857],[73.80339138621848,19.99741930483427],[73.80278363159518,19.99743985637456],[73.80264991855239,19.99735329768844],[73.80253541033369,19.99718211054265],[73.80236496019974,19.99691306066103],[73.80221784658593,19.99674791157985],[73.80201232077722,19.99653397086188],[73.80169138680388,19.99627581490046],[73.80146152814211,19.99612799092631],[73.80110565766567,19.99585063020857],[73.80082459687091,19.99572222077736],[73.80081715383561,19.99572222114324],[73.80054114994768,19.99558683515966],[73.80018238145031,19.99540130714758],[73.79995761601714,19.99527207354944],[73.79917257717794,19.99484369980999],[73.79871986552243,19.99461708583519],[73.79869012357447,19.99461708763588],[73.79818580762638,19.99436311152152],[73.79703124003856,19.99378647827358],[73.7965017598396,19.99350898904811],[73.79602351254572,19.99320280776978],[73.79468304215125,19.99253937247997],[73.79312208099313,19.99172985896625],[73.79308890511435,19.99172986257371],[73.79236633969764,19.99131666900423],[73.78872864049596,19.98940192519012],[73.78719496817581,19.98859080215767],[73.7860992461756,19.98799305796905],[73.78549075139232,19.98753281527137],[73.7851891178758,19.98728174742349],[73.78480452142138,19.98693620466189],[73.78436015759799,19.9870917846796],[73.78413637027981,19.98719289816476],[73.78391392985115,19.98724618032745],[73.78367673402141,19.98728569589467],[73.7835074052082,19.98731466301385]]}},{"type":"Feature","properties":{"name":"Pedestrian movement - Mumbai road (Police Dept.)","stroke":"#38a800","stroke-opacity":1,"stroke-width":5,"fill":"#ff5454","fill-opacity":0.698,"description":"Mumbai naka - Dwarka - Tractor house - right turn to Kashi Mali Mangal Karyalay - Ghat","sourceFolder":"Routes / Movement / Mumbai road","source":"Mobility plan Nashik KMZ (NTKMA)"},"geometry":{"type":"LineString","coordinates":[[73.78274189126849,19.98901127701798],[73.78300871599183,19.98888041126206],[73.78322928119442,19.98870668458715],[73.78340850164228,19.98856135207736],[73.78359412004224,19.98826212347728],[73.78367483453334,19.98787186362336],[73.7838196832254,19.98737435063076],[73.78404989953127,19.98732263711265],[73.78439470340332,19.98724308538675],[73.78468479137439,19.98709816583126],[73.78481301140732,19.98706141276054],[73.78505265049832,19.9872966939038],[73.78541100457473,19.98759754979748],[73.7856716538223,19.98780072102196],[73.78599262912776,19.98802206671337],[73.78638611114405,19.9882437172916],[73.78672781362886,19.98840518187846],[73.78707167010583,19.98860769643293],[73.78748796023652,19.98881936732448],[73.78815925395504,19.989192010565],[73.7886734294685,19.98945291413243],[73.7890363528934,19.98963590080707],[73.78954274568447,19.98992090206047],[73.79034877142698,19.99037093278507],[73.79083935669011,19.99061679383387],[73.79148156442753,19.99097487352253],[73.79203007903737,19.99127289919596],[73.79249829278056,19.99149866563274],[73.79309721198587,19.99184185828243],[73.7937619474317,19.99212961904382],[73.79458932552377,19.99257973737578],[73.7953825925016,19.99303726570119],[73.79605214286974,19.99338161087205],[73.79676723669075,19.99378952958963],[73.79764892843019,19.99426788592374],[73.79836145414997,19.99466395418795],[73.79917710530378,19.99509304631581],[73.79993650796708,19.99543454623555],[73.80055125129314,19.99572153016367],[73.80136294797522,19.9962229900063],[73.80188786825812,19.99667253945981],[73.80234198791504,19.99714160530048],[73.80294859311617,19.99803016609771],[73.80306214472591,19.99839599402485],[73.80318951059687,19.99870049339493],[73.80324453224418,19.99898398081634],[73.80333046494724,19.99928227228749],[73.80339956509398,19.9997480153788],[73.80343204956995,20.00033826923815],[73.80346072397872,20.00067742093365],[73.80403898922965,20.00082760786537],[73.80425474857554,20.00102951232765],[73.80444918318744,20.00132190855186],[73.80494907257926,20.00142971699396],[73.8053283338316,20.00148612926854]]}},{"type":"Feature","properties":{"name":"Return route - pedestrian (Police Dept.)","sourceFolder":"Routes / Movement / Mumbai road","source":"Mobility plan Nashik KMZ (NTKMA)"},"geometry":{"type":"LineString","coordinates":[[73.80706191035385,20.00075483370964],[73.80679154116653,19.99934307936487],[73.80730785230276,19.99921605903999],[73.8074502862912,19.99918784297347],[73.8074546525263,19.99901216625724],[73.80735413350929,19.99885927266113],[73.80722957805638,19.99872181964227],[73.80712844221786,19.99802287380732],[73.80707499832894,19.99740457656845],[73.80635448035358,19.99732635438495],[73.80485972612506,19.9974096109895],[73.80312944871974,19.99742451317235],[73.80278363159518,19.99743985637456],[73.80264991855239,19.99735329768844],[73.80253541033369,19.99718211054265],[73.80236496019974,19.99691306066103],[73.80221784658593,19.99674791157985],[73.80201232077722,19.99653397086188],[73.80169138680388,19.99627581490046],[73.80146152814211,19.99612799092631],[73.80110565766567,19.99585063020857],[73.80082459687091,19.99572222077736],[73.80081715383561,19.99572222114324],[73.80054114994768,19.99558683515966],[73.80018238145031,19.99540130714758],[73.79995761601714,19.99527207354944],[73.79917257717794,19.99484369980999],[73.79871986552243,19.99461708583519],[73.79869012357447,19.99461708763588],[73.79818580762638,19.99436311152152],[73.79703124003856,19.99378647827358],[73.7965017598396,19.99350898904811],[73.79602351254572,19.99320280776978],[73.79468304215125,19.99253937247997],[73.79312208099313,19.99172985896625],[73.79308890511435,19.99172986257371],[73.79236633969764,19.99131666900423],[73.78872864049596,19.98940192519012],[73.78719496817581,19.98859080215767],[73.7860992461756,19.98799305796905],[73.78549075139232,19.98753281527137],[73.7851891178758,19.98728174742349],[73.78480452142138,19.98693620466189],[73.78436015759799,19.9870917846796],[73.78413637027981,19.98719289816476],[73.78391392985115,19.98724618032745],[73.78367673402141,19.98728569589467],[73.7835074052082,19.98731466301385]]}},{"type":"Feature","properties":{"name":"Mumbai road Outer - Inner parking","stroke":"#ff0000","stroke-opacity":1,"stroke-width":5,"sourceFolder":"Routes / Movement / Mumbai road","source":"Mobility plan Nashik KMZ (NTKMA)"},"geometry":{"type":"LineString","coordinates":[[73.71014011661555,19.91512262189776],[73.71092690355714,19.91585956033165],[73.7117431377613,19.91660566300688],[73.71229751620395,19.91727624121557],[73.71293037248616,19.91818379325875],[73.71356831919215,19.9191806803274],[73.71435859616656,19.92064765464608],[73.71507313199885,19.92184321308248],[73.71545325925753,19.92268564748859],[73.71641197145041,19.92419927540443],[73.71725184075491,19.92565555131135],[73.71726025020897,19.92579159935189],[73.71821121406104,19.92706750977501],[73.71961300704481,19.92818024393074],[73.72153718171099,19.92979609964841],[73.72272922445056,19.9305503222452],[73.72383861509903,19.93145817081254],[73.72463246985255,19.93187566199136],[73.72763546304577,19.93308178088331],[73.72928443813481,19.93372468269192],[73.73129860882396,19.93474650321936],[73.73293259381498,19.93547483557277],[73.7336466955365,19.93576016351365],[73.73454329909453,19.93595857922813],[73.73545151646502,19.93628346646652],[73.73635675386633,19.93691877590263],[73.73709406740434,19.93756091208722],[73.73835035734517,19.93884044951352],[73.73963914166212,19.94014420609551],[73.74042590456395,19.94095625781418],[73.74131966992185,19.94173409956494],[73.74206172653523,19.94217574803823],[73.74323676344494,19.94296054163788],[73.74409929171242,19.94373828725589],[73.74522222415523,19.94487467255707],[73.74617355828939,19.94578651368102],[73.74710852225147,19.94668541841113],[73.74813983346854,19.94761033165991],[73.7497835971711,19.9490501834042],[73.75109383705137,19.95012937657596],[73.75224636343918,19.95102164540336],[73.75351168263961,19.95204923454562],[73.75439042593392,19.95295852136663],[73.75568820389034,19.95428473983532],[73.75679500247468,19.95546862306948],[73.7576451263304,19.9562244243229],[73.75877070988051,19.9571863317154],[73.75962980682073,19.95790028133279],[73.7605367911606,19.95866662074263],[73.7616075451502,19.95958889151768],[73.76256751739659,19.96039137823226],[73.76330990417557,19.96109330658433],[73.76414762122572,19.96196404227718],[73.76489351685564,19.96282442292391],[73.76592447610714,19.96404387613735],[73.76983815664799,19.96887144032301],[73.77016618911316,19.96928693548248],[73.77101046649179,19.97025937179402],[73.77201016674277,19.97121364400384],[73.77338544950894,19.97232261287409],[73.77432766593827,19.97324013541662],[73.77842654825302,19.97784194326342],[73.7799931621591,19.97973147003766],[73.78091189514757,19.98085995173977],[73.781460104241,19.98150545074535],[73.78221374518404,19.98262557945409],[73.7825330586112,19.9832379640563],[73.78296287680196,19.98427398411261],[73.78360422824032,19.98538819547506],[73.78401559131942,19.98612147635069],[73.78426455180089,19.98654826831709],[73.78383390785552,19.98687612195392],[73.78368985296737,19.98706123744403]]}},{"type":"Feature","properties":{"name":"Untitled Path","stroke":"#5500ff","stroke-opacity":1,"stroke-width":5,"fill":"#ffffff","fill-opacity":0.251,"sourceFolder":"Routes / Movement / Trimbakeshwar road","source":"Mobility plan Nashik KMZ (NTKMA)"},"geometry":{"type":"LineString","coordinates":[[73.8024636575914,20.00126764012569],[73.80297806473486,20.00071345916252],[73.8030627308209,20.00050832200964],[73.80307276639876,20.00001554654108],[73.80316179939105,19.99962476695759],[73.80297027368974,19.99860182921274],[73.80249870900433,19.99759724848374],[73.80213186426876,19.99713608469157],[73.80072049921144,19.99594520628262],[73.79994798246443,19.99553112466784],[73.79912167394268,19.9951356928622],[73.79829387858926,19.99475288464348],[73.79697330694113,19.99410110505048],[73.79653218475384,19.99406907784489],[73.7947364957028,19.99399882566474],[73.79472326264732,19.99401157948988],[73.79321021184234,19.99392249910847],[73.79258603251571,19.99390980875238],[73.79256505342222,19.99392884529061],[73.79156145289829,19.99405628559368],[73.79071409088687,19.99424274180699],[73.78940917562346,19.9945368433998],[73.7893684657676,19.99458942753289],[73.78894597807934,19.99467381563228],[73.78815476452718,19.99566601519715],[73.78752078277819,19.99650584944302],[73.78707100899203,19.99714032403367],[73.78644357582974,19.99843458075892],[73.78629998998545,19.99869401726692],[73.78571239100661,19.99854077042819],[73.78515782676637,19.99831404330153],[73.78478284607938,19.99820853190625],[73.78409946763259,19.99790377575863],[73.7834713240434,19.99773075871388],[73.78283614180954,19.99751966184021],[73.78122833141292,19.99708741406536],[73.78044504087869,19.99689947171415],[73.7799385847156,19.99672676687035],[73.77956220815766,19.99659287582772]]}},{"type":"Feature","properties":{"name":"Tryambak Road inner to ghat","stroke":"#38a800","stroke-opacity":1,"stroke-width":5,"fill":"#ffffff","fill-opacity":0.251,"sourceFolder":"Routes / Movement / Trimbakeshwar road","source":"Mobility plan Nashik KMZ (NTKMA)"},"geometry":{"type":"LineString","coordinates":[[73.7790015291731,19.9964899488798],[73.78654735454764,19.99889893302036],[73.787376499227,19.99698825006927],[73.78866492952707,19.99541846367626],[73.78916828003818,19.99477907144449],[73.79033183267292,19.99451642279704],[73.79136471334706,19.99427134438434],[73.79267205382608,19.99403270520229],[73.79701780429238,19.99425872683162],[73.79966223568759,19.99570686158596],[73.80091404442564,19.99636141040658],[73.80156461846701,19.99680292882475],[73.80210575023631,19.99747665682146],[73.79698704521414,19.99862972708051],[73.79762450644411,20.00001469697169],[73.7985509362069,20.00122740308902]]}},{"type":"Feature","properties":{"name":"Bus Movement","stroke":"#ff0000","stroke-opacity":1,"stroke-width":5,"sourceFolder":"Routes / Movement / Trimbakeshwar road","source":"Mobility plan Nashik KMZ (NTKMA)"},"geometry":{"type":"LineString","coordinates":[[73.64132738877827,19.9603291789974],[73.64157143682003,19.96041840037994],[73.64197038227749,19.96064734101045],[73.64218143007555,19.96077330424864],[73.64239865233941,19.96089322070784],[73.64261926265661,19.96103534963564],[73.64322814414014,19.96140553329221],[73.64350143245687,19.96158670815611],[73.64396391581643,19.96186751476598],[73.64420449380319,19.96205067007983],[73.64555390232326,19.96289478725673],[73.64616028787647,19.96327780133006],[73.64695537220985,19.96379210780559],[73.64741295274912,19.96406688278499],[73.6478534528947,19.96431399327481],[73.64840096245396,19.96450850338196],[73.6485662621239,19.96457103795308],[73.6493628028452,19.96482440748428],[73.65004760909986,19.96503346181348],[73.65132001887751,19.96520001395923],[73.65343552528194,19.96541361818667],[73.65427747580249,19.96546956541933],[73.65500457025577,19.96553014892442],[73.65631075188567,19.96560927428154],[73.65709509724996,19.96567196079275],[73.65853730770928,19.96576473174321],[73.65964785261774,19.96587893175874],[73.66067219001798,19.96600476024564],[73.6611931362238,19.96611552390602],[73.66246693099917,19.96655345806656],[73.66295945250579,19.96674897203411],[73.66346753373277,19.96686163927599],[73.66386641940919,19.96691008137182],[73.66512616226998,19.96710139065001],[73.66573829046263,19.96724850101871],[73.6661822154194,19.9674826240324],[73.66711457643723,19.9680605561862],[73.66907155788797,19.96868222411301],[73.67124428689253,19.96936224594673],[73.6723067423613,19.96967533641341],[73.6731660184384,19.96995857413769],[73.67449869204867,19.9703672081932],[73.67516852256735,19.97057543646391],[73.67563510761634,19.97072705183398],[73.67680814850686,19.97110111609993],[73.67721196124987,19.97122348957409],[73.67748631146152,19.97131488264521],[73.67821758694757,19.97153790276241],[73.67874673676324,19.9716642190807],[73.67974962459127,19.9718925822742],[73.68075654985334,19.97213687837626],[73.68230869722689,19.97255994815687],[73.68263135474898,19.97265880976705],[73.68324976639461,19.97285527284462],[73.6839190327806,19.97306692994522],[73.68522509566935,19.97353840523365],[73.68563864991192,19.9736741572959],[73.68632486475975,19.97394554874502],[73.68764446904467,19.97439570980306],[73.68850724861278,19.97470543323871],[73.68940289087185,19.97501110300444],[73.69032565138671,19.97534398447067],[73.69131924485168,19.97575610738875],[73.69170088445264,19.97605216835647],[73.69222243419264,19.97647848168874],[73.69258866565846,19.97675541576811],[73.6932180432469,19.97709192941148],[73.69379097173156,19.97734762358933],[73.69455909135756,19.97766626317601],[73.69486923609442,19.97774679636497],[73.69678718041688,19.97804424367961],[73.69797341774685,19.97820326828806],[73.69882140632033,19.97830499897026],[73.69949010655053,19.97841206241264],[73.7000591629836,19.97852605332927],[73.70086732441672,19.97873224862706],[73.7016143279429,19.97892018132638],[73.7020788349004,19.97897202568066],[73.70280913511763,19.97898152454488],[73.70360330112267,19.97901016027332],[73.70435956946578,19.97903939556745],[73.70479076385277,19.97905922650702],[73.7053674935715,19.97912137289844],[73.70580270369364,19.97917215383883],[73.70683482735184,19.97927729899198],[73.70725582821403,19.97930286730868],[73.70767561203768,19.97932853278351],[73.7081604672396,19.97936966359601],[73.70866140585602,19.97944776494979],[73.70927666001128,19.97955389169543],[73.70983908926911,19.97977265566784],[73.71151806225234,19.98104166917619],[73.71203926075441,19.98138271761304],[73.71250157706847,19.98165785545136],[73.71282572683718,19.98170362156284],[73.71335953263706,19.98162425747696],[73.71417396236686,19.981529345803],[73.71462963812554,19.98156253166777],[73.71529636921154,19.9816808917009],[73.71586113733373,19.98179069769048],[73.71635429393059,19.98194546569044],[73.71682055088851,19.98210778960541],[73.71710743988375,19.98237656979456],[73.71763648616557,19.98283025702463],[73.71815561549826,19.9832686771653],[73.71857042658375,19.98353519915516],[73.71899229088324,19.98379057292344],[73.71929819072037,19.983923984847],[73.72053694412759,19.98444496804798],[73.72125530813145,19.98476726335964],[73.72230844987372,19.98520345267205],[73.72298883836508,19.98559181120971],[73.72351778164834,19.98583508668735],[73.72589384397733,19.98737518751928],[73.72725994394447,19.98821812448933],[73.72845556825935,19.98919880617104],[73.72928099623353,19.98967878646803],[73.73077406845844,19.99023652301268],[73.73241985008795,19.99071926917961],[73.73361291998441,19.99090579917371],[73.7420465080068,19.99177457057314],[73.74568491151575,19.99235352359278],[73.74981220120742,19.9931567755569],[73.75400009716225,19.99385971674156],[73.75638359799257,19.99409775221876],[73.75824216248425,19.99433198043869],[73.76367225394178,19.99456785649604],[73.76832248171554,19.99465907940033],[73.77214257026591,19.99436882603693],[73.7735032647658,19.99482264706482],[73.77595387230211,19.99558754307456],[73.77955556730171,19.99661862705344]]}}]}
