{"type":"FeatureCollection","features":[{"type":"Feature","properties":{"name":"additional parking","category":"parking","zone":"outer"},"geometry":{"type":"Polygon","coordinates":[[[73.71144559592923,19.98392077093941],[73.712233790409,19.9840749806253],[73.71278707178554,19.98400116986936],[73.71296667080661,19.98400121436622],[73.71298503989392,19.98364188082367],[73.71299847395824,19.9833790807526],[73.71373753988743,19.98340860654492],[73.71373554774135,19.98283977623992],[73.7134383929046,19.9828117578461],[73.71348162042693,19.98260282212167],[73.71369860794299,19.98267874560831],[73.71381132310333,19.98160485417659],[73.71313144810881,19.9816807259655],[73.71283016164695,19.98171850983731],[73.71260536239677,19.9817261945633],[73.71231647788566,19.98159963861397],[73.71227391405696,19.98181939763372],[73.71160256208111,19.98166411035177],[73.71144559592923,19.98392077093941]]]}},{"type":"Feature","properties":{"name":"Panjarpol Outer Parking","category":"parking","zone":"outer"},"geometry":{"type":"Polygon","coordinates":[[[73.80566062262822,20.05016449124523],[73.80582387486548,20.04949221012052],[73.80604560523354,20.04897147370549],[73.8060184774114,20.04858595622558],[73.8054534818434,20.04880419174736],[73.80527802524406,20.04885144783005],[73.80528553808819,20.04925083759452],[73.80467378176655,20.04938919796172],[73.8046945114904,20.04921834265512],[73.80424695059544,20.04923565714222],[73.80414222231168,20.04889567134008],[73.80506173321962,20.04877941230627],[73.80488895872519,20.04848852713566],[73.80470402364838,20.04845824353005],[73.80469665529426,20.04823372834039],[73.80384176610247,20.04840562854122],[73.8029019931547,20.04847885224162],[73.80227991617903,20.04861495210291],[73.80233921706879,20.04922659125418],[73.80351235637393,20.04962135237088],[73.80566062262822,20.05016449124523]]]}},{"type":"Feature","properties":{"name":"Panjarpol Outer Parking","category":"parking","zone":"outer"},"geometry":{"type":"Polygon","coordinates":[[[73.79935538133513,20.04839002516855],[73.800688102726,20.04878278085727],[73.80250556204952,20.04825743855937],[73.8020215006706,20.04552329599352],[73.79936187240563,20.04594407871209],[73.79935538133513,20.04839002516855]]]}},{"type":"Feature","properties":{"name":"THAKKAR GROUND - outer parking","category":"parking","zone":"outer"},"geometry":{"type":"Polygon","coordinates":[[[73.7991774737674,20.04923707760307],[73.79747871883762,20.04952263308701],[73.79637012493917,20.04972404633963],[73.79497488456241,20.0494544764162],[73.7934318040913,20.04948231460908],[73.79199944307037,20.04916737750115],[73.79202427322127,20.05068923870517],[73.79219810596618,20.05164986698032],[73.79256999604884,20.05230891470536],[73.79275759535464,20.05319576757359],[73.79061755595582,20.05313507831491],[73.79051980095386,20.05507623311696],[73.79322230940674,20.05536968132952],[73.79334195301088,20.05465101329721],[73.79390776188302,20.05459902279551],[73.79441933378726,20.05457043269126],[73.79536278747402,20.05489632266203],[73.79779485438036,20.05431226068002],[73.7997916260636,20.05425592352472],[73.7992054973506,20.05168914568932],[73.7991774737674,20.04923707760307]]]}},{"type":"Feature","properties":{"name":"Jain Mnadir Parking","category":"parking","zone":"outer"},"geometry":{"type":"Polygon","coordinates":[[[73.71819027468521,19.93224306497567],[73.71688888318343,19.93272193182919],[73.71697238317823,19.93145998144644],[73.71695934890735,19.93044240122189],[73.71694290017324,19.92873549585838],[73.71695408565647,19.92852238529237],[73.71850293529458,19.92765519864836],[73.71913937040999,19.92814638242897],[73.72002783765907,19.92886043551263],[73.72062697414289,19.92944362087282],[73.71962263028284,19.93004781506614],[73.71852767518256,19.93071602219185],[73.71759767058478,19.9313580255684],[73.71819027468521,19.93224306497567]]]}},{"type":"Feature","properties":{"name":"Plot opposite Madsangavi Shiwar S. No. 62","category":"parking","zone":"outer"},"geometry":{"type":"Polygon","coordinates":[[[73.86296161261605,20.00028220131379],[73.86353752587037,20.00031414020405],[73.86349387862617,20.00069141127559],[73.86375068456833,20.00072769647783],[73.86375503754809,20.00091052622764],[73.8645607973313,20.00094848394861],[73.86466533702294,19.99993760879037],[73.86615946013224,20.00016652195941],[73.86576164192606,20.00135071538114],[73.86553967788578,20.0013601779222],[73.86532238633062,20.00160321093421],[73.86461769140419,20.00154570751017],[73.8645827376805,20.00186021453213],[73.86107818088861,20.00158426860441],[73.86116115888662,20.00094702844999],[73.86226763845544,20.00106575948176],[73.86238744663193,19.99978451661151],[73.86296270326838,19.99979487023791],[73.86296585305035,19.99981575043133],[73.86296980765218,19.99982204383643],[73.86296161261605,20.00028220131379]]]}},{"type":"Feature","properties":{"name":"Identified adgaon parking location","category":"parking","zone":"outer"},"geometry":{"type":"Polygon","coordinates":[[[73.88297359243997,20.05241065965265],[73.88239155646552,20.05282526150628],[73.88228302089888,20.05288759424646],[73.88071663967557,20.05100013541744],[73.88089365592958,20.05047354070844],[73.88099039096556,20.05023574257572],[73.88073870599762,20.04976405886658],[73.88021333248759,20.05005467262193],[73.87997961836838,20.05024031580728],[73.87974192759515,20.05010624625701],[73.8807674392919,20.04866367595728],[73.88107191502327,20.0486953641451],[73.88139673376034,20.04864191230325],[73.88208784190664,20.04864203364226],[73.8822795328084,20.04844444688466],[73.88303100973309,20.04870875459715],[73.88347504611914,20.04901110504352],[73.88390988151228,20.04914722769398],[73.88423504312905,20.04915977108718],[73.88464241360289,20.05001527852766],[73.8846097651368,20.05149706225775],[73.88429960152746,20.05145809859318],[73.88297359243997,20.05241065965265]]]}},{"type":"Feature","properties":{"name":"Madsangavi Shiwar S. No. 459","category":"parking","zone":"outer"},"geometry":{"type":"Polygon","coordinates":[[[73.86399602830677,19.99963193487993],[73.86403573572167,19.99908643930892],[73.86446968398981,19.99907924682831],[73.8644978084175,19.99875498248691],[73.86402710262001,19.9987120552703],[73.86406651318649,19.99777948632795],[73.86568416948691,19.99785222997645],[73.86566117310875,19.99867529532698],[73.86586522593231,19.99870054820123],[73.86570812197597,19.99923385500709],[73.86563335555621,19.9994280945313],[73.86565950468176,19.99983812673021],[73.86399602830677,19.99963193487993]]]}},{"type":"Feature","properties":{"name":"NMC School","category":"parking","zone":"outer"},"geometry":{"type":"Polygon","coordinates":[[[73.71989557500007,20.02762121500007],[73.71984084700006,20.02794601200003],[73.71980991400005,20.02813874800006],[73.71967190500004,20.02863962400005],[73.71944942600004,20.02865390100004],[73.71933283200008,20.02867293700007],[73.71893546200005,20.02912503400006],[73.71849764100006,20.02963661900003],[73.71839056600004,20.03000424500004],[73.71823471100004,20.03002447100005],[73.71765888100003,20.02969372600006],[73.71801508700008,20.02917595500003],[73.71774858700007,20.02905603000005],[73.71782473000007,20.02865628100005],[73.71784566900004,20.02853254900003],[73.71781330800007,20.02829650600006],[73.71810455400004,20.02833648100005],[73.71834821100003,20.02844688800008],[73.71886598200007,20.02856871600005],[73.71931141700003,20.02845640600003],[73.71985507600004,20.02764553300005],[73.71989557500007,20.02762121500007]]]}},{"type":"Feature","properties":{"name":"Sambhaji Stadium","category":"parking","zone":"outer"},"geometry":{"type":"Polygon","coordinates":[[[73.75817022700005,19.96121105300006],[73.75694728500008,19.96257032400007],[73.75594007500007,19.96179948600007],[73.75598460600008,19.96144324300008],[73.75525041600008,19.96132969400003],[73.75535937700005,19.96065393700007],[73.75547226400005,19.96044436100004],[73.75572208000006,19.96050587600007],[73.75646919200005,19.95979697800004],[73.75670761700007,19.96001380700005],[73.75787723700006,19.96096586200002],[73.75794694400008,19.96102056900003],[73.75794767600007,19.96102056500007],[73.75817022700005,19.96121105300006]]]}},{"type":"Feature","properties":{"name":"APMC Market","category":"parking","zone":"outer"},"geometry":{"type":"Polygon","coordinates":[[[73.84894536400003,19.95150443500006],[73.84844214000003,19.95144372100003],[73.84834988800003,19.95144757700007],[73.84833516200007,19.95139749400005],[73.84825237500007,19.95111592900003],[73.84784446300006,19.94996464500002],[73.84784250800004,19.94995271600004],[73.84784166100007,19.94994067100004],[73.84784192700005,19.94992860200006],[73.84784330400004,19.94991660100004],[73.84784578200004,19.94990475900005],[73.84784934200007,19.94989316600004],[73.84785395700004,19.94988191100003],[73.84785959200008,19.94987107900005],[73.84786620400007,19.94986075300005],[73.84787374200005,19.94985101100008],[73.84788215000003,19.94984192700002],[73.84789136300003,19.94983357100006],[73.84790131100004,19.94982600500003],[73.84791191900007,19.94981928900006],[73.84792310500006,19.94981347200007],[73.84793478500006,19.94980859900005],[73.84794687000004,19.94980470800004],[73.84795926700008,19.94980182700004],[73.84797084300004,19.94980009100004],[73.84820507800003,19.94973513000002],[73.84844147800004,19.94967761100003],[73.84851231900006,19.94966274400002],[73.84859915400006,19.94964452000005],[73.84865767300005,19.94963223900004],[73.84867978100004,19.94962759900005],[73.84891971800005,19.94958515000008],[73.84916102300008,19.94955031100005],[73.84940342400006,19.94952312000004],[73.84957182600004,19.94950961200004],[73.84964665200005,19.94950361000002],[73.84989043300004,19.94949180000003],[73.85013449600007,19.94948770500002],[73.85014145900004,19.94948818500006],[73.85014835200008,19.94948923800007],[73.85015512100006,19.94949085400003],[73.85016171600006,19.94949302300006],[73.85016808600005,19.94949572600007],[73.85017418200005,19.94949894400003],[73.85017995900006,19.94950265300002],[73.85018537100007,19.94950682300004],[73.85019037900008,19.94951142400004],[73.85019494400007,19.94951642000007],[73.85019903100005,19.94952177300007],[73.85020260900006,19.94952744200003],[73.85020565000008,19.94953338500005],[73.85020813300008,19.94953955500006],[73.85021003700007,19.94954590700007],[73.85021134800007,19.94955239200004],[73.85021205700008,19.94955896000005],[73.85021215800003,19.94956556100004],[73.85021165000006,19.94957214600004],[73.85021053700007,19.94957866400006],[73.85021022900008,19.94958001200007],[73.85003062900006,19.95065845400006],[73.85001851000004,19.95073122600007],[73.84991526200008,19.95135119600008],[73.84894536400003,19.95150443500006]]]}},{"type":"Feature","properties":{"name":"Arogya vidhya vidyanan","category":"parking","zone":"outer"},"geometry":{"type":"Polygon","coordinates":[[[73.80574318300006,20.07441114300008],[73.80575941004327,20.0742677682182],[73.80601685544585,20.07352178167711],[73.80612962046361,20.07299264009137],[73.80614771337554,20.07231408336322],[73.80610362800037,20.07197299523316],[73.80921298200192,20.07302231424702],[73.80903708269673,20.07528202721965],[73.81106040300006,20.07620014200006],[73.81060448800008,20.07727436200003],[73.80534476600008,20.07846415900008],[73.80537555600006,20.07832059700007],[73.80542909400003,20.07805052800006],[73.80548620100006,20.07762698400006],[73.80550166700004,20.07713324600007],[73.80548025200005,20.07646580700003],[73.80549096000004,20.07617194400007],[73.80554687700004,20.07571389700007],[73.80565276300007,20.07495960800003],[73.80574318300006,20.07441114300008]]]}},{"type":"Feature","properties":{"name":"Peth Road Cricket Stadium","category":"parking","zone":"outer"},"geometry":{"type":"Polygon","coordinates":[[[73.78012063100005,20.08417572100007],[73.78013014900006,20.08383783700003],[73.78091537100005,20.08387590900003],[73.78093916600005,20.08352850700004],[73.78381355400006,20.08396632800003],[73.78425613400003,20.08395681000007],[73.78430848200003,20.08435656000006],[73.78378976000005,20.08434704200005],[73.78374693000006,20.08484197000007],[73.78276183300005,20.08495618400008],[73.78199564600004,20.08487052300006],[73.78112000500005,20.08464209500005],[73.78109621000004,20.08425186400007],[73.78012063100005,20.08417572100007]]]}},{"type":"Feature","properties":{"name":"Additional area - NMC school","category":"parking","zone":"outer"},"geometry":{"type":"Polygon","coordinates":[[[73.71810213586565,20.02830853965357],[73.71816359238255,20.02794943585028],[73.71811916958393,20.02767110058864],[73.71893599018021,20.02683268988046],[73.7196600692679,20.02614179607244],[73.71981922699709,20.02654339719986],[73.71990183493735,20.02704327599205],[73.7198776536281,20.02752689753181],[73.71982113227321,20.02763381501607],[73.71929459765195,20.02843144856062],[73.71885724254781,20.02856040062215],[73.71830840730235,20.0284340178689],[73.71810213586565,20.02830853965357]]]}},{"type":"Feature","properties":{"name":"Plot adjacent to 60 M DP road land","category":"parking","zone":"outer"},"geometry":{"type":"Polygon","coordinates":[[[73.84224248516662,19.93928396542184],[73.8433895491521,19.93865798358033],[73.84343707794514,19.9388226221781],[73.84500266266213,19.94313252809366],[73.8424223083588,19.94330844901263],[73.84224248516662,19.93928396542184]]]}},{"type":"Feature","properties":{"name":"Plot near 60 M DP road part 2","category":"parking","zone":"outer"},"geometry":{"type":"Polygon","coordinates":[[[73.84510787865905,19.94328520558061],[73.84592971464153,19.94609307384113],[73.84582820111616,19.94623203189503],[73.84571574825578,19.94679897453537],[73.84538786171836,19.94680672784923],[73.84537111757075,19.94646272927763],[73.84515585157808,19.94647024852436],[73.84511460383816,19.94676021505083],[73.84424593208831,19.94666011039664],[73.843685533703,19.94671387051634],[73.84338840096703,19.94652303312567],[73.84344841864409,19.9447656208226],[73.84249464484748,19.94476559754442],[73.84243691764621,19.94348923256907],[73.84510787865905,19.94328520558061]]]}},{"type":"Feature","properties":{"name":"Untitled Polygon","category":"parking","zone":"outer"},"geometry":{"type":"Polygon","coordinates":[[[73.80549808407487,20.07774535670582],[73.80548637348276,20.07721412732284],[73.80548172297141,20.07623087258682],[73.80569591297571,20.07430795747699],[73.80591293310437,20.07386262114387],[73.80614273161471,20.07315602189634],[73.80611872315525,20.07243493473778],[73.80609564700187,20.07199531813686],[73.8092161318994,20.07303623157921],[73.80900182063829,20.07524858654161],[73.81108362305127,20.07621054673954],[73.81061971255434,20.07727568065269],[73.80750737307577,20.07795562292286],[73.80534370715532,20.07847023865791],[73.80549808407487,20.07774535670582]]]}},{"type":"Feature","properties":{"name":"Adj. to Jugnu hotel","category":"parking","zone":"outer"},"geometry":{"type":"Polygon","coordinates":[[[73.80798143326487,20.06123763867324],[73.80632620038533,20.06127183138179],[73.80620484016626,20.06082139763031],[73.80582399307103,20.06083780862593],[73.80588394807022,20.06038648548812],[73.80848112018612,20.06045047974633],[73.80922530984864,20.05883146396468],[73.8098643264047,20.05786103354643],[73.81100319411887,20.0578893379836],[73.81159441850588,20.05805329404865],[73.81163628805741,20.05892139086013],[73.81178617634706,20.06111810834176],[73.81530999987864,20.06118508255232],[73.81537898281977,20.06198258725017],[73.81543660513051,20.06329004356902],[73.81480078353684,20.06325709717929],[73.81434844886348,20.06324445509743],[73.81268608471157,20.06307537594342],[73.81279067849451,20.06508011648322],[73.81215069185092,20.06509280471608],[73.80997461570652,20.06513926593305],[73.80675661127194,20.06550481795784],[73.80798143326487,20.06123763867324]]]}},{"type":"Feature","properties":{"name":"S. No. 150 / 1","category":"parking","zone":"outer"},"geometry":{"type":"Polygon","coordinates":[[[73.7158412482486,19.93697220113463],[73.71584327269129,19.93674950807964],[73.71590751156073,19.93632858976587],[73.71701541426982,19.93621148920311],[73.71742060839415,19.93615344987237],[73.71821614290673,19.93608559781477],[73.71913508102797,19.93600142907284],[73.71920711540021,19.93689132479136],[73.71914161819483,19.93700916777665],[73.71886973540227,19.93699436392376],[73.71737144070538,19.93710965202013],[73.71586685649251,19.93717342288547],[73.7158412482486,19.93697220113463]]]}},{"type":"Feature","properties":{"name":"S. No. 146/1","category":"parking","zone":"outer"},"geometry":{"type":"Polygon","coordinates":[[[73.71307124674512,19.94025949390326],[73.71332574303278,19.93994676170269],[73.71355558406525,19.939778401157],[73.71382892587529,19.93963479548749],[73.71406417259624,19.93949824790762],[73.71450008583179,19.93918454041755],[73.71466514382608,19.93904666447077],[73.71492176404897,19.93878560882099],[73.7150829714831,19.9385186838076],[73.71529729118096,19.9382359834504],[73.71528881571116,19.93890467110118],[73.71524447933572,19.93957206535178],[73.71524033261288,19.94032525163529],[73.71514353564368,19.94053028273364],[73.71447395783396,19.94056675100089],[73.71348142165114,19.9406828286497],[73.71281674644082,19.94074428100048],[73.71260621721747,19.94062772249569],[73.71307124674512,19.94025949390326]]]}},{"type":"Feature","properties":{"name":"NMC inner parking - Near Dive Bungalow","category":"parking","zone":"inner"},"geometry":{"type":"Polygon","coordinates":[[[73.81817328542408,19.98361304171296],[73.81816871033955,19.98361304166647],[73.81814583484139,19.98360444216154],[73.81813210961269,19.98359584268003],[73.81810008390364,19.9835958423374],[73.81808635858319,19.98358294337825],[73.81808635865589,19.98356144509076],[73.81805890802386,19.9835614447833],[73.81802688232307,19.98355284520493],[73.81801773217121,19.98354424575197],[73.81798570645769,19.98353564615691],[73.81794910565472,19.98352274675083],[73.81783930294795,19.98351414610912],[73.81782100244362,19.98351414586121],[73.81788963051694,19.98299388791244],[73.81827851396844,19.98295519600233],[73.81838374066005,19.98320887718344],[73.81842491650252,19.98320887756147],[73.81846609223663,19.98320457830377],[73.81851184308128,19.98319597931443],[73.81853014344568,19.98320027921471],[73.81866282081818,19.98316588283342],[73.8187085716295,19.98312288665472],[73.81888699962887,19.98297239950731],[73.81921640469278,19.98283051132339],[73.8198431892406,19.98280041224048],[73.82193859502216,19.98284767341779],[73.82202552394729,19.98290356730698],[73.82140330123663,19.98341954446389],[73.8213712751789,19.98341954507106],[73.8213255236593,19.98342384554781],[73.82126147175673,19.98344964471379],[73.8212202955603,19.98345824467547],[73.82117911938933,19.98346684475082],[73.8210098389722,19.98332065916371],[73.8208359847537,19.98342385343054],[73.82068500592466,19.98335936066024],[73.82023207176806,19.98350125366029],[73.81979286390772,19.98350985553243],[73.81954580976989,19.98336796834928],[73.81915235357121,19.98346686005375],[73.81924385418819,19.98520820242922],[73.8192392790778,19.98520820242734],[73.81921640350669,19.98520820241664],[73.81921182840046,19.98520390280854],[73.81919810306137,19.98519960319512],[73.81917065238669,19.98519960317709],[73.81910202567602,19.98519960311786],[73.8190379741031,19.98519530343839],[73.8188961456523,19.9851523071174],[73.81870399074639,19.98515230666091],[73.81847980983036,19.98515230592211],[73.81830595521222,19.9851179083107],[73.81823732827438,19.98510500914684],[73.81817328542408,19.98361304171296]]]}},{"type":"Feature","properties":{"name":"Press Quarters, Nehru Nagar","category":"parking","zone":"inner"},"geometry":{"type":"Polygon","coordinates":[[[73.82464105339785,19.96950114497421],[73.82460204567035,19.96876316281808],[73.82754583164602,19.96866659556383],[73.82874552997065,19.96869243485989],[73.82881744831177,19.96856438555555],[73.82996182706749,19.96860273778188],[73.83084611457444,19.96859004526329],[73.83078859073342,19.96928178900143],[73.82813989603842,19.96929517064851],[73.82579754170064,19.96950124468716],[73.82464105339785,19.96950114497421]]]}},{"type":"Feature","properties":{"name":"Press Quarters, Nehru Nagar Part 2","category":"parking","zone":"inner"},"geometry":{"type":"Polygon","coordinates":[[[73.82392280963279,19.96768258756002],[73.82560439838545,19.96773639993771],[73.82555651146546,19.968708327955],[73.82507875732597,19.96868928036636],[73.8250661339838,19.96869199174387],[73.82460073703353,19.96869739904854],[73.82393887691565,19.96871643253512],[73.82388146527087,19.96867299175209],[73.82387774750781,19.96860608639872],[73.82392280963279,19.96768258756002]]]}},{"type":"Feature","properties":{"name":"Pick-up area","category":"parking","zone":"inner"},"geometry":{"type":"Polygon","coordinates":[[[73.76994178747493,20.03454928913717],[73.77004480330805,20.03565677650047],[73.77012020320652,20.03590922307821],[73.76977794098491,20.03603334110216],[73.76979578378031,20.03630679355398],[73.769794877141,20.03664290472589],[73.76981468200684,20.0370911865427],[73.77009350518715,20.03703801377478],[73.77081430945465,20.03683658861414],[73.77087395289914,20.03692315561695],[73.77110649417222,20.03754039201917],[73.76924712442816,20.03786920710373],[73.76892271840828,20.03785078749894],[73.76847535440288,20.03755030632557],[73.76838277044554,20.03715790711538],[73.76837438554216,20.03659048839085],[73.76839116545759,20.03610975916707],[73.76848050240716,20.03484673226004],[73.76853031563492,20.03390720427362],[73.76977393438564,20.03383384244202],[73.76994178747493,20.03454928913717]]]}},{"type":"Feature","properties":{"name":"Mira Empire","category":"parking","zone":"inner"},"geometry":{"type":"Polygon","coordinates":[[[73.7366953185807,20.03881704533842],[73.73990596769023,20.03858357744429],[73.73998285525235,20.03942213326749],[73.73999280039094,20.03991546198223],[73.73947289056291,20.03991556374258],[73.73944527152605,20.03971808700395],[73.73924223073604,20.03971388361555],[73.73921706537568,20.03995916856223],[73.73879996560115,20.0399942587617],[73.73883900372208,20.04049543627412],[73.73866937039111,20.04050943320816],[73.73843320804923,20.04089765595769],[73.73792181978615,20.04088088286064],[73.73743109539141,20.04079346564433],[73.73655055165916,20.04063204667395],[73.7366953185807,20.03881704533842]]]}},{"type":"Feature","properties":{"name":"Youva festival Road","category":"parking","zone":"inner"},"geometry":{"type":"Polygon","coordinates":[[[73.83211754000007,20.01469623100007],[73.83212103100004,20.01248333400002],[73.83490741300005,20.01235483900007],[73.83651555000006,20.01224025500005],[73.83671104500007,20.01311864600007],[73.83682660600005,20.01413268500005],[73.83211754000007,20.01469623100007]]]}},{"type":"Feature","properties":{"name":"50% NMC owned","category":"parking","zone":"inner"},"geometry":{"type":"Polygon","coordinates":[[[73.83455204798861,20.01438629925521],[73.83212085288034,20.01470060479376],[73.83213059475989,20.01249498873019],[73.83433448163004,20.0123954319743],[73.83455204798861,20.01438629925521]]]}},{"type":"Feature","properties":{"name":"50 % requisition","category":"parking","zone":"inner"},"geometry":{"type":"Polygon","coordinates":[[[73.83434381879428,20.01239992507516],[73.83651684392768,20.01225788085198],[73.83672108104463,20.01317021664646],[73.83680141593426,20.01411078138333],[73.83456303642755,20.0143924139109],[73.83434381879428,20.01239992507516]]]}},{"type":"Feature","properties":{"name":"Additional Parking area - Gandhinagar Press land","category":"parking","zone":"inner"},"geometry":{"type":"Polygon","coordinates":[[[73.81782836314349,19.97936804200245],[73.81839915070923,19.97932504695706],[73.81843956754615,19.9798092471939],[73.81872703516096,19.97976728421351],[73.81864522284356,19.97933852241083],[73.81908333230683,19.97928472444516],[73.81955550631346,19.97923784758233],[73.82073088306036,19.97909830077968],[73.82133550001382,19.97903898734161],[73.82147626604782,19.97974287592142],[73.82157326304946,19.98025145427367],[73.82163666115594,19.98085753720854],[73.82035596105818,19.98097614184912],[73.81979350052166,19.98097229747365],[73.81975446881425,19.98037916235992],[73.8186364970572,19.98044053394056],[73.81807533609343,19.98046377101783],[73.81785140015735,19.98046044715401],[73.81782836314349,19.97936804200245]]]}},{"type":"Feature","properties":{"name":"Idgaha Maidan","category":"parking","zone":"inner"},"geometry":{"type":"Polygon","coordinates":[[[73.77988864600007,19.99613551700003],[73.77986234700006,19.99629956600006],[73.77931609700005,19.99620329000004],[73.77932711600005,19.99615173000007],[73.77899536800004,19.99608131400004],[73.77902639100006,19.99589506600006],[73.77913816000006,19.99527262100003],[73.77930523000003,19.99436512500006],[73.77933066100007,19.99421541300006],[73.77936833700005,19.99418297800003],[73.77937916100007,19.99417518600006],[73.77979702000005,19.99412653000007],[73.77997415500005,19.99414929400007],[73.78009544100007,19.99416968200006],[73.78031229800007,19.99423023000003],[73.78046194000007,19.99428275700006],[73.78046664000004,19.99428662100007],[73.78055674300003,19.99437693000004],[73.78056156500008,19.99439721500005],[73.78059374800006,19.99454738000003],[73.78059804000003,19.99456796200008],[73.78060062500003,19.99458035500004],[73.78065825200008,19.99468042900003],[73.78059370700004,19.99493457800003],[73.78060853400007,19.99506811700007],[73.78062033100008,19.99536648500003],[73.78038838800006,19.99626159100006],[73.78008948000007,19.99616271700006],[73.77988864600007,19.99613551700003]]]}},{"type":"Feature","properties":{"name":"Mahamarg Bus Stand","category":"parking","zone":"inner"},"geometry":{"type":"Polygon","coordinates":[[[73.78229035000004,19.98696739000007],[73.78223383400007,19.98642434700002],[73.78223125500006,19.98613999800006],[73.78220100900006,19.98600358500005],[73.78217782900003,19.98590787300003],[73.78208838700004,19.98581820100003],[73.78207123100003,19.98580702200007],[73.78199247500004,19.98573455900004],[73.78197570500004,19.98571787700007],[73.78199471100004,19.98561255600004],[73.78215304000008,19.98558566600008],[73.78250802200006,19.98585488900005],[73.78263457300005,19.98597146100008],[73.78261651900004,19.98608321400008],[73.78294019200007,19.98634648500007],[73.78311692600005,19.98651408000006],[73.78317299800005,19.98672005200007],[73.78326427400003,19.98682012500007],[73.78339190400004,19.98692809800008],[73.78348258600005,19.98710562100007],[73.78350760600006,19.98740553200003],[73.78290401100008,19.98747724700007],[73.78235520000004,19.98750011400006],[73.78229035000004,19.98696739000007]]]}},{"type":"Feature","properties":{"name":"Natyagruha - NMC Reservation - staging area","category":"parking","zone":"inner"},"geometry":{"type":"Polygon","coordinates":[[[73.83824922524018,19.95710723876662],[73.83765060617678,19.9571562932796],[73.83756743238823,19.95711335894582],[73.83734333351583,19.95654429641745],[73.83780816542473,19.95653258465483],[73.83815254980874,19.95655016084567],[73.83824922524018,19.95710723876662]]]}}]}