{"type":"FeatureCollection","features":[{"type":"Feature","geometry":{"type":"Point","coordinates":[73.788786,20.019146]},"properties":{"Name":"Om Gurudev Petroleum (Hindustan Petroleum)","Address":"Svy No 8 2 Neur Village Nashik Main Road, Nashik","locationConfidence":"approximate","Rating":"3.9"}},{"type":"Feature","geometry":{"type":"Point","coordinates":[73.846839,20.203906]},"properties":{"Name":"Akash Petroleum (Hindustan Petroleum)","Address":"Dindori Road Mhasrul, Nashik","locationConfidence":"locality-match","Rating":"3.8"}},{"type":"Feature","geometry":{"type":"Point","coordinates":[73.795224,19.985085]},"properties":{"Name":"Deshmane Pump Station","Address":"Mumbai -Agra National Hghway Pimpalgaon Baswant, Nashik","locationConfidence":"approximate","Rating":"3.7"}},{"type":"Feature","geometry":{"type":"Point","coordinates":[73.776455,19.975987]},"properties":{"Name":"Reliance Petroleum","Address":"Pipeline Road Savarkar Nagar, Nashik","locationConfidence":"approximate","Rating":"4.0"}},{"type":"Feature","geometry":{"type":"Point","coordinates":[73.807431,20.012274]},"properties":{"Name":"Petroll Pump (Indian Oil)","Address":"Bombai Highway Adgaoun Adgaon Naka, Nashik","locationConfidence":"locality-match","Rating":"3.7"}},{"type":"Feature","geometry":{"type":"Point","coordinates":[73.793697,19.998514]},"properties":{"Name":"Suman Petrol Pump","Address":"4 Roongta Blossom Rajiv Nagar Alko Market, Nashik","locationConfidence":"approximate","Rating":"3.9"}},{"type":"Feature","geometry":{"type":"Point","coordinates":[73.847295,20.202627]},"properties":{"Name":"B M Patil Pump Station","Address":"Nh-3 Mumbai Agra Highway Jaulakedindori, Nashik","locationConfidence":"locality-match","Rating":"3.9"}},{"type":"Feature","geometry":{"type":"Point","coordinates":[73.782517,19.988791]},"properties":{"Name":"Om Sai Datta Pump Station","Address":"Lam Road Bhagur, Nashik","locationConfidence":"approximate","Rating":"3.6"}},{"type":"Feature","geometry":{"type":"Point","coordinates":[73.731804,19.991049]},"properties":{"Name":"Jio BP Mobility Station","Address":"Anadwalli Pipeline Road Satpur, Nashik","locationConfidence":"locality-match","Rating":"4.0"}},{"type":"Feature","geometry":{"type":"Point","coordinates":[73.773345,20.011659]},"properties":{"Name":"Gajanan Maharaj Ksk (Indian Oil)","Address":"Bhagur Vinchuri Dalvi Pandhurli Road Bhagur, Nashik","locationConfidence":"approximate","Rating":"4.3"}},{"type":"Feature","geometry":{"type":"Point","coordinates":[73.730838,19.989461]},"properties":{"Name":"Shri Siddhivinayak Petroleum","Address":"Satpur Link Road Satpur, Nashik","locationConfidence":"locality-match","Rating":"4.1"}},{"type":"Feature","geometry":{"type":"Point","coordinates":[73.744042,19.965532]},"properties":{"Name":"Mngl Cng Pump Station","Address":"Mumbai - Nashik Express Ambad, Nashik","locationConfidence":"locality-match","Rating":"4.0"}},{"type":"Feature","geometry":{"type":"Point","coordinates":[73.827731,19.95773]},"properties":{"Name":"Radhakrishna Petroleum (Hindustan Petroleum)","Address":"Nalegaon Nashik Road Dindori, Nashik","locationConfidence":"locality-match","Rating":"4.0"}},{"type":"Feature","geometry":{"type":"Point","coordinates":[73.744296,19.966647]},"properties":{"Name":"Namrata Cng Pump Station","Address":"Pathardi to Ambad Road Pathardi, Nashik","locationConfidence":"locality-match","Rating":"3.6"}},{"type":"Feature","geometry":{"type":"Point","coordinates":[73.788282,19.997437]},"properties":{"Name":"R H Thorat & Company","Address":"Jail Road, Nashik","locationConfidence":"approximate","Rating":"3.8"}},{"type":"Feature","geometry":{"type":"Point","coordinates":[73.784675,19.998078]},"properties":{"Name":"Prakash Automobiles (Bharat Petroleum)","Address":"Mumbai Agra Road Nashik Main Road, Nashik","locationConfidence":"approximate","Rating":"3.9"}},{"type":"Feature","geometry":{"type":"Point","coordinates":[73.771488,19.955939]},"properties":{"Name":"P E Gomase Pump Station","Address":"Pathardi Gaon Pathardi Phata Nashik Pathardi, Nashik","locationConfidence":"locality-match","Rating":"4.1"}},{"type":"Feature","geometry":{"type":"Point","coordinates":[73.781402,19.986346]},"properties":{"Name":"Petrol Pump Panchak","Address":"Ashtvinayak Nagar, Nashik","locationConfidence":"approximate","Rating":"3.5"}},{"type":"Feature","geometry":{"type":"Point","coordinates":[73.730915,19.989575]},"properties":{"Name":"Shell Petrol Pump","Address":"Trambakeshwar Road Satpur, Nashik","locationConfidence":"locality-match","Rating":"4.4"}},{"type":"Feature","geometry":{"type":"Point","coordinates":[73.565669,19.696031]},"properties":{"Name":"Indian oil petrol pump","Address":"Daundat, Igatpuri","locationConfidence":"locality-match","Rating":"3.8"}},{"type":"Feature","geometry":{"type":"Point","coordinates":[73.803128,19.977488]},"properties":{"Name":"B K Petroleum","Address":"Ground Floor Niphad Jopul Pimpalgaon Baswant, Nashik","locationConfidence":"approximate","Rating":"4.1"}},{"type":"Feature","geometry":{"type":"Point","coordinates":[73.847042,20.203181]},"properties":{"Name":"Sai Suman Petroleum (Bharat Petroleum)","Address":"Mumbai Agra National Hwy Vake Dindori, Nashik","locationConfidence":"locality-match","Rating":"3.8"}},{"type":"Feature","geometry":{"type":"Point","coordinates":[73.828773,19.921415]},"properties":{"Name":"Tuljabhavani Pump Station","Address":"Pathardi Road Vadner Dumala, Deolali","locationConfidence":"locality-match","Rating":"4.6"}},{"type":"Feature","geometry":{"type":"Point","coordinates":[73.789839,19.997685]},"properties":{"Name":"Yuktaam Cng Pump Station","Address":"Ghoti Shirdi Road Wavi, Nashik","locationConfidence":"approximate","Rating":"4.2"}},{"type":"Feature","geometry":{"type":"Point","coordinates":[73.794428,20.006001]},"properties":{"Name":"Sai Pandhari Cng Station","Address":"Aurangabad Road Panchavati, Nashik","locationConfidence":"locality-match","Rating":"4.2"}},{"type":"Feature","geometry":{"type":"Point","coordinates":[73.98883,19.842105]},"properties":{"Name":"Bharat Petroleum","Address":"Sinnar, Nashik","locationConfidence":"locality-match","Rating":"3.9"}},{"type":"Feature","geometry":{"type":"Point","coordinates":[73.791314,20.014878]},"properties":{"Name":"M R Rathi & Co Co Ltd","Address":"Takeghoti, Nashik","locationConfidence":"approximate","Rating":"3.6"}},{"type":"Feature","geometry":{"type":"Point","coordinates":[73.845701,20.201692]},"properties":{"Name":"Om Samarth Petroleum (Bharat Petroleum)","Address":"Dindori, Nashik","locationConfidence":"locality-match","Rating":"3.9"}},{"type":"Feature","geometry":{"type":"Point","coordinates":[73.987883,19.840139]},"properties":{"Name":"Shri Sai Laxmi Petroleum (Hindustan Petroleum)","Address":"Sinnar Shirdi Road Pathare Khurd, Nashik","locationConfidence":"locality-match","Rating":"4.0"}},{"type":"Feature","geometry":{"type":"Point","coordinates":[73.790155,19.997608]},"properties":{"Name":"Bharat Petroleum Petrol Pump -Yash Petroleum","Address":"Belgaon Dhaga Nashik Maharashtra Pimpalgaon Bahula, Nashik","locationConfidence":"approximate","Rating":"4.1"}},{"type":"Feature","geometry":{"type":"Point","coordinates":[73.846005,20.202486]},"properties":{"Name":"Shivshakti Petroleum (Indian Oil)","Address":"Saputara Nasik Road Dindori, Nashik","locationConfidence":"locality-match","Rating":"3.8"}},{"type":"Feature","geometry":{"type":"Point","coordinates":[73.787843,19.995919]},"properties":{"Name":"Vefco Pump Station","Address":"Lasalgaon, Nashik","locationConfidence":"approximate","Rating":"3.9"}},{"type":"Feature","geometry":{"type":"Point","coordinates":[73.793125,19.995434]},"properties":{"Name":"Fulavati Pump Station","Address":"Surgana Vani Link Road Waghdhond, Nashik","locationConfidence":"approximate","Rating":"4.5"}},{"type":"Feature","geometry":{"type":"Point","coordinates":[73.786858,19.988991]},"properties":{"Name":"Ramesh Kumar Pump Station Indian Oil Pump Station","Address":"Saputara Nasik Road Vani, Nashik","locationConfidence":"approximate","Rating":"3.7"}},{"type":"Feature","geometry":{"type":"Point","coordinates":[73.786851,20.013677]},"properties":{"Name":"Sonarjun Pump Station","Address":"Nasik Bhendali, Nashik","locationConfidence":"approximate","Rating":"3.6"}},{"type":"Feature","geometry":{"type":"Point","coordinates":[73.791121,20.015432]},"properties":{"Name":"Bharat Petroleum","Address":"Amrai Petrolem Kedgao Nasik Maharashtra Khedgaon, Nashik","locationConfidence":"approximate","Rating":"3.8"}},{"type":"Feature","geometry":{"type":"Point","coordinates":[73.786195,20.005752]},"properties":{"Name":"Bharat Petroleum (Ayushi Fuel Plaza)","Address":"Nandurshingote, Nashik","locationConfidence":"approximate","Rating":"3.7"}},{"type":"Feature","geometry":{"type":"Point","coordinates":[73.785734,20.008326]},"properties":{"Name":"Shree Bhagwati Pump Station Ksk","Address":"A/P Mokbhangi Tal-Kalwan Dist-Nashik Mokbhangi Kalwan, Nashik","locationConfidence":"approximate","Rating":"4.8"}},{"type":"Feature","geometry":{"type":"Point","coordinates":[73.744956,19.966901]},"properties":{"Name":"Shri Sai Petroleum (Bharat Petroleum)","Address":"ICI Ambad Link Road Kamatwade, Nashik","locationConfidence":"locality-match","Rating":"4.3"}},{"type":"Feature","geometry":{"type":"Point","coordinates":[73.808642,20.013919]},"properties":{"Name":"Suman Petroleum","Address":"Service Road Rane Nagar, Nashik","locationConfidence":"approximate","Rating":"3.9"}},{"type":"Feature","geometry":{"type":"Point","coordinates":[73.780987,19.997711]},"properties":{"Name":"Arkay Service Garage (Hindustan Petroleum)","Address":"Old Bombay Agra Road Trimbak Naka, Nashik","locationConfidence":"locality-match","Rating":"3.8"}},{"type":"Feature","geometry":{"type":"Point","coordinates":[73.80033,19.984576]},"properties":{"Name":"Kamod Pump Station Pump","Address":"Aurangabad Road Upnagar, Nashik","locationConfidence":"approximate","Rating":"3.6"}},{"type":"Feature","geometry":{"type":"Point","coordinates":[73.565916,19.698092]},"properties":{"Name":"Deepkiran Pump Station And CNG PUMP","Address":"Deepkiran Petroleum & Cng PumpIgatpuri Aswin Nagar, Nashik","locationConfidence":"locality-match","Rating":"3.3"}},{"type":"Feature","geometry":{"type":"Point","coordinates":[73.773471,19.998659]},"properties":{"Name":"Raghav Petroleum (Hindustan Petroleum)","Address":"At Sayane Bk Wavi, Nashik","locationConfidence":"approximate","Rating":"3.9"}},{"type":"Feature","geometry":{"type":"Point","coordinates":[73.794362,20.006066]},"properties":{"Name":"Kohali Petrol Pump (Bharat Petroleum)","Address":"Panchavati, Nashik","locationConfidence":"locality-match","Rating":"3.7"}},{"type":"Feature","geometry":{"type":"Point","coordinates":[73.744372,19.96646]},"properties":{"Name":"Cng On Line Station","Address":"Ambad Satpur Link Road Medage Nagar, Nashik","locationConfidence":"locality-match","Rating":"3.9"}},{"type":"Feature","geometry":{"type":"Point","coordinates":[73.768998,19.958153]},"properties":{"Name":"Shell Petrol Pump","Address":"Pathardi Road Narhari Nagar, Nashik","locationConfidence":"locality-match","Rating":"4.2"}},{"type":"Feature","geometry":{"type":"Point","coordinates":[73.849054,20.204077]},"properties":{"Name":"Meenakshi Enterprises (Hindustan Petroleum)","Address":"Nashik Dindori Road Pimpalnare, Nashik","locationConfidence":"locality-match","Rating":"3.8"}},{"type":"Feature","geometry":{"type":"Point","coordinates":[73.565655,19.696102]},"properties":{"Name":"Indian oil CNG pump","Address":"Talegaon Igatpuri Ghoti, Nashik","locationConfidence":"locality-match","Rating":"3.7"}},{"type":"Feature","geometry":{"type":"Point","coordinates":[73.809366,20.012135]},"properties":{"Name":"Thete Patil Petroleum (Hindustan Petroleum)","Address":"Nh 3 Mumbai Agra Road Shirwade, Nashik","locationConfidence":"approximate","Rating":"4.0"}},{"type":"Feature","geometry":{"type":"Point","coordinates":[73.791779,19.995901]},"properties":{"Name":"Kale Brothers Pump Station","Address":"Maharashtra State Highway 30 Andarsul, Nashik","locationConfidence":"approximate","Rating":"4.0"}},{"type":"Feature","geometry":{"type":"Point","coordinates":[73.988892,19.840078]},"properties":{"Name":"Metro Pump Station Indian Oil Pump Station","Address":"Sinnarkar Nashik Nh 3 Mumbai Agra Highway Ojhar, Nashik","locationConfidence":"locality-match","Rating":"3.7"}},{"type":"Feature","geometry":{"type":"Point","coordinates":[73.82803,19.958054]},"properties":{"Name":"Shakunta Petroleum (Hindustan Petroleum)","Address":"Jay Bhavani Road Nashik Road Nashik Road, Nashik","locationConfidence":"locality-match","Rating":"4.1"}},{"type":"Feature","geometry":{"type":"Point","coordinates":[73.778705,19.984724]},"properties":{"Name":"Prakash Petrol Pump (Bharat Petroleum)","Address":"Govind Nagar, Nashik","locationConfidence":"locality-match","Rating":"3.9"}},{"type":"Feature","geometry":{"type":"Point","coordinates":[73.800289,20.012403]},"properties":{"Name":"Indian Oil Petrol Pump","Address":"Tidke Nagar, Nashik","locationConfidence":"approximate","Rating":"3.4"}},{"type":"Feature","geometry":{"type":"Point","coordinates":[73.794317,19.980061]},"properties":{"Name":"Gurumauli Petrol Pump (Hindustan Petroleum)","Address":"Nampur Taharabad Road Khamlon, Nashik","locationConfidence":"approximate","Rating":"4.0"}},{"type":"Feature","geometry":{"type":"Point","coordinates":[73.77279,19.977158]},"properties":{"Name":"Sai Nanda Petroleum","Address":"Sh 320 Phata 42220 Khedgaon Maharashtra Khedgaon, Nashik","locationConfidence":"approximate","Rating":"3.3"}},{"type":"Feature","geometry":{"type":"Point","coordinates":[73.791306,20.025335]},"properties":{"Name":"Mauli Pump Station Service","Address":"Makhmalabad Mhasrul, Nashik","locationConfidence":"locality-match","Rating":"4.1"}},{"type":"Feature","geometry":{"type":"Point","coordinates":[73.784914,20.00399]},"properties":{"Name":"J R Mehata & Sons (Hindustan Petroleum)","Address":"Nashik Main Road, Nashik","locationConfidence":"approximate","Rating":"3.9"}},{"type":"Feature","geometry":{"type":"Point","coordinates":[73.788678,19.999161]},"properties":{"Name":"Bhalerao & Sons Petroleum","Address":"Malegaon Dhule Road Devarpada, Nashik","locationConfidence":"approximate","Rating":"4.0"}},{"type":"Feature","geometry":{"type":"Point","coordinates":[73.805142,20.010054]},"properties":{"Name":"Helen Pump Station","Address":"Om Nagar Adgaon Naka, Nashik","locationConfidence":"locality-match","Rating":"3.4"}},{"type":"Feature","geometry":{"type":"Point","coordinates":[73.774248,20.00869]},"properties":{"Name":"BPCL Shivneri Pump Station Services","Address":"National Highway 3 Vilholi, Nashik","locationConfidence":"approximate","Rating":"4.1"}},{"type":"Feature","geometry":{"type":"Point","coordinates":[73.780262,19.981671]},"properties":{"Name":"Nayara - Vitthalpant Petroleum","Address":"Gut No.672 (P Wani Road Pimpalgaon Baswant, Nashik","locationConfidence":"approximate","Rating":"3.9"}},{"type":"Feature","geometry":{"type":"Point","coordinates":[73.805066,19.987214]},"properties":{"Name":"Aadhav Petroleum Bpcl","Address":"Panchak Nashik Upnagar, Nashik","locationConfidence":"approximate","Rating":"3.5"}},{"type":"Feature","geometry":{"type":"Point","coordinates":[73.82783,19.923676]},"properties":{"Name":"Gaikwad Pump Station","Address":"Aute Nagar Gandhi Nagar Airport Area Deolali Gaon, Nashik","locationConfidence":"locality-match","Rating":"3.8"}},{"type":"Feature","geometry":{"type":"Point","coordinates":[73.829384,19.92422]},"properties":{"Name":"Petromine Auto Services","Address":"Deolali Gaon Gayakhe Colony, Nashik","locationConfidence":"locality-match","Rating":"3.5"}},{"type":"Feature","geometry":{"type":"Point","coordinates":[73.802577,19.995443]},"properties":{"Name":"Pragati Petrol Pump (Essar)","Address":"Aurangabad Road Upnagar, Nashik","locationConfidence":"approximate","Rating":"3.8"}},{"type":"Feature","geometry":{"type":"Point","coordinates":[73.99074,19.83838]},"properties":{"Name":"Samrat Pump Station","Address":"Ghoti Sinnar Road Ghoti, Nashik","locationConfidence":"locality-match","Rating":"3.8"}},{"type":"Feature","geometry":{"type":"Point","coordinates":[73.989635,19.840488]},"properties":{"Name":"Gurewadi Pump Station (Bharat Petroleum)","Address":"Gurewadi Sinnar, Nashik","locationConfidence":"locality-match","Rating":"3.9"}},{"type":"Feature","geometry":{"type":"Point","coordinates":[73.790121,19.998647]},"properties":{"Name":"Devare Pump Station","Address":"Shivar -Vidhate Nagar Tirumla Nagar Wadala Gaon Wadala, Nashik","locationConfidence":"approximate","Rating":"3.8"}},{"type":"Feature","geometry":{"type":"Point","coordinates":[73.794659,20.01483]},"properties":{"Name":"Aakash Pump Station","Address":"Vaiduwadi, Nashik","locationConfidence":"approximate","Rating":"3.8"}},{"type":"Feature","geometry":{"type":"Point","coordinates":[73.989573,19.840297]},"properties":{"Name":"Shri Kuber Fuel Hp Petrol Pump","Address":"Ghoti Sinnar Road Ambad, Nashik","locationConfidence":"locality-match","Rating":"3.6"}},{"type":"Feature","geometry":{"type":"Point","coordinates":[73.565575,19.696203]},"properties":{"Name":"Shri Kuber Pump Station","Address":"At Village Ubhade Ghoti Sinnar Road Daundat, Igatpuri","locationConfidence":"locality-match","Rating":"3.7"}},{"type":"Feature","geometry":{"type":"Point","coordinates":[73.564587,19.696296]},"properties":{"Name":"Bharat Petroleum Petrol Pump -R.N.Gupta Brothers & Sons","Address":"Nasik Talegaon, Igatpuri","locationConfidence":"locality-match","Rating":"4.0"}},{"type":"Feature","geometry":{"type":"Point","coordinates":[73.794691,19.994291]},"properties":{"Name":"Maharashtra Natural Gas Ltd","Address":"CNG Mumbai Agra Highway NH3 Vadali Bhoi, Nashik","locationConfidence":"approximate","Rating":"3.8"}},{"type":"Feature","geometry":{"type":"Point","coordinates":[73.779707,19.984271]},"properties":{"Name":"Bharat Petroleum","Address":"C.B.S.Nasik Nasik, Nashik","locationConfidence":"approximate","Rating":"3.8"}},{"type":"Feature","geometry":{"type":"Point","coordinates":[73.989694,19.838927]},"properties":{"Name":"Mauli Pump Station","Address":"Sinnar, Nashik","locationConfidence":"locality-match","Rating":"4.5"}},{"type":"Feature","geometry":{"type":"Point","coordinates":[73.74463,19.966772]},"properties":{"Name":"Dura Auto Lpg Gas","Address":"Ambad Link Road Ambad, Nashik","locationConfidence":"locality-match","Rating":"4.1"}},{"type":"Feature","geometry":{"type":"Point","coordinates":[73.784864,20.011776]},"properties":{"Name":"Krishna Pump Station","Address":"Zodge Zodga, Nashik","locationConfidence":"approximate","Rating":"3.8"}},{"type":"Feature","geometry":{"type":"Point","coordinates":[73.988613,19.840672]},"properties":{"Name":"Yashraj Petroleum","Address":"Sinnar Taluka Maharashtra Nandurshingote, Nashik","locationConfidence":"locality-match","Rating":"3.8"}},{"type":"Feature","geometry":{"type":"Point","coordinates":[73.768539,19.956465]},"properties":{"Name":"Padmalay Petroleum","Address":"908Pathardi ShivarPathardi Phata Dnyaneshwar Nagar, Nashik","locationConfidence":"locality-match","Rating":"4.1"}},{"type":"Feature","geometry":{"type":"Point","coordinates":[73.813833,19.984335]},"properties":{"Name":"Ghoderao Petrol Pump","Address":"Karwadi, Nashik","locationConfidence":"approximate","Rating":"4.6"}},{"type":"Feature","geometry":{"type":"Point","coordinates":[73.79505,19.983237]},"properties":{"Name":"Neev Pump Station Cng Gas Station (Indian Oil)","Address":"Mh Sh 45 Dodi Bk. Maharashtra Dodi, Nashik","locationConfidence":"approximate","Rating":"3.6"}},{"type":"Feature","geometry":{"type":"Point","coordinates":[73.794188,19.989017]},"properties":{"Name":"Kasturi Fuel Plaza","Address":"Rajiv Nagar, Nashik","locationConfidence":"approximate","Rating":"3.9"}},{"type":"Feature","geometry":{"type":"Point","coordinates":[73.788954,19.997899]},"properties":{"Name":"M S Deore Petroleum (Hindustan Petroleum)","Address":"Canal Road Madina Nagar, Nashik","locationConfidence":"approximate","Rating":"3.8"}},{"type":"Feature","geometry":{"type":"Point","coordinates":[73.778569,20.017283]},"properties":{"Name":"Matoshree Pump Station","Address":"Ugaon Road Runwal Nagar, Nashik","locationConfidence":"approximate","Rating":"4.2"}},{"type":"Feature","geometry":{"type":"Point","coordinates":[73.77328,20.018866]},"properties":{"Name":"Bharat Petroleum Petrol Pump -Shivaji Y Tungar","Address":"Trimbakeshwar Road Trimbak, Nashik","locationConfidence":"approximate","Rating":"3.6"}}]}