{"type":"FeatureCollection","features":[{"type":"Feature","geometry":{"type":"Point","coordinates":[73.7237066,19.9856704]},"properties":{"Taluka":"Nashik","Zone":"Cidco / Gangapur","Category":"Police Chowky / Outpost","Name":"Ambad Police Chowki","Type":"Government Office","Review Count":"0","Address":"XPPF+7F8, near Papaya's Nursery, Anand Colony, Nashik, Maharashtra 422007, India","Open Now":"true","Maps Link":"https://maps.google.com/?cid=9701769569479593584&g_mp=Cidnb29nbGUubWFwcy5wbGFjZXMudjEuUGxhY2VzLlNlYXJjaFRleHQQAhgEIAA","Phone":"+91-0253-2371533","Email":"ps.ambad.nashikcp@mahapolice.gov.in"}},{"type":"Feature","geometry":{"type":"Point","coordinates":[73.7136989,19.989289]},"properties":{"Taluka":"Nashik","Zone":"Cidco / Gangapur","Category":"Police Chowky / Outpost","Name":"Ashok Nagar Police Chowki","Type":"Government Office","Review Count":"0","Phone":"0253 230 5237","Address":"Sir Gorakhe K A Road, Ashoknagar, Satpur, Ashoknagar, Satpur Colony, Nashik, Maharashtra 422012, India","Maps Link":"https://maps.google.com/?cid=6333167335578247028&g_mp=Cidnb29nbGUubWFwcy5wbGFjZXMudjEuUGxhY2VzLlNlYXJjaFRleHQQAhgEIAA"}},{"type":"Feature","geometry":{"type":"Point","coordinates":[73.7582236,20.0073554]},"properties":{"Taluka":"Nashik","Zone":"Cidco / Gangapur","Category":"Police Chowky / Outpost","Name":"College Road Police Chowki","Type":"Government Office","Review Count":"0","Phone":"0253 230 5242","Address":"2Q45+W7X, College Rd, Kalpana Nagar, Nashik, Maharashtra 422005, India","Open Now":"true","Maps Link":"https://maps.google.com/?cid=7904056622374948784&g_mp=Cidnb29nbGUubWFwcy5wbGFjZXMudjEuUGxhY2VzLlNlYXJjaFRleHQQAhgEIAA"}},{"type":"Feature","geometry":{"type":"Point","coordinates":[73.7617544,20.0177962]},"properties":{"Taluka":"Nashik","Zone":"Cidco / Gangapur","Category":"Police Chowky / Outpost","Name":"Dadoji Kondev Police Chowky","Type":"Government Office","Review Count":"0","Phone":"0253 230 5242","Address":"Shantiniketan Road, near Nirmala Convent, 2Q96+4P6, Gangapur Rd, Near Nirmala Convent, D. K. Nagar, Nashik, Maharashtra 422013, India","Maps Link":"https://maps.google.com/?cid=2977485476796869258&g_mp=Cidnb29nbGUubWFwcy5wbGFjZXMudjEuUGxhY2VzLlNlYXJjaFRleHQQAhgEIAA"}},{"type":"Feature","geometry":{"type":"Point","coordinates":[73.7487361,19.9838496]},"properties":{"Taluka":"Nashik","Zone":"Cidco / Gangapur","Category":"Police Chowky / Outpost","Name":"Khutwad nagar police chowky","Type":"Government Office","Review Count":"0","Address":"XPMX+GFQ, Pandav Nagari, Mogal Nagar, Nashik, Maharashtra 422008, India","Maps Link":"https://maps.google.com/?cid=790174516089904542&g_mp=Cidnb29nbGUubWFwcy5wbGFjZXMudjEuUGxhY2VzLlNlYXJjaFRleHQQAhgEIAA"}},{"type":"Feature","geometry":{"type":"Point","coordinates":[73.7338004,19.9906851]},"properties":{"Taluka":"Nashik","Zone":"Cidco / Gangapur","Category":"Police Chowky / Outpost","Name":"Tawon Police Chowky","Type":"Government Office","Review Count":"0","Phone":"0253 230 5239","Address":"XPRM+7GF, Satpur Gaon, Satpur Colony, Nashik, Maharashtra 422007, India","Maps Link":"https://maps.google.com/?cid=652409085803638198&g_mp=Cidnb29nbGUubWFwcy5wbGFjZXMudjEuUGxhY2VzLlNlYXJjaFRleHQQAhgEIAA"}},{"type":"Feature","geometry":{"type":"Point","coordinates":[73.7476784,20.0119912]},"properties":{"Taluka":"Nashik","Zone":"Cidco / Gangapur","Category":"Police Station","Name":"Anandwalli Police Chouki","Type":"Government Office","Review Count":"0","Phone":"0253 230 5242","Address":"2P6X+Q3V, Gangapur Rd, Near NMC School No. 71 & 33, Kale Nagar, Vivekanand Nagar, Anandvalli, Nashik, Maharashtra 422013, India","Open Now":"true","Maps Link":"https://maps.google.com/?cid=4321781470868858912&g_mp=Cidnb29nbGUubWFwcy5wbGFjZXMudjEuUGxhY2VzLlNlYXJjaFRleHQQAhgEIAA"}},{"type":"Feature","geometry":{"type":"Point","coordinates":[73.7500704,20.014267]},"properties":{"Taluka":"Nashik","Zone":"Cidco / Gangapur","Category":"Police Station","Name":"Gangapur Police Station","Type":"Government Office","Review Count":"0","Phone":"0253 230 5242","Address":"2Q72+P24, Gangapur Rd, Chintamani Colony, Shanker Nagar, Savarkar Nagar, Nashik, Maharashtra 422013, India","Open Now":"true","Maps Link":"https://maps.google.com/?cid=4339415314254860076&g_mp=Cidnb29nbGUubWFwcy5wbGFjZXMudjEuUGxhY2VzLlNlYXJjaFRleHQQAhgEIAA","Email":"ps.gangapur.nashikcp@mahapolice.gov.in"}},{"type":"Feature","geometry":{"type":"Point","coordinates":[73.7539828,19.99754]},"properties":{"Taluka":"Nashik","Zone":"Cidco / Gangapur","Category":"Police Station","Name":"Mahatma Nagar Police Station","Rating":"5","Review Count":"1","Address":"XQX3+2H9, Dr BS Moonje Marg, Mahatma Nagar, Parijat Nagar, Nashik, Maharashtra 422005, India","Maps Link":"https://maps.google.com/?cid=5152928736119090046&g_mp=Cidnb29nbGUubWFwcy5wbGFjZXMudjEuUGxhY2VzLlNlYXJjaFRleHQQAhgEIAA"}},{"type":"Feature","geometry":{"type":"Point","coordinates":[73.754077,19.99748]},"properties":{"Taluka":"Nashik","Zone":"Cidco / Gangapur","Category":"Police Station","Name":"Police Station","Type":"Government Office","Review Count":"0","Phone":"099231 55233","Address":"plot no 68, Dr BS Moonje Marg, Mahatma Nagar, Parijat Nagar, Nashik, Maharashtra 422005, India","Maps Link":"https://maps.google.com/?cid=5759482667779126268&g_mp=Cidnb29nbGUubWFwcy5wbGFjZXMudjEuUGxhY2VzLlNlYXJjaFRleHQQAhgEIAA"}},{"type":"Feature","geometry":{"type":"Point","coordinates":[73.7429087,19.9914342]},"properties":{"Taluka":"Nashik","Zone":"Cidco / Gangapur","Category":"Police Station","Name":"Satpur Police Station","Type":"Government Office","Review Count":"0","Phone":"0253 230 5237","Address":"XPRV+H5F, Trambakeshwar Rd, MIDC, Satpur Colony, Nashik, Maharashtra 422005, India","Website":"https://nashikcitypolice.gov.in/police-station-incharge","Open Now":"true","Maps Link":"https://maps.google.com/?cid=17770324806394303413&g_mp=Cidnb29nbGUubWFwcy5wbGFjZXMudjEuUGxhY2VzLlNlYXJjaFRleHQQAhgEIAA","Email":"satpur_police@nashikpolice.com"}},{"type":"Feature","geometry":{"type":"Point","coordinates":[73.8295902,19.9023137]},"properties":{"Taluka":"Nashik","Zone":"Devlali Camp & Deolali Gaon","Category":"Police Station","Name":"Adke nagar deolali camp","Type":"Government Office","Review Count":"0","Phone":"0253 249 1233","Address":"WR2H+WRG, Howson Rd, Bus Stop, Deolali Camp, Nashik, Sansari, Maharashtra 422401, India","Maps Link":"https://maps.google.com/?cid=743702562190118023&g_mp=Cidnb29nbGUubWFwcy5wbGFjZXMudjEuUGxhY2VzLlNlYXJjaFRleHQQAhgEIAA"}},{"type":"Feature","geometry":{"type":"Point","coordinates":[73.7065765,19.9909088]},"properties":{"Taluka":"Nashik","Zone":"Govardhan / Gangapur Dam","Category":"Police Chowky / Outpost","Name":"Bolkar valley police chowky","Type":"Government Office","Review Count":"0","Address":"Chamunda nagar, Ashoknagar, Satpur Colony, Nashik, Maharashtra 422012, India","Open Now":"true","Maps Link":"https://maps.google.com/?cid=6826000218138776881&g_mp=Cidnb29nbGUubWFwcy5wbGFjZXMudjEuUGxhY2VzLlNlYXJjaFRleHQQAhgEIAA"}},{"type":"Feature","geometry":{"type":"Point","coordinates":[73.7230297,20.0236738]},"properties":{"Taluka":"Nashik","Zone":"Govardhan / Gangapur Dam","Category":"Police Station","Name":"Add. Sp.gangapur","Type":"Local Government Office","Review Count":"0","Address":"2PFF+F66, Gangapur Rd, Sector-A, Anandvalli, Nashik, Maharashtra 422222, India","Maps Link":"https://maps.google.com/?cid=6254096932537095304&g_mp=Cidnb29nbGUubWFwcy5wbGFjZXMudjEuUGxhY2VzLlNlYXJjaFRleHQQAhgEIAA"}},{"type":"Feature","geometry":{"type":"Point","coordinates":[73.8454259,19.9871361]},"properties":{"Taluka":"Nashik","Zone":"Indira Nagar / Eklahare","Category":"Police Chowky / Outpost","Name":"Dasak Police Chowki","Type":"Government Office","Review Count":"0","Phone":"0253 246 5533","Address":"XRPW+V53, Jail Rd, Dhara Society, Nashik Rd, Nashik, Maharashtra 422101, India","Maps Link":"https://maps.google.com/?cid=13439658536452793052&g_mp=Cidnb29nbGUubWFwcy5wbGFjZXMudjEuUGxhY2VzLlNlYXJjaFRleHQQAhgEIAA"}},{"type":"Feature","geometry":{"type":"Point","coordinates":[73.7882595,19.9960984]},"properties":{"Taluka":"Nashik","Zone":"Nashik Central","Category":"Police Chowky / Outpost","Name":"Ganjmal Police Chowki","Type":"Government Office","Review Count":"0","Address":"XQWQ+C8J, Sahkar Nagar, Ganjmal, Nashik, Maharashtra 422001, India","Maps Link":"https://maps.google.com/?cid=92088858374789922&g_mp=Cidnb29nbGUubWFwcy5wbGFjZXMudjEuUGxhY2VzLlNlYXJjaFRleHQQAhgEIAA"}},{"type":"Feature","geometry":{"type":"Point","coordinates":[73.7802449,19.9976379]},"properties":{"Taluka":"Nashik","Zone":"Nashik Central","Category":"Police Chowky / Outpost","Name":"Maharashtra Police Chowki","Type":"Government Office","Review Count":"0","Phone":"0253 230 5214","Address":"XQXJ+335, Trambakeshwar Rd, Thakkar Bazar, Trimbak Naka, Thakkar Nagar, Police Staff Colony, Nashik, Maharashtra 422002, India","Maps Link":"https://maps.google.com/?cid=17248067664092129979&g_mp=Cidnb29nbGUubWFwcy5wbGFjZXMudjEuUGxhY2VzLlNlYXJjaFRleHQQAhgEIAA"}},{"type":"Feature","geometry":{"type":"Point","coordinates":[73.7955895,19.9701469]},"properties":{"Taluka":"Nashik","Zone":"Nashik Central","Category":"Police Chowky / Outpost","Name":"Wadala Gaon Police Chowki","Type":"Government Office","Review Count":"0","Phone":"0253 232 1733","Address":"XQCW+364, Wadala Rd, Wadala Gaon, Nashik, Maharashtra 422006, India","Open Now":"true","Maps Link":"https://maps.google.com/?cid=18426599418833093912&g_mp=Cidnb29nbGUubWFwcy5wbGFjZXMudjEuUGxhY2VzLlNlYXJjaFRleHQQAhgEIAA"}},{"type":"Feature","geometry":{"type":"Point","coordinates":[73.7696312,19.9948292]},"properties":{"Taluka":"Nashik","Zone":"Nashik Central","Category":"Police Chowky / Outpost","Name":"शरणपुर पोलीस चौकी","Type":"Government Office","Review Count":"0","Address":"शरणपुर, XQV9+WVJ, Holaram Colony, Sharanpur, Nashik, Maharashtra 422002, India","Maps Link":"https://maps.google.com/?cid=7862209523889778832&g_mp=Cidnb29nbGUubWFwcy5wbGFjZXMudjEuUGxhY2VzLlNlYXJjaFRleHQQAhgEIAA"}},{"type":"Feature","geometry":{"type":"Point","coordinates":[73.781435,20.0013249]},"properties":{"Taluka":"Nashik","Zone":"Nashik Central","Category":"Police Station","Name":"Anand Nagar Police Station","Type":"Services","Review Count":"0","Address":"Nagerbhumapan no 247, plot no27 ananadnager, behind padavlene, paterdi, Nashik, Maharashtra 422002, India","Maps Link":"https://maps.google.com/?cid=5674861533397960063&g_mp=Cidnb29nbGUubWFwcy5wbGFjZXMudjEuUGxhY2VzLlNlYXJjaFRleHQQAhgEIAA"}},{"type":"Feature","geometry":{"type":"Point","coordinates":[73.7892075,19.9977994]},"properties":{"Taluka":"Nashik","Zone":"Nashik Central","Category":"Police Station","Name":"Bhadrakali police station","Type":"Government Office","Review Count":"0","Phone":"0253 230 5254","Address":"XQXQ+4M8, Gotane Wada, Nashik, Maharashtra 422001, India","Open Now":"true","Maps Link":"https://maps.google.com/?cid=8541025097419076286&g_mp=Cidnb29nbGUubWFwcy5wbGFjZXMudjEuUGxhY2VzLlNlYXJjaFRleHQQAhgEIAA","Email":"bhadrakali_police@nashikpolice.com"}},{"type":"Feature","geometry":{"type":"Point","coordinates":[73.7887047,19.9974396]},"properties":{"Taluka":"Nashik","Zone":"Nashik Central","Category":"Police Station","Name":"Bhadrakali police station Flea market","Type":"Building","Review Count":"0","Address":"XQWQ+XF8 Bhadrakali police station Flea market, Old Nashik, Koknipura, Nashik, Maharashtra 422001, India","Maps Link":"https://maps.google.com/?cid=9494828281512462966&g_mp=Cidnb29nbGUubWFwcy5wbGFjZXMudjEuUGxhY2VzLlNlYXJjaFRleHQQAhgEIAA"}},{"type":"Feature","geometry":{"type":"Point","coordinates":[73.78268,20.000863]},"properties":{"Taluka":"Nashik","Zone":"Nashik Central","Category":"Police Station","Name":"C.B.S.Police Station Bhadrakali","Type":"Government Office","Review Count":"0","Phone":"0253 230 5214","Address":"2Q2M+83V, Gangapur Rd, Opp.KTHM College, Shalimar, Nashik, Maharashtra 422001, India","Maps Link":"https://maps.google.com/?cid=3555741579959928725&g_mp=Cidnb29nbGUubWFwcy5wbGFjZXMudjEuUGxhY2VzLlNlYXJjaFRleHQQAhgEIAA"}},{"type":"Feature","geometry":{"type":"Point","coordinates":[73.7805902,20.0023592]},"properties":{"Taluka":"Nashik","Zone":"Nashik Central","Category":"Police Station","Name":"Cyber Police Station Nashik Police","Type":"Police","Review Count":"0","Address":"2Q2J+W6W, Police Staff Colony, Nashik, Maharashtra 422002, India","Open Now":"true","Maps Link":"https://maps.google.com/?cid=12824687607806524276&g_mp=Cidnb29nbGUubWFwcy5wbGFjZXMudjEuUGxhY2VzLlNlYXJjaFRleHQQAhgEIAA"}},{"type":"Feature","geometry":{"type":"Point","coordinates":[73.7832909,19.99402]},"properties":{"Taluka":"Nashik","Zone":"Nashik Central","Category":"Police Station","Name":"Godavari","Type":"Government Office","Review Count":"0","Address":"XQVM+J83, Opposite Shingda Talav, Gadkari Chowk, Mohan Nagar, Nashik, Maharashtra 422001, India","Maps Link":"https://maps.google.com/?cid=6023548925307242155&g_mp=Cidnb29nbGUubWFwcy5wbGFjZXMudjEuUGxhY2VzLlNlYXJjaFRleHQQAhgEIAA"}},{"type":"Feature","geometry":{"type":"Point","coordinates":[73.7839168,19.9875911]},"properties":{"Taluka":"Nashik","Zone":"Nashik Central","Category":"Police Station","Name":"Mumbai Naka Police Station","Type":"Government Office","Review Count":"0","Phone":"0253 259 3300","Address":"XQQM+2HM, Old Agra Rd, Mumbai Naka, Renuka Nagar, Nashik, Maharashtra 422002, India","Website":"https://nashikcitypolice.gov.in/police_station/6","Maps Link":"https://maps.google.com/?cid=10668927454257939548&g_mp=Cidnb29nbGUubWFwcy5wbGFjZXMudjEuUGxhY2VzLlNlYXJjaFRleHQQAhgEIAA","Email":"pi-mnakanashik@mahapolice.gov.in"}},{"type":"Feature","geometry":{"type":"Point","coordinates":[73.7792861,20.0020771]},"properties":{"Taluka":"Nashik","Zone":"Nashik Central","Category":"Police Station","Name":"NASHIK CITY POLICE STATION NEW","Type":"Building","Review Count":"0","Address":"NASHIK CITY POLICE STATION NEW, Police Staff Colony, Nashik, Maharashtra 422002, India","Maps Link":"https://maps.google.com/?cid=1743424155701855284&g_mp=Cidnb29nbGUubWFwcy5wbGFjZXMudjEuUGxhY2VzLlNlYXJjaFRleHQQAhgEIAA"}},{"type":"Feature","geometry":{"type":"Point","coordinates":[73.7806257,20.00087]},"properties":{"Taluka":"Nashik","Zone":"Nashik Central","Category":"Police Station","Name":"Nashik Taluka Police Station","Type":"Government Office","Review Count":"0","Phone":"0253 230 9711","Address":"2Q2J+87R, Sharanpur Rd, Opp. Mela Bus Station, Police Staff Colony, Nashik, Maharashtra 422002, India","Website":"https://nashik.gov.in/police-station-rural/","Maps Link":"https://maps.google.com/?cid=14695180556187739716&g_mp=Cidnb29nbGUubWFwcy5wbGFjZXMudjEuUGxhY2VzLlNlYXJjaFRleHQQAhgEIAA"}},{"type":"Feature","geometry":{"type":"Point","coordinates":[73.7696521,19.9974593]},"properties":{"Taluka":"Nashik","Zone":"Nashik Central","Category":"Police Station","Name":"Police Ayuktalaya","Type":"Government Office","Review Count":"0","Address":"XQW9+XVJ, Sharanpur Link Rd, P & T Colony, Holaram Colony, P&T Colony, Nashik, Maharashtra 422002, India","Maps Link":"https://maps.google.com/?cid=13658012742674747883&g_mp=Cidnb29nbGUubWFwcy5wbGFjZXMudjEuUGxhY2VzLlNlYXJjaFRleHQQAhgEIAA"}},{"type":"Feature","geometry":{"type":"Point","coordinates":[73.7802629,19.9976999]},"properties":{"Taluka":"Nashik","Zone":"Nashik Central","Category":"Police Station","Name":"Police Sahayata Kendra","Type":"Government Office","Review Count":"0","Address":"XQXJ+34C, Near Bus Stop, Thakkar Bazar, Trimbak Naka, Police Staff Colony, Nashik, Maharashtra 422002, India","Maps Link":"https://maps.google.com/?cid=4448256328392563145&g_mp=Cidnb29nbGUubWFwcy5wbGFjZXMudjEuUGxhY2VzLlNlYXJjaFRleHQQAhgEIAA"}},{"type":"Feature","geometry":{"type":"Point","coordinates":[73.789031,19.976052]},"properties":{"Taluka":"Nashik","Zone":"Nashik Central","Category":"Police Station","Name":"Sai Nath Nagar Police Station","Type":"Government Office","Review Count":"0","Address":"XQGQ+CJC, Pathardi Rd, Indira Nagar, Nashik, Maharashtra 422009, India","Maps Link":"https://maps.google.com/?cid=6980417429298469832&g_mp=Cidnb29nbGUubWFwcy5wbGFjZXMudjEuUGxhY2VzLlNlYXJjaFRleHQQAhgEIAA"}},{"type":"Feature","geometry":{"type":"Point","coordinates":[73.7910974,19.9800353]},"properties":{"Taluka":"Nashik","Zone":"Nashik Central","Category":"Police Station","Name":"Vinay nagar police station chauki","Type":"Government Office","Review Count":"0","Address":"Vinaynagar, Bus Stop, Pathardi Rd, Vinay Nagar, Nashik, Maharashtra 422006, India","Maps Link":"https://maps.google.com/?cid=6722501557250304415&g_mp=Cidnb29nbGUubWFwcy5wbGFjZXMudjEuUGxhY2VzLlNlYXJjaFRleHQQAhgEIAA"}},{"type":"Feature","geometry":{"type":"Point","coordinates":[73.7836449,19.9937979]},"properties":{"Taluka":"Nashik","Zone":"Nashik Central","Category":"Police Station","Name":"Vishesh Police Mahanirishak","Type":"Government Office","Review Count":"0","Address":"XQVM+GF6, Nashik Parikshethra, Mohan Nagar, Nashik, Maharashtra 422001, India","Open Now":"true","Maps Link":"https://maps.google.com/?cid=13937861323830297156&g_mp=Cidnb29nbGUubWFwcy5wbGFjZXMudjEuUGxhY2VzLlNlYXJjaFRleHQQAhgEIAA"}},{"type":"Feature","geometry":{"type":"Point","coordinates":[73.7696814,19.9949352]},"properties":{"Taluka":"Nashik","Zone":"Nashik Central","Category":"Women's Police Station","Name":"Women cell sharnpur rd","Type":"Police","Review Count":"0","Address":"XQV9+XV6, Holaram Colony, Sharanpur, Nashik, Maharashtra 422002, India","Maps Link":"https://maps.google.com/?cid=8428483693070364297&g_mp=Cidnb29nbGUubWFwcy5wbGFjZXMudjEuUGxhY2VzLlNlYXJjaFRleHQQAhgEIAA"}},{"type":"Feature","geometry":{"type":"Point","coordinates":[73.8307653,19.9590195]},"properties":{"Taluka":"Nashik","Zone":"Nashik Road","Category":"Police Station","Name":"Bytco Police Station","Type":"Government Office","Review Count":"0","Phone":"0253 241 5641","Address":"Near Bytco College, Bytco Point, Nashik-Pune Road, XR5J+J82, Gayakhe Colony, Nashik Road, Nashik, Maharashtra 422101, India","Maps Link":"https://maps.google.com/?cid=7653921450768865318&g_mp=Cidnb29nbGUubWFwcy5wbGFjZXMudjEuUGxhY2VzLlNlYXJjaFRleHQQAhgEIAA"}},{"type":"Feature","geometry":{"type":"Point","coordinates":[73.8316172,19.9437871]},"properties":{"Taluka":"Nashik","Zone":"Nashik Road","Category":"Police Station","Name":"Deolali Gaon Police Station","Type":"Police","Review Count":"0","Address":"WRVJ+GJ9, Deolali Gaon, Nashik, Maharashtra 422102, India","Maps Link":"https://maps.google.com/?cid=9212634287465292621&g_mp=Cidnb29nbGUubWFwcy5wbGFjZXMudjEuUGxhY2VzLlNlYXJjaFRleHQQAhgEIAA","Phone":"+91-0253-2491250","Email":"ps.devlali.nashikcp@mahapolice.gov.in"}},{"type":"Feature","geometry":{"type":"Point","coordinates":[73.836614,19.955682]},"properties":{"Taluka":"Nashik","Zone":"Nashik Road","Category":"Police Station","Name":"Maharashtra State Electricity Board Police Station","Type":"Government Office","Review Count":"0","Phone":"0253 246 5533","Address":"Vidyut Bhavan, DattaMandir, Nashik Road, Nashik, Maharashtra 422101, India","Maps Link":"https://maps.google.com/?cid=14995220572477701015&g_mp=Cidnb29nbGUubWFwcy5wbGFjZXMudjEuUGxhY2VzLlNlYXJjaFRleHQQAhgEIAA"}},{"type":"Feature","geometry":{"type":"Point","coordinates":[73.8397366,19.9528351]},"properties":{"Taluka":"Nashik","Zone":"Nashik Road","Category":"Police Station","Name":"Nashik Road Police Station","Type":"Government Office","Review Count":"0","Phone":"0253 246 5533","Address":"XR3Q+4VQ, near Hotel Avanti, Government Colony, Nashik, Maharashtra 422101, India","Website":"https://nashikcitypolice.gov.in/police_station/14","Open Now":"true","Maps Link":"https://maps.google.com/?cid=15774850624004263553&g_mp=Cidnb29nbGUubWFwcy5wbGFjZXMudjEuUGxhY2VzLlNlYXJjaFRleHQQAhgEIAA","Email":"ps.nskroad.nashikcp@mahapolice.gov.in"}},{"type":"Feature","geometry":{"type":"Point","coordinates":[73.825262,19.968517]},"properties":{"Taluka":"Nashik","Zone":"Nashik Road","Category":"Police Station","Name":"Nehru Nagar Police Chauki","Type":"Government Office","Review Count":"0","Address":"XR9G+C42, Nehru Nager, Nashik, Maharashtra 422101, India","Maps Link":"https://maps.google.com/?cid=6591069778198492775&g_mp=Cidnb29nbGUubWFwcy5wbGFjZXMudjEuUGxhY2VzLlNlYXJjaFRleHQQAhgEIAA"}},{"type":"Feature","geometry":{"type":"Point","coordinates":[73.8228626,19.9723476]},"properties":{"Taluka":"Nashik","Zone":"Nashik Road","Category":"Police Station","Name":"New Upnagar Police Station","Type":"Government Office","Rating":"5","Review Count":"2","Address":"XRCF+W4Q, Matoshri Nagar, Upnagar, Nashik, Maharashtra 422006, India","Open Now":"true","Maps Link":"https://maps.google.com/?cid=7158955748353770311&g_mp=Cidnb29nbGUubWFwcy5wbGFjZXMudjEuUGxhY2VzLlNlYXJjaFRleHQQAhgEIAA","Phone":"+91-0253-2415641","Email":"ps.upnagar.nashikcp@mahapolice.gov.in"}},{"type":"Feature","geometry":{"type":"Point","coordinates":[73.8244033,19.9673809]},"properties":{"Taluka":"Nashik","Zone":"Nashik Road","Category":"Police Station","Name":"Upnagar Police Station","Type":"Government Office","Review Count":"0","Phone":"0253 241 5641","Address":"XR8F+XQ2, Nehru Nager, Nashik, Maharashtra 422101, India","Website":"http://mahapolice.gov.in/","Open Now":"true","Maps Link":"https://maps.google.com/?cid=5048512710955178497&g_mp=Cidnb29nbGUubWFwcy5wbGFjZXMudjEuUGxhY2VzLlNlYXJjaFRleHQQAhgEIAA"}},{"type":"Feature","geometry":{"type":"Point","coordinates":[73.7957809,19.9945083]},"properties":{"Taluka":"Nashik","Zone":"Panchavati","Category":"Police Chowky / Outpost","Name":"Dwarka Police Chowki","Type":"Government Office","Review Count":"0","Phone":"0253 230 5259","Address":"XQVW+R82, Wadala Naka, Dwarka, Nashik, Maharashtra 422001, India","Website":"http://www.mahapolice.gov.in/","Maps Link":"https://maps.google.com/?cid=15270979236012640462&g_mp=Cidnb29nbGUubWFwcy5wbGFjZXMudjEuUGxhY2VzLlNlYXJjaFRleHQQAhgEIAA"}},{"type":"Feature","geometry":{"type":"Point","coordinates":[73.7925811,20.0083508]},"properties":{"Taluka":"Nashik","Zone":"Panchavati","Category":"Police Chowky / Outpost","Name":"Kapaleshwar Police Chowki Madat Kendra","Type":"Government Office","Review Count":"0","Phone":"0253 262 9831","Address":"2Q5V+82W, Ramkund, Panchavati, Nashik, Maharashtra 422003, India","Open Now":"true","Maps Link":"https://maps.google.com/?cid=15502705809484674714&g_mp=Cidnb29nbGUubWFwcy5wbGFjZXMudjEuUGxhY2VzLlNlYXJjaFRleHQQAhgEIAA"}},{"type":"Feature","geometry":{"type":"Point","coordinates":[73.7914579,20.0095821]},"properties":{"Taluka":"Nashik","Zone":"Panchavati","Category":"Police Chowky / Outpost","Name":"Malegaon Stand Police Chowki","Type":"Government Office","Review Count":"0","Phone":"0253 262 9838","Address":"2Q5R+RHP, Malegaon Stand Signal, Panchavati, Nashik, Maharashtra 422003, India","Website":"http://www.nashikruralpolice.gov.in/","Open Now":"true","Maps Link":"https://maps.google.com/?cid=5396743623760411260&g_mp=Cidnb29nbGUubWFwcy5wbGFjZXMudjEuUGxhY2VzLlNlYXJjaFRleHQQAhgEIAA"}},{"type":"Feature","geometry":{"type":"Point","coordinates":[73.803185,20.0323539]},"properties":{"Taluka":"Nashik","Zone":"Panchavati","Category":"Police Chowky / Outpost","Name":"Meri Police Chowki","Type":"Government Office","Review Count":"0","Address":"2RJ3+W7V, Dindori Rd, CDO-MERI Colony, Nashik, Maharashtra 422004, India","Open Now":"true","Maps Link":"https://maps.google.com/?cid=14496345541433463660&g_mp=Cidnb29nbGUubWFwcy5wbGFjZXMudjEuUGxhY2VzLlNlYXJjaFRleHQQAhgEIAA"}},{"type":"Feature","geometry":{"type":"Point","coordinates":[73.8023889,20.0325418]},"properties":{"Taluka":"Nashik","Zone":"Panchavati","Category":"Police Chowky / Outpost","Name":"Mhasrul Police Post","Type":"Government Office","Review Count":"0","Address":"Vani - Dindori Rd, Mhasrul Gaon, Vaiduwadi, Nashik, Maharashtra 422004, India","Open Now":"true","Maps Link":"https://maps.google.com/?cid=13208309615054649829&g_mp=Cidnb29nbGUubWFwcy5wbGFjZXMudjEuUGxhY2VzLlNlYXJjaFRleHQQAhgEIAA","Phone":"+91-0253-2533233","Email":"mhasrul_police@nashikpolice.com"}},{"type":"Feature","geometry":{"type":"Point","coordinates":[73.7978836,19.9983548]},"properties":{"Taluka":"Nashik","Zone":"Panchavati","Category":"Police Chowky / Outpost","Name":"Nanawali Police Chowki","Type":"Government Office","Review Count":"0","Phone":"0253 230 5235","Address":"XQXX+85R, OId Nashik, Nanavali, Nashik, Maharashtra 422001, India","Maps Link":"https://maps.google.com/?cid=9975564522082741973&g_mp=Cidnb29nbGUubWFwcy5wbGFjZXMudjEuUGxhY2VzLlNlYXJjaFRleHQQAhgEIAA"}},{"type":"Feature","geometry":{"type":"Point","coordinates":[73.791224,20.004036]},"properties":{"Taluka":"Nashik","Zone":"Panchavati","Category":"Police Chowky / Outpost","Name":"Nehru Chowk Police Chowki","Type":"Government Office","Review Count":"0","Address":"Nehru Chowk, Dahipul, Saraf Bazar, Shalimar, Nashik, Maharashtra 422001, India","Maps Link":"https://maps.google.com/?cid=7570342682400023559&g_mp=Cidnb29nbGUubWFwcy5wbGFjZXMudjEuUGxhY2VzLlNlYXJjaFRleHQQAhgEIAA"}},{"type":"Feature","geometry":{"type":"Point","coordinates":[73.7888878,19.9992337]},"properties":{"Taluka":"Nashik","Zone":"Panchavati","Category":"Police Chowky / Outpost","Name":"Trambak Police Chowki","Type":"Government Office","Review Count":"0","Address":"XQXQ+MHR, Khadkali, Bhadrakali, Dood Bazar, Nashik, Maharashtra 422001, India","Open Now":"true","Maps Link":"https://maps.google.com/?cid=1130391192880332823&g_mp=Cidnb29nbGUubWFwcy5wbGFjZXMudjEuUGxhY2VzLlNlYXJjaFRleHQQAhgEIAA"}},{"type":"Feature","geometry":{"type":"Point","coordinates":[73.8044709,19.989981]},"properties":{"Taluka":"Nashik","Zone":"Panchavati","Category":"Police Chowky / Outpost","Name":"त्रिकोणी गार्डन पोलिस चौकी trikoni garden police chauki","Type":"Government Office","Review Count":"0","Phone":"2305254","Address":"Kathe Galli, XRR4+322 Bus Stop, Kathe Ln, Dwarka, Nashik, Maharashtra 422011, India","Open Now":"true","Maps Link":"https://maps.google.com/?cid=11243752663824307032&g_mp=Cidnb29nbGUubWFwcy5wbGFjZXMudjEuUGxhY2VzLlNlYXJjaFRleHQQAhgEIAA"}},{"type":"Feature","geometry":{"type":"Point","coordinates":[73.781471,20.0053103]},"properties":{"Taluka":"Nashik","Zone":"Panchavati","Category":"Police Commissionerate / HQ","Name":"Police Commissioner Office","Type":"Government Office","Review Count":"0","Phone":"0253 230 5233","Address":"192, Gangapur Rd, Opposite K.T.H.M. College, Police Staff Colony, Nashik, Maharashtra 422002, India","Website":"https://nashikcitypolice.gov.in/senior-officers","Maps Link":"https://maps.google.com/?cid=9579479110720426514&g_mp=Cidnb29nbGUubWFwcy5wbGFjZXMudjEuUGxhY2VzLlNlYXJjaFRleHQQAhgEIAA"}},{"type":"Feature","geometry":{"type":"Point","coordinates":[73.7815541,20.0045753]},"properties":{"Taluka":"Nashik","Zone":"Panchavati","Category":"Police Station","Name":"(Updated) Cyber Police station sarkarwada","Type":"Government Office","Review Count":"0","Address":"2Q3J+RJM, Police Staff Colony, Nashik, Maharashtra 422002, India","Website":"http://www.cybercrime.gov.in/","Open Now":"true","Maps Link":"https://maps.google.com/?cid=6789521541980804788&g_mp=Cidnb29nbGUubWFwcy5wbGFjZXMudjEuUGxhY2VzLlNlYXJjaFRleHQQAhgEIAA"}},{"type":"Feature","geometry":{"type":"Point","coordinates":[73.8269465,20.0154859]},"properties":{"Taluka":"Nashik","Zone":"Panchavati","Category":"Police Station","Name":"Adgoan Police Station","Type":"Government Office","Review Count":"0","Phone":"0253 297 0633","Address":"Behind Flora Height, Amrutdham, 2R8G+5QW, Agra - Mumbai Hwy, Tulshi Colony, Panchavati, Nashik, Maharashtra 422003, India","Website":"http://mahapolice.gov.in/","Open Now":"true","Maps Link":"https://maps.google.com/?cid=9198795452870818392&g_mp=Cidnb29nbGUubWFwcy5wbGFjZXMudjEuUGxhY2VzLlNlYXJjaFRleHQQAhgEIAA","Email":"ps.adgaon.nashikcp@mahapolice.gov.in"}},{"type":"Feature","geometry":{"type":"Point","coordinates":[73.781523,20.0054659]},"properties":{"Taluka":"Nashik","Zone":"Panchavati","Category":"Police Station","Name":"Crime Branch","Type":"Government Office","Review Count":"0","Address":"2Q4J+5JJ, Gole Colony, Nashik, Maharashtra 422002, India","Maps Link":"https://maps.google.com/?cid=9114684050142718420&g_mp=Cidnb29nbGUubWFwcy5wbGFjZXMudjEuUGxhY2VzLlNlYXJjaFRleHQQAhgEIAA"}},{"type":"Feature","geometry":{"type":"Point","coordinates":[73.7959526,20.0135287]},"properties":{"Taluka":"Nashik","Zone":"Panchavati","Category":"Police Station","Name":"Dindori Naka Police Station","Type":"Police","Review Count":"0","Address":"7, Dindori Rd, Loksahakar Nagar, Nashik, Maharashtra 422003, India","Maps Link":"https://maps.google.com/?cid=14137157863002353769&g_mp=Cidnb29nbGUubWFwcy5wbGFjZXMudjEuUGxhY2VzLlNlYXJjaFRleHQQAhgEIAA"}},{"type":"Feature","geometry":{"type":"Point","coordinates":[73.7901498,19.999114]},"properties":{"Taluka":"Nashik","Zone":"Panchavati","Category":"Police Station","Name":"Dodh Bazar Police Station","Type":"Government Office","Review Count":"0","Address":"XQXR+J3R, Doodh Bazar, Koknipura, Nashik, Maharashtra 422001, India","Maps Link":"https://maps.google.com/?cid=1774086148097617253&g_mp=Cidnb29nbGUubWFwcy5wbGFjZXMudjEuUGxhY2VzLlNlYXJjaFRleHQQAhgEIAA"}},{"type":"Feature","geometry":{"type":"Point","coordinates":[73.8010325,20.0081436]},"properties":{"Taluka":"Nashik","Zone":"Panchavati","Category":"Police Station","Name":"Katya Maruti Police Station","Type":"Government Office","Review Count":"0","Address":"Saikruti Apartment, 6, Ganeshwadi Rd, Old Adgaon Naka, Adgaon Naka, Panchavati, Nashik, Maharashtra 422003, India","Open Now":"true","Maps Link":"https://maps.google.com/?cid=68921221113617135&g_mp=Cidnb29nbGUubWFwcy5wbGFjZXMudjEuUGxhY2VzLlNlYXJjaFRleHQQAhgEIAA"}},{"type":"Feature","geometry":{"type":"Point","coordinates":[73.7816933,20.0054924]},"properties":{"Taluka":"Nashik","Zone":"Panchavati","Category":"Police Station","Name":"Nashik Cyber Cell - Nashik Police","Type":"Government Office","Review Count":"0","Address":"476/1, Gangapur Rd, Samant Wadi, Shivaji Nagar, Nashik, Maharashtra 422002, India","Open Now":"true","Maps Link":"https://maps.google.com/?cid=10846660750382640048&g_mp=Cidnb29nbGUubWFwcy5wbGFjZXMudjEuUGxhY2VzLlNlYXJjaFRleHQQAhgEIAA"}},{"type":"Feature","geometry":{"type":"Point","coordinates":[73.7946976,20.0097768]},"properties":{"Taluka":"Nashik","Zone":"Panchavati","Category":"Police Station","Name":"Panchavati Police C","Type":"Police","Review Count":"0","Address":"2Q5V+WV8, Panchavati Karanja Rd, Panchavati Karanja, Panchavati, Nashik, Maharashtra 422003, India","Open Now":"true","Maps Link":"https://maps.google.com/?cid=5289619724546601401&g_mp=Cidnb29nbGUubWFwcy5wbGFjZXMudjEuUGxhY2VzLlNlYXJjaFRleHQQAhgEIAA","Phone":"+91-0253-2629831 / 2629830","Email":"ps.pvati.nashikcp@mahapolice.gov.in"}},{"type":"Feature","geometry":{"type":"Point","coordinates":[73.7967386,20.0156432]},"properties":{"Taluka":"Nashik","Zone":"Panchavati","Category":"Police Station","Name":"Panchvati Police Station","Type":"Police","Review Count":"0","Address":"2Q8W+7M5, Lok Sahakar Nagar Rd, opp. Krushi Utpanna Market, Adityakunj Society, Panchavati, Nashik, Maharashtra 422003, India","Maps Link":"https://maps.google.com/?cid=4366729237185242046&g_mp=Cidnb29nbGUubWFwcy5wbGFjZXMudjEuUGxhY2VzLlNlYXJjaFRleHQQAhgEIAA"}},{"type":"Feature","geometry":{"type":"Point","coordinates":[73.7925949,19.9964908]},"properties":{"Taluka":"Nashik","Zone":"Panchavati","Category":"Police Station","Name":"Police Station","Review Count":"0","Address":"Police Station, 2875, Adarsh Road, Kazipura, Nashik, Maharashtra 422001, India","Maps Link":"https://maps.google.com/?cid=5565830016036182964&g_mp=Cidnb29nbGUubWFwcy5wbGFjZXMudjEuUGxhY2VzLlNlYXJjaFRleHQQAhgEIAA"}},{"type":"Feature","geometry":{"type":"Point","coordinates":[73.7937848,20.0063341]},"properties":{"Taluka":"Nashik","Zone":"Panchavati","Category":"Police Station","Name":"Sardar Chowk Police Station","Type":"Government Office","Review Count":"0","Phone":"0253 251 4133","Address":"Sardar Chowk, Kala Ram Mandir Rd, near Dakshin Mukhi Prachin Hanuman Mandir, Panchavati, Nashik, Maharashtra 422003, India","Maps Link":"https://maps.google.com/?cid=5038508757795982821&g_mp=Cidnb29nbGUubWFwcy5wbGFjZXMudjEuUGxhY2VzLlNlYXJjaFRleHQQAhgEIAA"}},{"type":"Feature","geometry":{"type":"Point","coordinates":[73.7797725,20.0056197]},"properties":{"Taluka":"Nashik","Zone":"Panchavati","Category":"Police Station","Name":"Sarkarwada Police Station","Type":"Government Office","Review Count":"0","Phone":"0253 230 5214","Address":"2Q4H+6WR, Gangapur Rd, opp. KTHM College, Gole Colony, Nashik, Maharashtra 422002, India","Website":"https://nashikcitypolice.gov.in/police_station/4","Open Now":"true","Maps Link":"https://maps.google.com/?cid=840269122793942316&g_mp=Cidnb29nbGUubWFwcy5wbGFjZXMudjEuUGxhY2VzLlNlYXJjaFRleHQQAhgEIAA","Email":"ps.swada.nashikcp@mahapolice.gov.in"}},{"type":"Feature","geometry":{"type":"Point","coordinates":[73.8102369,20.0103321]},"properties":{"Taluka":"Nashik","Zone":"Panchavati","Category":"Police Station","Name":"Swaminarayan Police station","Type":"Government Office","Review Count":"0","Address":"2R66+43Q, Agra - Mumbai Hwy, Adgaon Naka, Vaishnavi Park, Nashik, Maharashtra 422003, India","Open Now":"true","Maps Link":"https://maps.google.com/?cid=10027759807600104754&g_mp=Cidnb29nbGUubWFwcy5wbGFjZXMudjEuUGxhY2VzLlNlYXJjaFRleHQQAhgEIAA"}},{"type":"Feature","geometry":{"type":"Point","coordinates":[73.7515003,19.9709546]},"properties":{"Taluka":"Nashik","Zone":"Satpur","Category":"Police Chowky / Outpost","Name":"Trimurti Chowk Police Chowki","Type":"Government Office","Review Count":"0","Address":"XQC2+9JJ, New Nashik, GajananNagar, Modkeshwar Nagar, Nashik, Maharashtra 422008, India","Open Now":"true","Maps Link":"https://maps.google.com/?cid=15732623713570530399&g_mp=Cidnb29nbGUubWFwcy5wbGFjZXMudjEuUGxhY2VzLlNlYXJjaFRleHQQAhgEIAA"}},{"type":"Feature","geometry":{"type":"Point","coordinates":[73.7634425,19.9658599]},"properties":{"Taluka":"Nashik","Zone":"Satpur","Category":"Police Station","Name":"Ambad Police Station","Type":"Government Office","Review Count":"0","Phone":"0253 239 2233","Address":"Pelican Park Road, Cidco, Shri Ram Colony, Nashik, Maharashtra 422009, India","Website":"https://nashikcitypolice.gov.in/police_station/2","Open Now":"true","Maps Link":"https://maps.google.com/?cid=14359788613732798988&g_mp=Cidnb29nbGUubWFwcy5wbGFjZXMudjEuUGxhY2VzLlNlYXJjaFRleHQQAhgEIAA"}},{"type":"Feature","geometry":{"type":"Point","coordinates":[73.758154,19.9497701]},"properties":{"Taluka":"Nashik","Zone":"Satpur","Category":"Police Station","Name":"Anand Nagar Police Station","Type":"Police","Review Count":"0","Address":"shiv Prakash apartment, Cooperative Housing Society, Girdhar Nagar, Damodar Nagar, Pathardi Phata, Nashik, Maharashtra 422010, India","Maps Link":"https://maps.google.com/?cid=7056602894024764740&g_mp=Cidnb29nbGUubWFwcy5wbGFjZXMudjEuUGxhY2VzLlNlYXJjaFRleHQQAhgEIAA"}},{"type":"Feature","geometry":{"type":"Point","coordinates":[73.7574847,19.9576913]},"properties":{"Taluka":"Nashik","Zone":"Satpur","Category":"Police Station","Name":"Ashwin Nagar Police Chauki","Type":"Government Office","Review Count":"0","Phone":"097621 00100","Address":"XQ54+3XH, Ashwin Nagar Service Rd, श्रावण सेक्टर, Ashwin Nagar, Nashik, Maharashtra 422009, India","Website":"http://mahapolice.gov.in/","Open Now":"true","Maps Link":"https://maps.google.com/?cid=17001778795715962705&g_mp=Cidnb29nbGUubWFwcy5wbGFjZXMudjEuUGxhY2VzLlNlYXJjaFRleHQQAhgEIAA"}},{"type":"Feature","geometry":{"type":"Point","coordinates":[73.7785826,19.9745755]},"properties":{"Taluka":"Nashik","Zone":"Satpur","Category":"Police Station","Name":"Indira Nagar Police Station","Type":"Government Office","Review Count":"0","Phone":"0253 232 8833","Address":"Mumbai-Agra Road, Indira Nagar, 10, Kamod Nagar, Rajiv Nagar, Nashik, Maharashtra 422009, India","Website":"https://nashikcitypolice.gov.in/police_station/5","Open Now":"true","Maps Link":"https://maps.google.com/?cid=6743544170261308555&g_mp=Cidnb29nbGUubWFwcy5wbGFjZXMudjEuUGxhY2VzLlNlYXJjaFRleHQQAhgEIAA","Email":"ps.ingr.nashikcp@mahapolice.gov.in"}},{"type":"Feature","geometry":{"type":"Point","coordinates":[73.7581475,19.9565875]},"properties":{"Taluka":"Nashik","Zone":"Satpur","Category":"Police Station","Name":"Pathardi Phata Police Station","Type":"Police","Review Count":"0","Address":"XQ45+J7J, MIDC Ambad, Nashik, Maharashtra 422010, India","Open Now":"true","Maps Link":"https://maps.google.com/?cid=12280633200299345998&g_mp=Cidnb29nbGUubWFwcy5wbGFjZXMudjEuUGxhY2VzLlNlYXJjaFRleHQQAhgEIAA"}},{"type":"Feature","geometry":{"type":"Point","coordinates":[73.7619049,19.9727419]},"properties":{"Taluka":"Nashik","Zone":"Satpur","Category":"Police Station","Name":"Pawan Nagar police Station","Type":"Police","Review Count":"0","Address":"XQF6+3QR, Cidco Rd, Laxmi Nagar, Pawan Nagar, Nashik, Maharashtra 422008, India","Open Now":"true","Maps Link":"https://maps.google.com/?cid=3508768741276853031&g_mp=Cidnb29nbGUubWFwcy5wbGFjZXMudjEuUGxhY2VzLlNlYXJjaFRleHQQAhgEIAA"}}]}