{"type":"FeatureCollection","features":[{"type":"Feature","properties":{"name":"Official Ring Road Segment 1","category":"ring-road"},"geometry":{"type":"LineString","coordinates":[[73.88243476815262,20.04542640420832],[73.88318433732837,20.04441246232323],[73.88383506877364,20.04351056886831],[73.88426163077602,20.04292832328589],[73.88438734264969,20.04273552374254],[73.88454024947625,20.04250681199716],[73.88469424182057,20.04223398051621],[73.88476981364526,20.04207785639525],[73.8848721745766,20.04182758744041],[73.88495759003169,20.04153033763421],[73.88500296463724,20.0413025774646],[73.88503675948719,20.04105235226001],[73.88504517746027,20.04081651922046],[73.88503307759527,20.04045862708557],[73.88500066727028,20.04024175261211],[73.88495790255828,20.04002594131244],[73.88485762610505,20.03970272676059],[73.88470303503564,20.03930611346191],[73.88451875937959,20.03887413685823],[73.8843578540603,20.03851361213568],[73.88402917465419,20.03776838157287],[73.88379572933562,20.03722832535565],[73.88360191470186,20.03679868861247],[73.8834697391701,20.0364944934589],[73.8833876781945,20.03630408364204],[73.88333264471896,20.03618197642371],[73.88394675517385,20.03630141816803],[73.88401365306923,20.03631725959058],[73.88407053602361,20.03644279601084],[73.88428971249138,20.03695832050321],[73.8844178700407,20.03722824154939],[73.88449768696415,20.03741659104792],[73.8847616714285,20.03801289919341],[73.88482789165482,20.03816815538067],[73.88488424883457,20.03830076414786],[73.88496823610345,20.03848643383477],[73.88508063192168,20.03874781545643],[73.8851674107099,20.03894301182154],[73.88521610757348,20.03905589732705],[73.88527478541677,20.03918945092535],[73.88530652687736,20.03927193354959],[73.88534360726251,20.03936584025087],[73.88537946687097,20.0394622559123],[73.88540933460756,20.03955137018449],[73.88543422451465,20.03962409891712],[73.88548120361185,20.03976995233705],[73.88551767408703,20.03992520176204],[73.8855564096307,20.04010808411906],[73.88559034366442,20.04032359312886],[73.88560203719592,20.04041782779721],[73.88561922917084,20.04072365838383],[73.8856174454569,20.04092240260305],[73.88561064080638,20.04102726697014],[73.88557614974489,20.04134526952398],[73.8855264429411,20.04161207930707],[73.88548605404029,20.04176162241068],[73.8854350889128,20.04193682911909],[73.8853184515278,20.04223247482294],[73.88525472407639,20.04236744612522],[73.88518238801147,20.04251896061672],[73.88510522374132,20.04265836762817],[73.88501587354952,20.0428142952542],[73.88484078677446,20.04307557529838],[73.88458493482202,20.04343673074341],[73.88417971522574,20.04398967479819],[73.88367983121744,20.04467680681863],[73.88339123779524,20.04506951427637],[73.88309349379065,20.04547713368837],[73.88267153312056,20.04605342578201],[73.8821780510077,20.04673024543278],[73.88191843555764,20.0470848792402],[73.8816035751205,20.04751674788798],[73.88136234494924,20.04784540433455],[73.88116098244909,20.04812410413241],[73.88082428239832,20.04858325235504],[73.88048247816062,20.04905197520986],[73.8800687025331,20.04961651169833],[73.87966132176314,20.05017384703085],[73.87942627853053,20.0500219735086],[73.87918713542838,20.04986868559022],[73.88243476815262,20.04542640420832]]}},{"type":"Feature","properties":{"name":"Official Ring Road Segment 2","category":"ring-road"},"geometry":{"type":"LineString","coordinates":[[73.88259562675802,20.03383391139108],[73.88272631975379,20.0339681797058],[73.88282551650912,20.03407692925704],[73.88288019515359,20.03414205569627],[73.88286153791915,20.03425406507935],[73.88282226530438,20.03436191290467],[73.88281169778307,20.0344322877018],[73.88281978540384,20.03449694054088],[73.8829345494683,20.03469766726405],[73.8830395736392,20.03480588106795],[73.88315219475803,20.03494239116469],[73.88321975986322,20.03501508777275],[73.8832573841792,20.03509009762608],[73.88329550413367,20.03518003173552],[73.88332341332855,20.03524990519387],[73.8833324381955,20.0353193905465],[73.88332420295062,20.03537500195282],[73.88331331637947,20.03541420814195],[73.8832905846781,20.03544327856705],[73.88324458747033,20.03547922362014],[73.88320778430405,20.03550886764237],[73.88315046454302,20.03553993207822],[73.88306979736267,20.03558493902932],[73.88304851951723,20.03553445632132],[73.88299220132063,20.03541049411973],[73.88294844474478,20.03531643717383],[73.88287477604008,20.03516477703074],[73.88287600279082,20.0351657760161],[73.88276840818352,20.0349554673323],[73.88266444532441,20.03478897230913],[73.88257021922878,20.03465883252443],[73.88243656586182,20.0344876461779],[73.88234408917631,20.03438226915371],[73.88225533408963,20.03428430868639],[73.88214063728245,20.03416553608689],[73.88156386815538,20.03364457869541],[73.88105958030108,20.0331571152593],[73.88057164529417,20.03265537154953],[73.88023277229523,20.03226160059853],[73.87987855454276,20.03183056624255],[73.88033758931066,20.03180387367807],[73.88042326268737,20.03161269100752],[73.88069736137334,20.03194256466038],[73.88104530829865,20.03233933624908],[73.88134756946708,20.03265988312391],[73.88183838060843,20.03313967609207],[73.88237097916878,20.0336171172178],[73.88259562675802,20.03383391139108]]}},{"type":"Feature","properties":{"name":"Official Ring Road Segment 3","category":"ring-road"},"geometry":{"type":"LineString","coordinates":[[73.87898537744522,20.02962099802018],[73.87946172319056,20.03028872629219],[73.87911866252774,20.03029554226471],[73.87898537744522,20.02962099802018]]}},{"type":"Feature","properties":{"name":"Official Ring Road Segment 4","category":"ring-road"},"geometry":{"type":"LineString","coordinates":[[73.71445959261224,19.90775614658222],[73.71431380334059,19.90754737283439],[73.71461918451267,19.90722910185141],[73.71513167437206,19.90670213471991],[73.71530967659447,19.90652200615],[73.71530027183225,19.90648361777188],[73.71527054640933,19.90636359993189],[73.71545852421995,19.9061792874968],[73.71585468709485,19.90582222454836],[73.71600995310793,19.90569413569113],[73.71640893921857,19.90538237400846],[73.71662163049467,19.90523321081845],[73.71692198135743,19.90501835545061],[73.71712758904997,19.90490293397652],[73.71723132292463,19.90484550395435],[73.71742368537451,19.90473091261213],[73.71759941023797,19.90462649431488],[73.71772723572504,19.90455765930188],[73.71784551893802,19.90449463230625],[73.7180833692359,19.90438857756442],[73.71831867970947,19.90428322993196],[73.71845155472714,19.90421964970511],[73.71852219288462,19.90419327690989],[73.71866947849041,19.90413724371761],[73.71882042376737,19.90408305354145],[73.71922192178073,19.90394008188274],[73.71951209272676,19.90385352682365],[73.71980287999408,19.90377653348334],[73.71992630450968,19.9037385944992],[73.720167231636,19.90369060362741],[73.72037140104209,19.90364706503366],[73.72062223695927,19.90359787895962],[73.72086988792637,19.90355472617912],[73.7213258896923,19.9034916526461],[73.72198848287694,19.90341378401039],[73.72269462612206,19.90333675135813],[73.72337205286783,19.90326019815316],[73.72480347588603,19.90309812621275],[73.72637166814363,19.9029276654696],[73.72677189827508,19.90289022381132],[73.72696569986148,19.90287820845096],[73.72723026719292,19.90286785788658],[73.72747104364568,19.90286139837202],[73.72759215374579,19.90286139895693],[73.727848785493,19.90287044658688],[73.7280574323175,19.90287692414808],[73.72848104774303,19.90290330557212],[73.72873418680912,19.90292640162212],[73.72894754343292,19.90295568452778],[73.72919082787219,19.90298762623747],[73.7293335676592,19.90301190444288],[73.72988297753606,19.90312001046547],[73.7300989991295,19.90317780656526],[73.73044703531362,19.90326884526256],[73.73099792601062,19.90344459833224],[73.73114224061202,19.90349866597886],[73.73129882682636,19.90355945154003],[73.73142481730363,19.90360665668076],[73.73151364048034,19.90364206087626],[73.73160487517706,19.9036806406859],[73.73168430655979,19.90371637803073],[73.73196834245697,19.9038464142006],[73.73210816212186,19.90390875619263],[73.73235445790834,19.90403387853483],[73.73264393425426,19.90418914258792],[73.7329522633873,19.90435818081364],[73.7330620148693,19.90442002380584],[73.73394624225276,19.90491279943341],[73.73497159752793,19.90548707689229],[73.73580942633696,19.90595010588993],[73.73628783433247,19.90621988624938],[73.73663039106626,19.90641033963431],[73.73740845015942,19.90684236177153],[73.73764846058693,19.9069767019819],[73.73794784389051,19.90713810037711],[73.7383415840255,19.90734593352708],[73.73893077074044,19.90762899700399],[73.73938503741516,19.90783390137799],[73.73974867505008,19.90799709358009],[73.74064854443009,19.90836734038965],[73.74119005833332,19.90859205102509],[73.7415253689481,19.90873475188718],[73.74237200077805,19.90908818719552],[73.74325601594151,19.90945700198357],[73.7437807722569,19.90967952915233],[73.74421488345779,19.90985751579786],[73.74476878975739,19.9100880932409],[73.7453676572852,19.91033817354617],[73.74589045518331,19.91055690210953],[73.74632713228665,19.91073996870743],[73.74659125137651,19.91084811055554],[73.74735114407578,19.91116680254856],[73.74780647468904,19.91135907985751],[73.7493242762207,19.91198750973832],[73.74984692081726,19.91221800388207],[73.75015209241127,19.91235805867812],[73.75052851831899,19.91255368931134],[73.75075376153424,19.912681200715],[73.75100560237375,19.91282894884849],[73.75131405842313,19.91302997972103],[73.75164384055034,19.91325854466859],[73.75191737740212,19.91346464285585],[73.75208799890883,19.9135990593212],[73.75234274000255,19.91381691651697],[73.75269852578737,19.91412849151435],[73.75309249103967,19.91447978495226],[73.75439632104035,19.91564086738362],[73.75526326873738,19.91641554144999],[73.75586948144188,19.91695501246137],[73.75630738883847,19.91734134754784],[73.75757068522887,19.9184709190148],[73.75890779376716,19.91965298178518],[73.75977428370291,19.9204344423038],[73.76005728625019,19.92068559521216],[73.76072770898267,19.92127989522569],[73.76128112140918,19.92177697079172],[73.76150968539214,19.92196650624009],[73.7618334765652,19.92223242053538],[73.76215385519338,19.922468177439],[73.7624149609627,19.92264694908944],[73.76257514683155,19.92275070863237],[73.76287288677638,19.9229327127398],[73.76319798620771,19.92311508789005],[73.76372524626782,19.92340563616919],[73.76412369551217,19.92362256956903],[73.76456276388872,19.92385838796503],[73.76533909574044,19.92428587234286],[73.76569577482013,19.92447483528949],[73.76641765299553,19.92487899133257],[73.76685428334044,19.92509914813812],[73.76715188873048,19.92526987509153],[73.76745365727767,19.92545291670537],[73.76770153235236,19.92558971064912],[73.76808657537515,19.9258057999142],[73.7682471861909,19.92588471545517],[73.76834328683356,19.92594172501301],[73.76889161677363,19.92622400496943],[73.7699427940501,19.9267710840909],[73.77063810944207,19.92708236244813],[73.77110628349614,19.92729907100084],[73.77148817263789,19.92747972103515],[73.7717313929017,19.92759619871212],[73.77192555663555,19.92768652551662],[73.77211220702793,19.92776755560492],[73.7723634096318,19.92787988958552],[73.77257842138849,19.92798756605311],[73.77287019871767,19.92804649078088],[73.77312650283972,19.92809057462896],[73.77336784744784,19.92814462102549],[73.77372224156149,19.9282089739322],[73.77411888114277,19.92828892152293],[73.77617812939164,19.92870601739088],[73.77677921782215,19.92882267684035],[73.77746793282618,19.92896623926149],[73.77812669504162,19.92909359570676],[73.77851776373753,19.92917584724162],[73.78032784753174,19.92970118000825],[73.78145951333164,19.93004014548676],[73.78188693110015,19.9301588301735],[73.78221550794844,19.9302520795749],[73.78428018183754,19.93071707358756],[73.7850349004297,19.93090487599598],[73.78547091739702,19.93100260787318],[73.78608862238349,19.93109401377572],[73.78662406754022,19.93118931397578],[73.78699066209123,19.9312572004836],[73.78732827407855,19.93131047063645],[73.7876655271569,19.93136954988949],[73.78841494519784,19.93150156943276],[73.78880630827678,19.93156390648624],[73.78972274003196,19.931730567806],[73.79079800135639,19.93166093442191],[73.79215997116403,19.9315196894634],[73.79259640972226,19.93148417625664],[73.79302789689383,19.9314951537143],[73.79323018144115,19.93150344964133],[73.79339278824848,19.93150341767741],[73.79364202975512,19.93150060003745],[73.79396109976338,19.93149479398037],[73.79440670601987,19.93150419531505],[73.79498134468126,19.93151433492869],[73.79537140990791,19.93152977333937],[73.79580928585068,19.93152199439367],[73.79591104345657,19.93152196854822],[73.79618609339883,19.93153349325687],[73.7964123030877,19.93152176050557],[73.79668818329101,19.93153723094581],[73.79711068478841,19.93153774029191],[73.79750770028676,19.93154599896021],[73.79843849198285,19.9315569219036],[73.79902275584311,19.93156571550008],[73.79931980917438,19.93156755386791],[73.79974310625433,19.93156745977052],[73.79998217227487,19.93157222714055],[73.80040169111733,19.9315838707165],[73.80073476276107,19.93158628027508],[73.80090685111125,19.93157895080433],[73.80108771500728,19.93158622773715],[73.80134799433272,19.93158319417236],[73.80155139105965,19.93158517946564],[73.80172094163062,19.9315891861663],[73.80187906524144,19.9315852258885],[73.80242689973257,19.93158203654241],[73.80303586444079,19.93157296648631],[73.80359145533593,19.93157595531164],[73.80379770949618,19.93156661390527],[73.80431449645553,19.93157673573811],[73.80562855263302,19.93156443679118],[73.80700276872066,19.93159151115358],[73.8084944905126,19.9315912770415],[73.80917107218917,19.93159230526186],[73.8095704205911,19.93159772774878],[73.80989293214111,19.93159593009132],[73.81062413185317,19.93160470736046],[73.81120516813382,19.93160674676412],[73.8119580575458,19.93160676727267],[73.81240982354444,19.93161872818976],[73.81276654839598,19.93162365658568],[73.81342735503989,19.9316298830747],[73.81396572775192,19.93164475142934],[73.81441461736436,19.93164694801921],[73.81474109759543,19.93166353265731],[73.81577269501979,19.93167782573724],[73.81662058948132,19.93169262143773],[73.81841757126567,19.93172758454038],[73.81899118473534,19.93172749983634],[73.81943656690233,19.93172208803372],[73.81976248154334,19.93168649282179],[73.82009914532247,19.93165757630975],[73.82048071526124,19.93161927663049],[73.82100081806016,19.9315627587273],[73.82130123514231,19.93151983221897],[73.82161681682199,19.93149142352806],[73.82183341928763,19.93146314050588],[73.82193286190635,19.93145257160006],[73.8221085643744,19.93143572820574],[73.82262666586261,19.93140479713694],[73.82341564139382,19.93134925207904],[73.82365000364081,19.9313289806205],[73.82398699000007,19.93131785156095],[73.82442204158738,19.93128373532635],[73.82488670032842,19.93125955306008],[73.82573911779438,19.93120864779928],[73.82624564669449,19.93115770666456],[73.82699090707733,19.93126133221003],[73.82754000302536,19.93138917705166],[73.82820967882279,19.93151291260105],[73.8285728109579,19.93160967171186],[73.82941869989538,19.9317408054951],[73.82989944657504,19.93176793370868],[73.83040615465978,19.93173015368763],[73.83080865083234,19.93166564608228],[73.83129444163718,19.93161547453285],[73.83165461854165,19.93157585371158],[73.83194421899225,19.93155409359036],[73.83210004275917,19.93154921088467],[73.83229274362424,19.93156186203181],[73.83241905085505,19.93157299764088],[73.83249260938562,19.93157959279629],[73.83259210373062,19.93158953358709],[73.83270243772412,19.93159286094244],[73.8327850239714,19.93160764225824],[73.83284926067404,19.93161505540893],[73.83298115690701,19.93162898069744],[73.83314397323649,19.93165218637694],[73.83327962984812,19.93166785424944],[73.83352613909557,19.93170011155777],[73.83383908821575,19.93172053400457],[73.83413783888767,19.93171872618493],[73.83451741460212,19.93171884702373],[73.83515838470714,19.93185192179183],[73.83628075195809,19.93208460874931],[73.83735123759314,19.93230113091045],[73.83879424019753,19.93261648322322],[73.83931848373985,19.93272123376333],[73.83982437426957,19.93283250756006],[73.84041478745007,19.93309774139719],[73.84066487059368,19.93329791459633],[73.84094164283951,19.93352741401665],[73.84145325962315,19.9340364585396],[73.84175804965489,19.93440233101251],[73.8419572798746,19.93466474725776],[73.84207681901948,19.93484235743978],[73.84240259490751,19.93532132841166],[73.84250911495933,19.93551143134069],[73.84273002831186,19.93584952188688],[73.84316250058617,19.93683192611249],[73.84357747216347,19.93775732565309],[73.84380665237757,19.93828495353358],[73.84403453865954,19.93879680403396],[73.84420204326136,19.93925727045774],[73.84434323977176,19.93964493418387],[73.84456953471333,19.94027998632916],[73.84465371378967,19.94051082338506],[73.84507990871411,19.9416797832916],[73.84518931952725,19.94198225701632],[73.84551845724017,19.94290268478201],[73.84571292130282,19.94349112569017],[73.84589715264468,19.94410253482235],[73.84626486144046,19.94528425559841],[73.84651891017236,19.9461256850595],[73.84675997843195,19.94688316079258],[73.84697280751143,19.94748302749467],[73.8478196455164,19.94988584363464],[73.84801307509589,19.95043126839382],[73.84821766132806,19.95101463155879],[73.84837525035238,19.95152516088962],[73.84873226952477,19.95273846041664],[73.84899986397292,19.95362911801124],[73.84916187820097,19.95418487060786],[73.84930604218897,19.95468725614471],[73.84956208190971,19.95546373934244],[73.84963553374234,19.95568367827758],[73.84975011425196,19.95598128830756],[73.84980828587155,19.95608685905466],[73.84984301836414,19.95613313935206],[73.84987828700712,19.95616976782244],[73.84992792315951,19.95621584076671],[73.85000856444927,19.95627773529193],[73.85003529782014,19.95629633850786],[73.8500933542233,19.9563349341822],[73.85020749621944,19.95640873180158],[73.85035485848962,19.95649611920057],[73.8504995271179,19.95657438317707],[73.8506881036929,19.95667175751568],[73.85083849627392,19.95675216074194],[73.85102400630672,19.95685119988833],[73.85163545497566,19.95717196560185],[73.85207623912439,19.95740333308061],[73.85236712786006,19.9575567084825],[73.85259447392184,19.95766102975995],[73.85311752969206,19.95789346344293],[73.85322461643692,19.95794283870751],[73.85330780009494,19.95798748353679],[73.85338473668848,19.95803171244027],[73.85344563854441,19.95807009289505],[73.8535163509855,19.95812184501666],[73.85360094232142,19.95819184397645],[73.8537299008787,19.95832537773822],[73.85386484797878,19.95848747895523],[73.85407259905183,19.9587559321573],[73.85418948106566,19.95894106069087],[73.85424523812117,19.95912511796631],[73.85431295337119,19.95936528696692],[73.85443340425986,19.95956854854858],[73.85459638743771,19.95977450616613],[73.854743775715,19.95994878556138],[73.8548556843104,19.96010458664954],[73.85496425794443,19.96023606651842],[73.85531443859608,19.96066230667589],[73.85583295098249,19.96131595652334],[73.85599362127122,19.961530908375],[73.85612786991852,19.96170362526604],[73.85627385488662,19.9618637359347],[73.85640209373142,19.96204437342639],[73.85646325829012,19.96212938882286],[73.85664889706896,19.96235142921574],[73.85682246147876,19.96256760400644],[73.85694198460506,19.96272128801054],[73.85730085058421,19.96322179121195],[73.85757789525648,19.96364367743485],[73.85779279496445,19.96398656135474],[73.85787397772309,19.96411990723276],[73.85810471334426,19.96444698374644],[73.8584525074502,19.96496877586142],[73.85876718356046,19.96544028614749],[73.85914896966845,19.96600678589584],[73.85941198969877,19.96639688867441],[73.85972075353956,19.96685877893406],[73.85993331878939,19.96718847547245],[73.85996645216943,19.9672486615259],[73.86001586843548,19.96733874044049],[73.86004787039741,19.96740403787744],[73.86010568044055,19.96752437348892],[73.86014411440947,19.9676153620355],[73.86026803723075,19.96796409204693],[73.86041125260932,19.96853446474854],[73.86061680823285,19.96939420990424],[73.86089806053744,19.97055647882836],[73.8610787557519,19.97130155677976],[73.86113454253687,19.97153660381836],[73.86119347758651,19.97191173100722],[73.86129261707434,19.97313294246847],[73.8613578008694,19.97391780323166],[73.86146154428701,19.97518825849825],[73.86164828430596,19.97743803515145],[73.86175516380649,19.97875695351876],[73.86186151331407,19.98023708635542],[73.86187256709495,19.98040283702012],[73.86189088226803,19.98065491137732],[73.86189563953157,19.98088394397699],[73.8619293045201,19.98130134454253],[73.86197572481704,19.98162625022665],[73.86199357152807,19.98184710687146],[73.86203050401373,19.98206918786713],[73.86213961479777,19.98259358643274],[73.86230769837343,19.98321092877909],[73.86262183457778,19.98401055042838],[73.86297602535596,19.98481658752607],[73.86327122924047,19.98550421619406],[73.86356012368888,19.98615185066398],[73.86367402161179,19.98640404493059],[73.86378017122472,19.98665521891657],[73.86388290052633,19.98687500040051],[73.86394934529397,19.98702865445755],[73.86404919036259,19.98725609739473],[73.86417748187856,19.98749367132441],[73.86446957940107,19.9880205676213],[73.8646522841157,19.98830084495062],[73.86484356816308,19.98859201040246],[73.86508463456244,19.9889371325235],[73.86528769713254,19.98918129753905],[73.86563534395852,19.98955443456781],[73.86590065046597,19.9898159175373],[73.86606813200895,19.98998491073162],[73.86621319876394,19.99010331692813],[73.8663949644598,19.99027896151397],[73.86657618908295,19.99043877454319],[73.86689391086567,19.9907047042783],[73.867470359094,19.99117926783578],[73.86787158047092,19.99150834121806],[73.8683970878654,19.99194277507354],[73.86859154737257,19.99210016149731],[73.86882728350344,19.99229276812062],[73.86914838004466,19.99256446345911],[73.86950082407189,19.99285705165394],[73.87015888626473,19.99340482397473],[73.87088242508415,19.99400634087391],[73.87136694025975,19.99440918453467],[73.87145180917301,19.99448893769213],[73.87154728609303,19.99457201375753],[73.87164795343662,19.99467774005086],[73.87171549402417,19.9947437039903],[73.87180075708439,19.99483647374823],[73.8719976199984,19.99509815958238],[73.87211730956534,19.99525508293024],[73.87222860778773,19.99543730703268],[73.87241145481788,19.99574693194443],[73.872463473812,19.99586641850198],[73.87250991655038,19.99597660022558],[73.87259658388757,19.99620823542744],[73.87267157902815,19.99646289836488],[73.87270329768829,19.99663026193724],[73.87273644065941,19.99679441914169],[73.87275593253617,19.99711189004529],[73.87276175232236,19.99765351150194],[73.87273624801115,19.99840401352913],[73.87271780860193,19.99873539474461],[73.87270111933539,19.99908970807713],[73.8726651062637,19.99971121536409],[73.87257973269854,20.00109869683725],[73.87256921653685,20.00142283714766],[73.87251494427758,20.00223292372165],[73.87248864008372,20.00405820081569],[73.87252923713162,20.00480918424012],[73.87257048747077,20.00574963238976],[73.87262152371217,20.00660075610515],[73.87273444926144,20.00755938779247],[73.87295022529615,20.00932829926191],[73.87302665232441,20.01019218241421],[73.87311570932407,20.01098873402286],[73.87322319716095,20.01199454353345],[73.87334685631632,20.01291230805715],[73.87342913528677,20.01377806686646],[73.87356987014094,20.01474768162667],[73.87371845764399,20.01557675240757],[73.87387705754719,20.01641476986359],[73.87404011747347,20.01733184689292],[73.87416930075553,20.01820895803791],[73.87431205906526,20.01910880529724],[73.87447305123024,20.02001281406373],[73.8745443294263,20.02054528099184],[73.87461807524221,20.02102077598536],[73.87467986084985,20.02134322523387],[73.87470153290667,20.02156248476942],[73.87474698049968,20.02178529165087],[73.87480008743331,20.02216484919054],[73.87485073449835,20.02250682597502],[73.87493130241656,20.02286039270723],[73.87498883432991,20.02318616987254],[73.87509243359038,20.02356325338217],[73.8753241499241,20.02418464770161],[73.87549738109436,20.02457589049986],[73.87586990999935,20.02523023488245],[73.87629507315805,20.02585428525595],[73.87667485397742,20.02640365639265],[73.8768827090223,20.02666279396305],[73.87703715289487,20.02689744865631],[73.87774695298755,20.02787863854498],[73.87802173921362,20.02826906881362],[73.87754943607295,20.02857700660972],[73.87682173772762,20.02755827997649],[73.87649638763737,20.02709601782041],[73.87617728722283,20.02666331927179],[73.87570644304208,20.02600228116837],[73.87518933180291,20.02520665876148],[73.87494206258968,20.02470195929076],[73.87463760077495,20.02401409980376],[73.87451239486079,20.02360775747401],[73.87442747028909,20.02328111427523],[73.87435545051389,20.02295384135855],[73.87422945506935,20.02228952444005],[73.8741573043465,20.02169508323774],[73.87407221889609,20.02119895408312],[73.87399218985551,20.02077911878533],[73.87360480013172,20.01819652149743],[73.87351256708327,20.01770000786434],[73.87344449767217,20.01731456733289],[73.8734037411933,20.01699904440139],[73.8733548315538,20.01672947478009],[73.87325421879957,20.01620990818086],[73.87305041035694,20.01510368027772],[73.87296405682591,20.01454864321569],[73.87273232631992,20.01261403423046],[73.872664707492,20.0120182526498],[73.87257669938393,20.01127693189679],[73.87240121807244,20.00959250204626],[73.87219719340759,20.00791161866223],[73.87211276193646,20.00714961973864],[73.87203881237501,20.00648704793585],[73.87199844616956,20.00565851920312],[73.87196396299107,20.00499656511942],[73.8719419446243,20.00456209445431],[73.87192012482201,20.003965805343],[73.87190442496363,20.00343076309333],[73.8719782819577,20.00160384887256],[73.87218170642139,19.99836071505556],[73.87221955542144,19.99769749985762],[73.8722195551715,19.99723315973394],[73.87216591183179,19.99685235371451],[73.87211540500127,19.99660217056475],[73.8720442484328,19.99635685825141],[73.87199545298249,19.99621501937079],[73.87189412233093,19.99598752784918],[73.87178174727934,19.99574787480896],[73.87166034677173,19.99555615384751],[73.87155580518393,19.99541037903298],[73.87141278454763,19.9952456564162],[73.87132347652977,19.99514416267561],[73.87116459316347,19.99498275454193],[73.87100444347527,19.99483088316945],[73.87054147112798,19.99443830713502],[73.87025042777434,19.99420084260713],[73.86973240785282,19.99376899094766],[73.869432703014,19.9935190788555],[73.86883133890535,19.99300223572613],[73.86791528776665,19.99224568075524],[73.8674130997259,19.99183289019949],[73.86667293856404,19.99121139354439],[73.86631921500374,19.99092363588296],[73.86597082192161,19.99062350384173],[73.86571751440383,19.99040097915547],[73.86548008054247,19.99019982521569],[73.86523588491762,19.98995322470701],[73.8649964030962,19.9896807334059],[73.86476934021668,19.98941660694911],[73.86463455562475,19.98925284949455],[73.8643766570472,19.98892471386211],[73.86420302399397,19.98865014032815],[73.86398907058353,19.98833629883345],[73.86379469168433,19.98799699974176],[73.86369618702332,19.98779414532674],[73.86356690507822,19.98754432646692],[73.86342439870542,19.98724421280616],[73.86328540127639,19.98693594230967],[73.86310660653848,19.98652083327012],[73.86296533119926,19.98620361437541],[73.86284714208148,19.98591562242078],[73.86276458080995,19.9857475404831],[73.86236991199978,19.98485351904091],[73.86191652881192,19.98379081371249],[73.86169616035973,19.98313224845165],[73.86155066642614,19.98261498821557],[73.8614504556978,19.98204972710752],[73.86135296242767,19.9814274102731],[73.86131618769153,19.9806819326413],[73.86126229914058,19.9799116686835],[73.86121418029295,19.97909687149061],[73.86113275641056,19.97822315187932],[73.86109189758025,19.97766095801196],[73.86104058834474,19.97700118239848],[73.86094172898747,19.97586792165928],[73.86085226182733,19.97478370080284],[73.86078089201625,19.97390631702561],[73.8607545658899,19.97358057297545],[73.86070379059684,19.97293275642776],[73.86064349874333,19.97226331277566],[73.86060281202424,19.97180479751675],[73.86047540086304,19.97122465270159],[73.86022148757915,19.97018864348757],[73.85974311548333,19.96820169717694],[73.85960398763117,19.96778635386063],[73.8594660828235,19.9675078685514],[73.85870996074048,19.96636071233418],[73.8581675157535,19.96555046977571],[73.85753074567415,19.96460208804349],[73.85682486915242,19.96353937947833],[73.85637916988854,19.96289644110026],[73.85554743544556,19.96186922722758],[73.85441848538821,19.96043945373393],[73.85414819178696,19.96011520380585],[73.85401430102462,19.9599612609538],[73.8538021063335,19.95961950027457],[73.85374924371662,19.9594549838566],[73.85367452929565,19.9591923569349],[73.85358661335502,19.95904700900477],[73.85345554860062,19.95887317940564],[73.85327636631425,19.95865538331864],[73.85317228378455,19.95855642144805],[73.85308563789012,19.95849195790615],[73.85298172610689,19.95843607723871],[73.85273992504895,19.9583259960013],[73.85261825946435,19.95827050909373],[73.85244963449288,19.9581951597616],[73.85236076183517,19.95815590281671],[73.85219904496277,19.95808312348074],[73.85209092606489,19.95803103553214],[73.85190562123667,19.95793681823714],[73.85169360921647,19.95782425326798],[73.85151401478018,19.95772901066701],[73.85107971358028,19.95750185735597],[73.85036967680502,19.95712674796907],[73.85022756681842,19.95705101476234],[73.85007708723077,19.95697126300018],[73.8499514658111,19.95689975654745],[73.84984572062612,19.95683205659457],[73.8497561906976,19.95677341898857],[73.84968481881089,19.95672489118513],[73.84960347661001,19.95666623986399],[73.84953865868458,19.95661198975552],[73.84947429008771,19.95655644084191],[73.84941630691785,19.95649430825198],[73.84941506593697,19.95649228768092],[73.84934505001455,19.95640466549243],[73.8493020149774,19.95633939339046],[73.84924037064857,19.95623337503138],[73.84919399659665,19.95612517955082],[73.84919672384852,19.95612928116331],[73.849147203835,19.95600348443791],[73.84910490484287,19.95589373238463],[73.84902331035588,19.95565790128029],[73.84884168389338,19.95509690497149],[73.84876195463525,19.95484159522213],[73.848673833655,19.95454732579697],[73.84851376413025,19.9540000790664],[73.84831304371207,19.95332978825171],[73.84818984719986,19.95291374770287],[73.84809361629735,19.95259203083176],[73.84788412923804,19.95187769105751],[73.84772007688056,19.95133358587351],[73.84753901549364,19.95080175221384],[73.84742063544434,19.95047071396031],[73.84723591947625,19.94994362519074],[73.84685329636184,19.94886761175092],[73.84664681399181,19.94827930458546],[73.84647295005419,19.94778088928323],[73.84626970991675,19.94720781749569],[73.84621058369841,19.94704521287272],[73.84593502661104,19.946161131845],[73.84578057657072,19.94565558991775],[73.84561224956644,19.94511862659798],[73.84531930373112,19.94415050577255],[73.84517493442264,19.9436539661427],[73.84502357591478,19.94320780775332],[73.84465796528973,19.94219819097271],[73.84433025566202,19.941291137003],[73.84392561081872,19.94016687579465],[73.84356344233774,19.93918733060835],[73.8431950031202,19.93828289600565],[73.84278124026014,19.93738731963934],[73.84225974994965,19.93619580430179],[73.84192280256568,19.93562164527771],[73.84132050922958,19.93475181946292],[73.84110400415076,19.93451113920811],[73.84092313675856,19.93426828259564],[73.84051655031703,19.93389671730151],[73.840049213583,19.93353200447953],[73.83965109062626,19.93334879684962],[73.83846220328826,19.93309773203693],[73.83825741342065,19.93306664047719],[73.83801541346935,19.93300486481544],[73.83769394196307,19.93294666560124],[73.83747709203097,19.93289507698717],[73.83719512004227,19.93283371821559],[73.83703996826725,19.93280346632394],[73.83683890227357,19.93276522563539],[73.83646137313401,19.93267370829667],[73.83622967398915,19.93263130397159],[73.83600008718332,19.93259078208817],[73.8357590801027,19.93253331285565],[73.83554991472067,19.93249621881979],[73.83538457244029,19.93245450709752],[73.83520595251916,19.93241856343543],[73.8349257580139,19.93236101908368],[73.83470722803068,19.93231920178175],[73.83446599037869,19.93226174946381],[73.83409405789169,19.93226108361113],[73.83367903952255,19.93225919749155],[73.83333109579254,19.93222738805846],[73.83287572613486,19.93216222470482],[73.83203660290339,19.93209090538107],[73.83150195153112,19.93214588987177],[73.83123460412146,19.93216588142481],[73.83087489764493,19.93221858698297],[73.83050905635295,19.93225413313644],[73.82967331620311,19.93233088195253],[73.82884935292212,19.93219932511698],[73.82797887908127,19.93201604987387],[73.82716092251385,19.93187425288928],[73.82645047990893,19.9316973893818],[73.82589017768767,19.93173708969207],[73.82549250588087,19.93176355915733],[73.82493699466065,19.93181103901961],[73.82427550445371,19.93183356061722],[73.82391167095759,19.93186377653414],[73.82357697356817,19.931881551474],[73.82264988052545,19.93194891631848],[73.82224793249516,19.93197217338142],[73.82203701090621,19.93198777643311],[73.82177749504825,19.93201412667017],[73.82155527049619,19.93203880023659],[73.82135126409861,19.93205649549256],[73.82107708929522,19.93208497115856],[73.82069431526901,19.93213172394497],[73.82043267049067,19.93215706821261],[73.82011452211516,19.93220083655308],[73.81962702747504,19.93224872977937],[73.81909698409699,19.93227839278061],[73.81791237991003,19.93226673569898],[73.81685358973445,19.93224390336178],[73.81364789974221,19.93217390550234],[73.81246259090317,19.93216122360162],[73.81109304487342,19.93214310729784],[73.807848421198,19.93214145049964],[73.80624965224095,19.93211793702147],[73.8044784750831,19.93211093117504],[73.80376488573485,19.93211629818644],[73.80285403023527,19.9321111619181],[73.80179293688488,19.93214227879634],[73.80042761535995,19.93211150305905],[73.798820090301,19.93209881987588],[73.7961816220751,19.93207028847237],[73.79601268756196,19.93207891976715],[73.79577373363783,19.93207323776177],[73.79545117150121,19.93206475562222],[73.7944876711512,19.93205959933765],[73.79421576285897,19.93204877441953],[73.79395273924352,19.93204773341952],[73.79377478913324,19.93204361470548],[73.79369713437777,19.93204361108998],[73.79354999029054,19.9320374541724],[73.79347827602507,19.93203746220604],[73.79317849330965,19.93203531531656],[73.79297340800352,19.93203543452414],[73.79279774273222,19.93203002437953],[73.79258656240225,19.93202750158643],[73.79238582461423,19.93204075740778],[73.79199773300805,19.9320806584453],[73.79149013725623,19.93212645571226],[73.79106621504091,19.93215670616826],[73.79051860938723,19.9322045043495],[73.79015319788601,19.93226268212866],[73.78965328698303,19.93227351313482],[73.78899708547529,19.93214636987531],[73.78821170979325,19.9319950851282],[73.78738440919534,19.93186681063019],[73.78671530825504,19.93174550455492],[73.78547614677716,19.93155135458991],[73.78536969051305,19.93152940066428],[73.78526196754942,19.93150756645495],[73.78500268998108,19.93144764402416],[73.78475261314682,19.93139307310768],[73.78445859091282,19.93132734943109],[73.78398317084996,19.93122488985713],[73.78356123762629,19.93111336554034],[73.78280106477898,19.9309478843504],[73.78204916736063,19.93076709218066],[73.78131941487612,19.93056012592995],[73.77928503702691,19.9299803029088],[73.77840555291502,19.92970304077816],[73.77784406672714,19.9296002917939],[73.77519434617224,19.92905724649951],[73.77322746879041,19.92866013812852],[73.77237251506419,19.92849141387783],[73.77191411405487,19.92827584674342],[73.77143809192887,19.92806909132991],[73.77108170602058,19.92789792087024],[73.7707726250243,19.92775143264508],[73.77009575020786,19.92744724033729],[73.76951654393345,19.92715816231169],[73.76842921364386,19.92660132816783],[73.76808456289879,19.92642886177805],[73.76797615069067,19.92635564640134],[73.76779537482813,19.92627247260581],[73.76720082101127,19.92592147678855],[73.76656750271562,19.9255773998789],[73.7659089509423,19.92521788235906],[73.76402630577934,19.92419566642713],[73.76299129611921,19.92362986537607],[73.76275515841562,19.92350031353895],[73.76255377746742,19.92338131178843],[73.7622992999174,19.92322940576943],[73.76200488471142,19.92303834361929],[73.7618259163454,19.92291536818616],[73.76167635447251,19.92280649943159],[73.76157398278329,19.92272938274598],[73.76137862224869,19.9225786779054],[73.76120427678805,19.92243531508733],[73.76103556727938,19.92229309340026],[73.76079526707962,19.92208453248893],[73.75980784671916,19.92120407310409],[73.75928280370577,19.92073646688763],[73.75854129242967,19.92007935644614],[73.75824832312385,19.91981640705239],[73.75802292133282,19.91961590781515],[73.75770947362035,19.91933727840471],[73.75624322738355,19.91803109186602],[73.75547137703542,19.91733933788353],[73.75435815352013,19.91635495419491],[73.75335344795192,19.91548294944004],[73.75219468167806,19.91441929504813],[73.75178763373124,19.91407658480908],[73.75153406673526,19.9138714463799],[73.75125987605884,19.913662160426],[73.7509419415477,19.91344000664319],[73.75059868662728,19.91322753744294],[73.75031413287282,19.91306155992085],[73.74988903037301,19.91284286888469],[73.74953598208798,19.91267639937841],[73.74922528824857,19.91254194916435],[73.74883508269052,19.91237682894717],[73.74862627768562,19.912289534083],[73.74724489980535,19.91171488497593],[73.746755028069,19.91150755354765],[73.74599724107732,19.9111920338556],[73.74475028556895,19.91067542377257],[73.74389960209813,19.91032139207296],[73.74238810552652,19.9096874105627],[73.74024917762887,19.90879439047198],[73.73917130310068,19.90834144071597],[73.73844369590907,19.90800933720018],[73.73790109487521,19.90773145445717],[73.73734608000134,19.90743588020274],[73.73679372101594,19.90712924790896],[73.73617349554723,19.90678593252948],[73.73486609280914,19.90605485888066],[73.73288662610197,19.90494934427418],[73.7321028013251,19.90452083453796],[73.73172078483199,19.90433313311645],[73.73130679694594,19.90414794283296],[73.73092029332695,19.90399981093784],[73.73079284960178,19.90394892014258],[73.73057413153542,19.90388115477505],[73.73033509025166,19.90380380344136],[73.73018759690319,19.90376145684868],[73.7299909383079,19.90371050971747],[73.72982410725189,19.90366886995979],[73.72972769103679,19.90364305179518],[73.7296156537773,19.90362174896178],[73.7294746399801,19.90359415184705],[73.72938212429659,19.90357615605558],[73.72930046561551,19.90355876329999],[73.72925645060695,19.90355036774579],[73.72921498988558,19.90354257241858],[73.72902776460106,19.90351586431261],[73.72880723999975,19.90348403921535],[73.72866254187082,19.90346426050587],[73.72847578805313,19.90344938901259],[73.72832469806839,19.90343579341584],[73.72812929482937,19.90341926107503],[73.7278523172093,19.90341107223012],[73.72769820229267,19.90340651683501],[73.72757774826826,19.90340294427526],[73.72718642645331,19.9034132501994],[73.72686545501365,19.90342880997961],[73.72664708704237,19.90344444512859],[73.7263497080539,19.90347537813808],[73.72616743462484,19.90349374509679],[73.72548463160494,19.90356892702858],[73.72366226126245,19.90377512093457],[73.72232903621209,19.90392002347675],[73.72144402643566,19.90402470665087],[73.72115624552252,19.9040608544358],[73.7208997182771,19.90409703993511],[73.72073108302038,19.90412478439378],[73.72006478489676,19.90426195189813],[73.71938541839764,19.90445831499703],[73.71856637293081,19.90477748415688],[73.71788409580071,19.90509598815114],[73.7175534785117,19.90529362202274],[73.71710723710657,19.90556860581476],[73.71694756354594,19.90568434971492],[73.7167065229495,19.90584917938189],[73.71639291647696,19.9061032476529],[73.71619179049505,19.9062671490237],[73.7160149320796,19.90640638064744],[73.71589781348898,19.90652600347846],[73.7157673414896,19.90665514670476],[73.71541694115601,19.90700992962302],[73.71513268112226,19.90734807917924],[73.71497020524806,19.90753249280307],[73.71463119053851,19.90799323820529],[73.71445959261224,19.90775614658222]]}},{"type":"Feature","properties":{"name":"Official Ring Road Segment 5","category":"ring-road"},"geometry":{"type":"LineString","coordinates":[[73.70879775586553,19.91383655123438],[73.709159510819,19.91425722116321],[73.7091323266439,19.91427934665324],[73.70889398384712,19.91447987969217],[73.70870323684676,19.91467915976893],[73.70843483141714,19.91499120229422],[73.70830352206461,19.91518277845443],[73.7081804257465,19.91535252360842],[73.70808099781281,19.91552633093923],[73.70796137438812,19.91575320903051],[73.70788992250732,19.91591056304402],[73.70779598680231,19.91616860583019],[73.70767317231252,19.91646186079632],[73.7074792946345,19.91706420483943],[73.70736373002734,19.91740780033671],[73.70722592428912,19.91778199958872],[73.7070759677351,19.91823529155273],[73.70691442406098,19.91870111045016],[73.70679424370344,19.9190465591215],[73.70662285640178,19.91949688652317],[73.7064597712975,19.91998101858344],[73.70624563252946,19.92066594059555],[73.7057464852671,19.9220344188231],[73.70529806952942,19.92338272210969],[73.70495138127424,19.92438922488667],[73.70485524378978,19.92480612179199],[73.70474273264215,19.92527306062229],[73.70468975215705,19.92555682061602],[73.70463273825725,19.92584775475959],[73.70458026451156,19.92629323350084],[73.70456408156844,19.92656812601576],[73.70454152420642,19.92695805605788],[73.70453126541369,19.92738990263923],[73.70455521801756,19.9279624302757],[73.70456682267755,19.92839623948221],[73.70484577959753,19.92995811897051],[73.70542990114129,19.93318925282234],[73.70569342248328,19.93464159132417],[73.70589577036469,19.93578851411753],[73.70609960189871,19.93689138165531],[73.70632606565982,19.93807818235919],[73.70658242646947,19.93956331733683],[73.70673930421341,19.94044778000335],[73.70690006404769,19.94157758219929],[73.70693793004445,19.94194587916012],[73.70699321476944,19.94251868070675],[73.70701786438615,19.94279052176826],[73.70706908513863,19.94374015484683],[73.70707739290864,19.94400184125066],[73.70708258311306,19.94425674889682],[73.70708341706752,19.94481184342286],[73.70706725259255,19.94572042603131],[73.70702604533045,19.94642907419993],[73.70695181198646,19.9473333572571],[73.70686824372586,19.94807772138939],[73.70676909272771,19.94888283328307],[73.70668616832589,19.9496784963447],[73.70653642197833,19.95061572523494],[73.70640624413694,19.95107342221339],[73.70618603236362,19.95161270564887],[73.70596865678557,19.95204831739725],[73.70562145198362,19.95263214717123],[73.70509861040618,19.95342066080073],[73.7047322593984,19.95399111350277],[73.70437000199566,19.95453352548125],[73.70398018909584,19.95513458472099],[73.703505447772,19.95587238892568],[73.70309382918154,19.9565038111628],[73.70267729744474,19.95717275032256],[73.70245396127561,19.95756721117536],[73.70219523475646,19.95805934387943],[73.70195851201996,19.95856287867975],[73.70143110497605,19.95968760978758],[73.70113046321136,19.96034333194456],[73.7009570965606,19.9607219823238],[73.70079837290027,19.96108881592581],[73.7006657547574,19.96142973459969],[73.70055035777165,19.96174357454196],[73.70043941944068,19.96208044556084],[73.70031663107133,19.96249736614661],[73.70021776814738,19.96285659408479],[73.70011825941849,19.96327789955094],[73.70000810983379,19.96385478117923],[73.69991828177488,19.96449335339708],[73.69982201695369,19.96526994936025],[73.6997244958917,19.96603010891629],[73.69964791086169,19.96664545658757],[73.69947712742078,19.96799450448216],[73.69930997378869,19.96926388678094],[73.6989411550624,19.97220819546941],[73.69869802505285,19.97405721402168],[73.69860958801642,19.97479117101221],[73.69850127089943,19.97570508438448],[73.69836132748588,19.97674426682697],[73.6983193146207,19.97699967157081],[73.69824600569447,19.97745367487702],[73.69809911396605,19.97817012453037],[73.69794402395915,19.97884099060524],[73.69778143952934,19.97951296281218],[73.69770873007452,19.97978819081711],[73.69748431817501,19.98057217050792],[73.69720654773505,19.98142109599138],[73.69684056890426,19.98243227005931],[73.69659146397782,19.98304310824021],[73.69623482880641,19.98388302342864],[73.69567009946084,19.98522836226067],[73.69505534652636,19.9867015582546],[73.69412913168168,19.98893212802174],[73.69350570593973,19.99040386555376],[73.69338473073287,19.99070135542295],[73.69321176797884,19.99116980177356],[73.69308120748533,19.99155158430753],[73.6929437898467,19.99203035853968],[73.69282368599761,19.99255559531692],[73.69272964972289,19.99306512981457],[73.69264517158338,19.99379855158707],[73.69262598974309,19.99405112747774],[73.69261763346583,19.99438810057767],[73.69261363288076,19.99453973142415],[73.6926139710699,19.99468803496563],[73.69262472312565,19.99511983784521],[73.69265285989383,19.99557226049752],[73.692678386745,19.99580359622577],[73.69274546444787,19.9963035423887],[73.69282679215088,19.9968343630781],[73.69285730990985,19.99705625543659],[73.69296786897553,19.99781580625926],[73.69303251247408,19.99826370477268],[73.6931355956166,19.9989298080466],[73.6932607276914,19.99980423943893],[73.6932823271382,19.99994435451374],[73.69340559673667,20.00080677948288],[73.69350264521559,20.00144640449553],[73.69321962697641,20.00149173979992],[73.69293383295961,20.00152681154961],[73.69282867629497,20.00080563422983],[73.69271329620838,20.00001943054465],[73.69269522958041,19.99985356265832],[73.69255592323348,19.99891755921724],[73.69236013484479,19.99759080319452],[73.69224579245068,19.99676100710742],[73.69211879459989,19.99585188368111],[73.69208684654662,19.99552445310457],[73.6920463332618,19.99507049784076],[73.6920391265974,19.99452698438413],[73.69205007514879,19.99409305427362],[73.69206950141985,19.99378272254631],[73.69211027825756,19.99337294155672],[73.69217346600698,19.9929304699856],[73.69225651197688,19.99245513100896],[73.69234058302777,19.99208986149349],[73.69249457385736,19.99152426561328],[73.69268919338788,19.99095849216941],[73.69281338325361,19.99062504162395],[73.69315805942915,19.98978846381958],[73.69351669208446,19.98892719532824],[73.69387679006327,19.98807226019778],[73.69424414511646,19.98720837447042],[73.6945726447629,19.98642682999384],[73.6949433171567,19.98553967719693],[73.69528551688013,19.98473233523712],[73.6956209968912,19.98388905678026],[73.69598593387626,19.98301996625247],[73.6962697121383,19.98232519461435],[73.69642904197126,19.98190426323475],[73.69656968588501,19.98158104080008],[73.69675070807754,19.9810591562318],[73.69689371895763,19.98060537374396],[73.69698290068627,19.9803175479036],[73.69717216576454,19.97965713423386],[73.69738374747322,19.97881903944609],[73.69748859404015,19.97836354221898],[73.6975901509489,19.97788903299244],[73.69773550037985,19.97705825651461],[73.69784517017109,19.97636968991096],[73.69798433043525,19.97527697965018],[73.69809989978398,19.97440258164066],[73.69820268360488,19.97358565713425],[73.69832072340785,19.9726362538289],[73.69838854369098,19.97207811903223],[73.69843628314119,19.97171218012616],[73.69848270487245,19.97132701502918],[73.69859477214455,19.97045439341599],[73.69869506231458,19.96968387777215],[73.69879591811146,19.96889939505984],[73.69888891098641,19.96818452684699],[73.69898294695184,19.96732351878238],[73.69900835922935,19.96712942853709],[73.69904186209536,19.96686570983401],[73.69911426171875,19.96628000478428],[73.69924411757607,19.96527371305935],[73.69936233610808,19.96434899532503],[73.69942882442382,19.96390796616419],[73.69947967824417,19.96359547915315],[73.69956669324809,19.96313910510356],[73.69969278064649,19.96259490264558],[73.69991954165427,19.96180469318623],[73.70024711223978,19.96092659348862],[73.70062928813199,19.96005839172267],[73.70099663296783,19.95928106521687],[73.70125181953775,19.95872870813639],[73.70143258670963,19.958352504939],[73.70162342534064,19.95794717249567],[73.7018775657,19.95744867213645],[73.70208577115312,19.95706173690498],[73.70226249002762,19.95676572174039],[73.70248193822127,19.95641159559642],[73.70276229555677,19.95597755524949],[73.7032878770852,19.95516929283344],[73.70338767321188,19.95501551028341],[73.70354985282768,19.95476112568965],[73.7037242825289,19.95449509170171],[73.70440039848441,19.95345560140488],[73.70470220796527,19.95298834204776],[73.70489241901497,19.95269041711003],[73.70501169491484,19.95251315670548],[73.7050799007759,19.9524035110326],[73.70538418972464,19.95192509042282],[73.70555201573262,19.95161555195212],[73.70568470599115,19.95134113849025],[73.70579193014454,19.9510798348691],[73.70587113436832,19.95084691903393],[73.70592365630374,19.95066779093173],[73.70597559231996,19.950482020206],[73.70605131909576,19.95007846834149],[73.70609622941271,19.94977397269935],[73.70619655298232,19.94889318876481],[73.70630622928375,19.94796017044102],[73.70637933300439,19.94728617609821],[73.70641489009319,19.94691166828298],[73.70646494654595,19.94630175271459],[73.70649253109335,19.94575578214103],[73.70651148761044,19.94489115371401],[73.70650395631199,19.94394364700481],[73.70647832412413,19.94340083880153],[73.70643670366684,19.94274973120681],[73.70638251415421,19.94211990805513],[73.70632571150634,19.94159982455682],[73.70618007394575,19.94058116665222],[73.7060790107418,19.93999419243871],[73.70577688847797,19.93831391191092],[73.70567917423433,19.93780185570155],[73.70560747744526,19.93736614253235],[73.70536955121119,19.93606303940639],[73.70527310427188,19.93554281731657],[73.70511627201503,19.93466932851308],[73.7049922158654,19.93397986696811],[73.70485978567692,19.93327860596354],[73.70474075855356,19.93259822211775],[73.70459985451215,19.93184273940796],[73.70448564926744,19.93119913988219],[73.70420072598043,19.929627706239],[73.7040891663535,19.92899328137575],[73.70400838426389,19.92851277649797],[73.7039858410305,19.92811890134867],[73.70395063437593,19.92767919641988],[73.70395343886868,19.92718694563245],[73.70396208697218,19.9268721655229],[73.70398062862886,19.9265279684776],[73.70402229950732,19.92612929688848],[73.7040593408651,19.92582119024561],[73.70413197493825,19.92536596192169],[73.70425568838581,19.92476812786294],[73.70440466418233,19.92425133316471],[73.70454619740701,19.92384594899481],[73.70469881235314,19.92333267431013],[73.70494320309534,19.92263645256184],[73.70518050765287,19.92195459300348],[73.70541981165518,19.92125579877685],[73.70565354440144,19.9205452978357],[73.70584534177536,19.9200381234195],[73.70605246757837,19.91943767980888],[73.70617868764285,19.91908371249493],[73.70632333257514,19.91863153042738],[73.70649874153062,19.91817054754735],[73.70664945774627,19.91768785413997],[73.7068140804813,19.91722079559341],[73.70702313182278,19.91660877042056],[73.70724998488078,19.91597455173261],[73.70740949175116,19.91558205573411],[73.7075492346725,19.91531282196742],[73.70766230105993,19.91512265611756],[73.70775878630168,19.9149783837386],[73.70788078163645,19.91478881567966],[73.70803247501514,19.91459041724647],[73.70822904565648,19.91436917211854],[73.70854265381018,19.91405266000849],[73.70879775586553,19.91383655123438]]}},{"type":"Feature","properties":{"name":"Official Ring Road Segment 6","category":"ring-road"},"geometry":{"type":"LineString","coordinates":[[73.87966139056935,20.05017341418734],[73.879445731078,20.0504709389679],[73.87879387164674,20.0513681995763],[73.87817883325275,20.05221343761975],[73.87756897281949,20.0530536507797],[73.87721170595304,20.05354210113966],[73.87692273417983,20.05391543925176],[73.87630712202844,20.05463926051102],[73.87594684920288,20.05501023503223],[73.87563966300551,20.0553245552037],[73.87524221788783,20.05568050736368],[73.87494987251772,20.05594082733012],[73.87429862465352,20.05645415385649],[73.87415493871639,20.05656621378143],[73.87380565212023,20.05680524643893],[73.87335679750251,20.05711086219635],[73.87276975206083,20.05745597824609],[73.87251472864742,20.05760547693239],[73.87205172363569,20.05783903244341],[73.87182543282447,20.05795121229615],[73.87162000862065,20.05805460946815],[73.87116603635248,20.05824627831302],[73.87071075673975,20.05843705582459],[73.87059806754976,20.0584754410171],[73.86978435796479,20.05875432529794],[73.86929490448145,20.05889811276805],[73.8681776832334,20.05920623451795],[73.86682089073689,20.05957385075191],[73.86567752084316,20.0598791448848],[73.86306631919751,20.06058687429963],[73.86081885875494,20.06118743813929],[73.858717340565,20.06175439293849],[73.85712222329673,20.06218323603642],[73.85630299845813,20.062405853314],[73.85526935269822,20.06268184937971],[73.85460400403349,20.06287793428301],[73.85425507182562,20.06298433846431],[73.85307431702357,20.06337623962494],[73.85279075577759,20.06348849488946],[73.8515658486445,20.06399472800336],[73.85077786079897,20.06437738126274],[73.85022840702982,20.06464240873958],[73.85011210254828,20.06469937168333],[73.848968599419,20.06535210162966],[73.84871160564403,20.06550019222369],[73.84738506846169,20.06636512676353],[73.84607426021209,20.06737825314606],[73.84517642869885,20.06818487482853],[73.84492540856345,20.06840619025332],[73.84412862064106,20.06921083349496],[73.84381116793804,20.06952650888702],[73.84278773891606,20.07072601419341],[73.84206299632534,20.07165734198621],[73.8416047507586,20.07226454028864],[73.84040570095704,20.07384418116185],[73.83927678498787,20.07531345966474],[73.8377223340411,20.07736470178707],[73.83697274409744,20.07835175099509],[73.83667177817878,20.07874847722401],[73.83651644440236,20.07895246177542],[73.8362034303583,20.07936326435111],[73.83542513431588,20.08038467885212],[73.83503601130667,20.08089846758021],[73.83462963025842,20.08143260265734],[73.83422855921486,20.08196012801967],[73.83378590813994,20.08254243176212],[73.83337897082689,20.08307362710148],[73.83300292687157,20.08357074689651],[73.83275429790305,20.08388315642057],[73.83245631890836,20.08420833408665],[73.83229550583243,20.08435705202771],[73.83217100632487,20.08447093364137],[73.83206853941246,20.08454836422287],[73.8319762191383,20.08454477915056],[73.83170617394711,20.0845485779167],[73.83152040803253,20.0845613489664],[73.83137647387557,20.08456968824587],[73.83085245137005,20.08462173553741],[73.83099442893018,20.08456172287792],[73.83104280567797,20.08454054943],[73.83111592373608,20.08450252379212],[73.83120509932957,20.0844557760463],[73.83127219230461,20.08441999511153],[73.83130192049657,20.08440445940295],[73.83154391008895,20.08425176010242],[73.83177094351811,20.08408010613221],[73.83192627044154,20.08394251873501],[73.83199609120467,20.08388090557604],[73.83211130191837,20.08376389150086],[73.83227241673227,20.08358139956946],[73.83240984950055,20.08341500435195],[73.83254675190278,20.08323876521037],[73.83277100604506,20.08294108241865],[73.8335374964436,20.08193402488278],[73.83470227890552,20.08040993343773],[73.83511029487507,20.07987135077451],[73.83547718787385,20.07938952830021],[73.835708440516,20.07908454630456],[73.83636428775775,20.07822599647752],[73.83689833093676,20.07752653904408],[73.83741081758504,20.07684115302672],[73.83801624162977,20.07606179469606],[73.83856873658273,20.07532780993284],[73.83917220725651,20.07455439350697],[73.83955329384449,20.07403178138331],[73.83991770002957,20.07355509051858],[73.8403738020333,20.07295320126102],[73.84084677880686,20.07233080540544],[73.84121267067663,20.07185058193139],[73.84165957726182,20.07126300928824],[73.84221849813619,20.07053690441728],[73.8425489649931,20.07014131881629],[73.84289638654178,20.06975213679406],[73.84310868748592,20.06950332182261],[73.84336511529436,20.06921856598288],[73.84348284012779,20.06907536869587],[73.84382378762557,20.06872734957142],[73.84413127512235,20.06841665463759],[73.84450453749432,20.06803631211187],[73.84491426583777,20.0676727268468],[73.84534714814698,20.06730776988875],[73.84553266325494,20.06714112866487],[73.8457533355376,20.06694547149685],[73.84623057811582,20.06657060385874],[73.8470501877065,20.06596073838375],[73.84838028643138,20.0650586855493],[73.84914979417722,20.06461387590675],[73.84966802463971,20.06432004280338],[73.84984875014564,20.06421738562971],[73.8509486086491,20.06368611559671],[73.8513080189724,20.06350704732226],[73.8524303750482,20.06306621833107],[73.8528474921448,20.06289502676171],[73.85342876154165,20.06269705420039],[73.85413406967788,20.06246250437127],[73.85451631115136,20.06233529982951],[73.85566500695303,20.06202458712869],[73.85636819546937,20.06183018460626],[73.85716950833081,20.06161676453987],[73.85756626537831,20.06151047592582],[73.85827115575401,20.06131598683722],[73.8590163848862,20.06111449108881],[73.86032228255542,20.06076759193849],[73.86158498763263,20.06042017540928],[73.86311994982337,20.06000887736718],[73.86496380409906,20.05951278484878],[73.8654345612634,20.05938609230593],[73.86647785569698,20.05910265671668],[73.86655335404662,20.05908223550943],[73.86684394248091,20.05900329765886],[73.86764556987364,20.05878908537417],[73.86840905435129,20.05858127136244],[73.86929186655534,20.05834766521403],[73.86961181779932,20.05824564659424],[73.869992760011,20.05811514941226],[73.87050665092725,20.05793011412807],[73.87121571577913,20.05763069521084],[73.87137288689561,20.05756551452796],[73.87176604961785,20.05736849310148],[73.87222477379592,20.05714150944569],[73.87299657790507,20.05668948312521],[73.87368297106265,20.05622411532367],[73.87380430468045,20.05614200776502],[73.87414233700736,20.05587819876883],[73.87453850782373,20.05556852923899],[73.87484057017406,20.055298086856],[73.87506433077317,20.05509402332853],[73.87522414408329,20.05495033679717],[73.87542202739544,20.05474788288976],[73.8758763165323,20.05428110120047],[73.87614395803153,20.05396996490598],[73.87631419929009,20.05376333724434],[73.87645721196819,20.05359696070851],[73.87670449262944,20.05327308362974],[73.87707328333933,20.05277621118508],[73.87749468464868,20.05219193033234],[73.87774958572012,20.05184899041053],[73.87827171016656,20.0511293418442],[73.87852084649833,20.05078641971535],[73.87918766183104,20.04986893401889],[73.87966139056935,20.05017341418734]]}},{"type":"Feature","properties":{"name":"Official Ring Road Segment 7","category":"ring-road"},"geometry":{"type":"LineString","coordinates":[[73.8269361993785,20.085238990403],[73.8257789245021,20.08514023571258],[73.82473156665772,20.08509094137766],[73.82366701030068,20.08510159396705],[73.8226956145931,20.0851552477762],[73.82148531068067,20.08529034664415],[73.82039226342528,20.08548421455876],[73.81957729783988,20.08567125080127],[73.81853796399024,20.08594939634453],[73.81593756130414,20.08669980454109],[73.81051445965059,20.08825970258787],[73.80932114579754,20.08851980729381],[73.80774490201294,20.08883277014788],[73.80537521480395,20.08929015183021],[73.80483539450924,20.08937408746522],[73.80357735016902,20.08952176030956],[73.80267988270258,20.08955460361613],[73.80206422935096,20.08957261128228],[73.80055621418461,20.08952426680135],[73.79907639783696,20.08932413906084],[73.79761658326304,20.08901597673305],[73.79616805597223,20.08857567095907],[73.79474598952706,20.08802055693195],[73.79343602181477,20.08737476131851],[73.79214075116222,20.08659657944865],[73.79106952814168,20.08585702392563],[73.79001035957837,20.08511591380679],[73.7892138092725,20.08454517282933],[73.78845906953268,20.08400798605761],[73.78886935882996,20.08390900962247],[73.78884947443514,20.08360565631702],[73.7893119638154,20.08393213179436],[73.79083043941768,20.08499615704453],[73.79194824557915,20.08578744698376],[73.79251353205196,20.08617925326664],[73.79371358148198,20.08688772144169],[73.79499878640657,20.08751682229316],[73.7963831515366,20.08804022309868],[73.79764212085625,20.08842874244541],[73.79917204366784,20.08876420351919],[73.80060761147986,20.08895118105123],[73.80210099175997,20.08901382664317],[73.80353034304513,20.08895899057737],[73.80521608821887,20.08876567667717],[73.80865317396,20.08809834117126],[73.80955178991998,20.08791947078583],[73.81044978476719,20.08769848938062],[73.8128422535091,20.08702381134178],[73.81665334664467,20.08593101996023],[73.81945769392213,20.08514168504045],[73.82020285245274,20.08497484463676],[73.82145482991467,20.0847563167793],[73.82238914246199,20.0846431745808],[73.82341658497474,20.08456988656767],[73.82420457368117,20.08454645021673],[73.8249143764369,20.08455560057336],[73.82584698581252,20.08459989099684],[73.82704662103454,20.08470242382233],[73.82847056460702,20.08483593501052],[73.82890961627129,20.08487386187499],[73.82911374870717,20.08488747052886],[73.82926712787278,20.08489440265021],[73.82952546616741,20.08489373373128],[73.82964286231953,20.08543464920842],[73.8293403228333,20.08543842749088],[73.82914526620986,20.08543192619883],[73.82883610266711,20.08541251093877],[73.82821936396037,20.0853578328501],[73.82783351983477,20.08532106143852],[73.82744566908984,20.08528765625326],[73.82708305808669,20.08525215408226],[73.8269361993785,20.085238990403]]}},{"type":"Feature","properties":{"name":"Official Ring Road Segment 8","category":"ring-road"},"geometry":{"type":"LineString","coordinates":[[73.78754832816733,20.08336461048168],[73.7873311795626,20.08320962848964],[73.78706200392752,20.08301942967366],[73.78674995842853,20.08279774253288],[73.78549351442008,20.08191363993934],[73.78501252635158,20.08157197023647],[73.78450856102589,20.08121416419484],[73.78412167069328,20.08094221760014],[73.7835888775756,20.08056557842907],[73.7817185610075,20.07924371030425],[73.78003519331874,20.07805246489642],[73.77915059802636,20.07742953157575],[73.77881421539598,20.07717725960409],[73.77855102701088,20.07697822236218],[73.77829256176763,20.07677097738803],[73.77772786243642,20.07630412238986],[73.77731232270895,20.07593073835828],[73.77693220494261,20.07556730257672],[73.77617409410608,20.07478944406751],[73.77559403731608,20.07411893309282],[73.77526425898266,20.07371216294038],[73.77478943487007,20.0731038391038],[73.7743035600362,20.07248588375533],[73.77395785824018,20.07204602158153],[73.77335063476467,20.07126558507171],[73.77300067994364,20.07082029512211],[73.7724458587422,20.07011912537768],[73.77221021624767,20.06982638746351],[73.7719706569438,20.06954965419115],[73.77167020426702,20.06920820317814],[73.77135322055098,20.06886709939332],[73.77114711287534,20.0686599619145],[73.77079913034652,20.06831361441083],[73.77059542222655,20.06812228658143],[73.77018005913439,20.06774574111021],[73.76986696967306,20.06748104148956],[73.76969819221105,20.06734025597483],[73.76952404236972,20.06720056902621],[73.7690070906292,20.06680041627124],[73.76858850664296,20.06650037269481],[73.7682747041888,20.0662887192155],[73.7678607020998,20.06601829426071],[73.76722900473997,20.06563567278856],[73.7667753069967,20.06537584023729],[73.76548394338444,20.06468160940856],[73.76461123400603,20.06420390550007],[73.76372007276923,20.06373319256163],[73.76248692763397,20.06306233152817],[73.76191660948862,20.06277186385486],[73.761161192268,20.06240518076453],[73.76044954205037,20.06208733204018],[73.75970563221695,20.06178580812864],[73.75926111782981,20.06162053350732],[73.75871206053903,20.06142969180328],[73.75782874160902,20.06115093512541],[73.75697518308704,20.06090803982877],[73.75518561051523,20.06042655213724],[73.75411636780646,20.06013447404955],[73.75282336911114,20.05978321182949],[73.75164570106296,20.05946166459015],[73.75064455255244,20.05918781340934],[73.74876032511338,20.05867745732474],[73.74772940276887,20.05840061028625],[73.7462229713414,20.05799142589547],[73.74518463932098,20.05770844103261],[73.74333489237623,20.05720484211304],[73.74235841662826,20.05693652919873],[73.74125374639507,20.05663183723116],[73.74043696974174,20.0563863560434],[73.73971922100262,20.05613005025491],[73.73897326635137,20.05585639779486],[73.73791328806955,20.05540979636451],[73.73686130223236,20.05496988971409],[73.73562142823347,20.0544468171369],[73.73426363955325,20.05387255320216],[73.7331620833111,20.05341028550751],[73.73192560599279,20.05288627983884],[73.73049625682228,20.05228476332788],[73.7286661592937,20.05151364861388],[73.72688851963501,20.05076051843371],[73.72585918607906,20.05034543134574],[73.72497750662536,20.05002266991839],[73.72435531234967,20.04981156428459],[73.72329622534811,20.04948619910515],[73.72172559859418,20.04902532022857],[73.72011158192136,20.04855810715885],[73.71853234593299,20.04808267316277],[73.71809982376448,20.04795779105554],[73.7171672313654,20.04767981692487],[73.7159347071941,20.04732028698784],[73.71470663494846,20.04695530252144],[73.71363616257761,20.04663627490977],[73.71332395170627,20.04651474895531],[73.71248398330908,20.04620013305163],[73.71161282228644,20.0458736115391],[73.71106378874681,20.04560718427836],[73.70980688028345,20.04499069027155],[73.70958069822254,20.04487443057971],[73.70897525415344,20.04450113783186],[73.70861638839972,20.04427911177314],[73.70772494231339,20.0437200941503],[73.70694494394151,20.04312217211985],[73.70601523146756,20.04240101627989],[73.70560483504819,20.04201258445964],[73.70507137923225,20.04150279885712],[73.70445946556855,20.04092899127376],[73.70432356431257,20.04077830627453],[73.70424238033476,20.040679169566],[73.70419793475416,20.04062388245135],[73.70304980666748,20.03929751111896],[73.70261138315455,20.0386654175896],[73.70202467560475,20.03781272276296],[73.70182977910636,20.03753470033541],[73.70165407218593,20.03721917311049],[73.7014596227821,20.03686072356553],[73.70108493204809,20.03618224475899],[73.70081970714557,20.03568941976199],[73.70051789283161,20.03498272518237],[73.70021478897456,20.03426612256154],[73.70007212553675,20.03392020791966],[73.70000204897156,20.03376466543617],[73.69978125834676,20.03310605193463],[73.69948249474056,20.03217985621204],[73.69890722888537,20.03045535990861],[73.69850037872271,20.0291944001277],[73.69813332082371,20.02808479015213],[73.69751130552595,20.02619446511391],[73.69706905571566,20.02484660884932],[73.69706315608245,20.02480953896625],[73.69661080075407,20.02344322760671],[73.69637383097172,20.0227050859553],[73.69607403048728,20.02163503795253],[73.69584372750418,20.02067591819266],[73.69572629757211,20.02008173809604],[73.69564921707865,20.01968953792714],[73.69554245915242,20.01906469991165],[73.69512635563173,20.01622324842739],[73.69498118828383,20.0152284015627],[73.69468088390204,20.01320671151651],[73.69415604879438,20.00970347767307],[73.6940136902706,20.00873496936484],[73.6938044658911,20.00731784864981],[73.69352995472569,20.00550923140933],[73.69352263398504,20.00546927884369],[73.69351983830909,20.00544274478242],[73.69329728341027,20.00390625029695],[73.69310271907202,20.00261491454361],[73.69293473897186,20.00152645598839],[73.69321953846453,20.00149105252782],[73.69350186826863,20.00144737074812],[73.69355575579435,20.00184092232583],[73.69370726927447,20.00285068508283],[73.69377607793136,20.00328597849098],[73.69400182076537,20.00484836587507],[73.69410373250514,20.005487224378],[73.69430801955637,20.00691044728048],[73.69460607466132,20.00893504989892],[73.69480001203554,20.01022117439282],[73.69496147330813,20.01124014458748],[73.69521998743929,20.01307536592013],[73.69536771975588,20.01406529467228],[73.69558393688126,20.01557519621506],[73.69577433773517,20.01679678130378],[73.69599619118121,20.01824402809843],[73.69618207736448,20.01940158892437],[73.69624857489563,20.01981478983993],[73.69650366394983,20.02099942165215],[73.69661741393489,20.02146059184143],[73.69692324086664,20.02253201335874],[73.69742354174238,20.02409361542202],[73.69787837653058,20.02547966433549],[73.69837481341116,20.02698096211919],[73.69893892251525,20.02872257652851],[73.6990832277158,20.0291535912723],[73.69939872073685,20.03011828052469],[73.69960273684148,20.03075836091306],[73.69997774210758,20.03189952662111],[73.70017325981159,20.03247454050189],[73.70044558679929,20.0332993320093],[73.70053456734527,20.03355010996209],[73.7006698534163,20.03387526685601],[73.70119496277702,20.03512850112988],[73.70133369137241,20.0354631334585],[73.70232914158721,20.03726505545917],[73.70302954470999,20.03828012529809],[73.70352839642433,20.03900845748545],[73.7042406973889,20.03981794262114],[73.70486910532239,20.04054947927432],[73.70543054483207,20.04108207817869],[73.70639836931626,20.0419970235148],[73.70675775442285,20.04227440588802],[73.70745730542838,20.04281418999244],[73.70806756623291,20.04328441123779],[73.70851417222667,20.04356516331295],[73.70911140772006,20.04393635162758],[73.70987641418961,20.04441332424476],[73.71027381108652,20.04460903425029],[73.7108977595027,20.04491585260572],[73.7117721458276,20.04534924232352],[73.71266393007545,20.04568480022265],[73.71342638115941,20.04597540964734],[73.71378120073004,20.04610431466142],[73.71445790229686,20.04631542135649],[73.7157021974118,20.04668025183487],[73.71643689918085,20.04690020915885],[73.71724772227753,20.04713749125107],[73.71877131012788,20.04758726579185],[73.71974237908078,20.0478751540255],[73.72011024952717,20.04798320042664],[73.72096043788198,20.04822984928303],[73.72302707436987,20.04884192924288],[73.72404748092869,20.04914533197535],[73.72460762808082,20.04932337299756],[73.72491394551116,20.0494249160507],[73.72519984919364,20.0495230623143],[73.7255626283755,20.0496517137764],[73.72590847167348,20.04978173061203],[73.725974296236,20.04980533963599],[73.72604741756028,20.04983347135618],[73.72704459234039,20.05023184704922],[73.72804212370936,20.05065305235651],[73.72858990772174,20.05088522190498],[73.72900686088867,20.05106022603227],[73.7305531167588,20.05170999515334],[73.73162795680445,20.05216832535137],[73.73257606453366,20.0525649257688],[73.73436278627418,20.05332515567907],[73.73524879599042,20.05369281087209],[73.73614981822027,20.05407525155208],[73.73833712663453,20.05499736943615],[73.73902938926851,20.05528729370406],[73.73991622239494,20.05562749131238],[73.74084964639547,20.05594032513802],[73.74165884737538,20.05618459167749],[73.74378828546234,20.05676308538698],[73.74633670609515,20.05745696886455],[73.74980163891718,20.05839590008155],[73.75035261296833,20.05854796681757],[73.75096685598747,20.05871350168816],[73.75158258304435,20.05888289137261],[73.75205235838575,20.05900545383027],[73.75265015200142,20.0591682304362],[73.75355590351896,20.05941605297802],[73.75416679755341,20.059584745671],[73.75487242338528,20.05977545452872],[73.75535960752187,20.05990759161843],[73.75591482499534,20.06005954232112],[73.75625018681924,20.06015184798022],[73.75705546648157,20.06036799987106],[73.75798269175607,20.06062903726237],[73.75849575134966,20.06078273363187],[73.75911284784057,20.06099176560047],[73.75953421077978,20.06113674266539],[73.75982155802589,20.06124773319881],[73.76002933392321,20.0613249618469],[73.76032972099593,20.06144471931154],[73.76058035402903,20.06154911724957],[73.7607653416684,20.06162745085318],[73.76096996380184,20.06171579139709],[73.76124839579842,20.06183863792909],[73.76151207418468,20.06196226197938],[73.76182884323985,20.06210990858546],[73.7623849828653,20.06238859791998],[73.76268076651368,20.06254357448415],[73.76313034208466,20.06278434432818],[73.7636559848513,20.06306799537818],[73.76409124146254,20.06330071821745],[73.76478839477332,20.06367466723817],[73.76555384852195,20.06409395017391],[73.76667184287908,20.06469513662526],[73.76685802099487,20.06479470385854],[73.76708229089255,20.06491758307242],[73.76763701214014,20.0652354891414],[73.76815319583937,20.06554621090114],[73.76862088787631,20.06585525695287],[73.76879381814074,20.06597018631099],[73.76918435026124,20.06625011237218],[73.76946209990578,20.06645332736401],[73.77003054115076,20.06688995255031],[73.77073459832143,20.06749539824824],[73.77111816787314,20.06784529634577],[73.77173660384952,20.06845887119954],[73.77206296151691,20.06880771884798],[73.77215527225984,20.06890781130474],[73.77256984261977,20.06938284645558],[73.77286910143856,20.0697463757746],[73.7732575857477,20.07023862852715],[73.77383308270872,20.07097242126866],[73.77444136847548,20.07174959708081],[73.7750095776708,20.07247672343075],[73.77554267267047,20.07315608118063],[73.77599627319519,20.07372857568213],[73.77621987171199,20.07399237737837],[73.77645291877495,20.07426312646222],[73.77673748877766,20.0745745591528],[73.77702232189479,20.07487336779998],[73.77750161972425,20.07534208010363],[73.77771963183605,20.07554794571662],[73.77804553734805,20.07584009062949],[73.77829959199727,20.07605934715567],[73.778632585471,20.07633597070749],[73.77902864222983,20.07664462531908],[73.77972001617455,20.07715688754196],[73.7800844581219,20.07741392539997],[73.78045179110006,20.07767041479914],[73.78090081099022,20.07799003643038],[73.78176483370841,20.07860041141367],[73.78242491820576,20.07906394130582],[73.78312533154154,20.07956209393187],[73.7840006111761,20.08017939860142],[73.78481339739112,20.0807548430069],[73.7856340280097,20.08133378664658],[73.78593217562788,20.08154552692796],[73.78639756070388,20.08187526427804],[73.7871473640262,20.08241022150425],[73.78821351588078,20.08315747519305],[73.78815987889568,20.08345253496206],[73.78789488015374,20.08352046937497],[73.78785842509139,20.08358340754403],[73.78754832816733,20.08336461048168]]}}]}
