{"type":"FeatureCollection","features":[{"type":"Feature","properties":{"name":"Staging Area no. 2","description":"Shivaji Stadium","sourceFolder":"Staging Area.kmz / Staging Area / Gangapur Road","source":"Mobility plan Nashik KMZ (NTKMA)"},"geometry":{"type":"Point","coordinates":[73.78508417935356,20.00332744970464]}},{"type":"Feature","properties":{"name":"Staging Area no. 10","description":"Police Parade Ground","sourceFolder":"Staging Area.kmz / Staging Area / Trimbak road","source":"Mobility plan Nashik KMZ (NTKMA)"},"geometry":{"type":"Point","coordinates":[73.778872050337,20.00154055309363]}},{"type":"Feature","properties":{"name":"Dwarka circle staging area","sourceFolder":"Staging Area.kmz / Staging Area","source":"Mobility plan Nashik KMZ (NTKMA)"},"geometry":{"type":"Point","coordinates":[73.79694145214906,19.99321329032814]}},{"type":"Feature","properties":{"name":"Amrutdham chowk","sourceFolder":"Staging Area.kmz / Staging Area","source":"Mobility plan Nashik KMZ (NTKMA)"},"geometry":{"type":"Point","coordinates":[73.82495325310545,20.01564947490851]}},{"type":"Feature","properties":{"name":"Manur Shiwar S. No. 14","sourceFolder":"Staging Area.kmz / Staging Area","source":"Mobility plan Nashik KMZ (NTKMA)"},"geometry":{"type":"Point","coordinates":[73.84850376677402,19.99651227030862]}},{"type":"Feature","properties":{"name":"Staging Area no. 7","description":"Nimani Bus Stand","sourceFolder":"Staging Area.kmz / Staging Area","source":"Mobility plan Nashik KMZ (NTKMA)"},"geometry":{"type":"Point","coordinates":[73.79682580857336,20.01154160732907]}},{"type":"Feature","properties":{"name":"Staging Area no. 1","description":"Old Municipal Corporation Department Office Premises, Panchavati, Nashik","sourceFolder":"Staging Area.kmz / Staging Area","source":"Mobility plan Nashik KMZ (NTKMA)"},"geometry":{"type":"Point","coordinates":[73.78953024755337,20.0112683468279]}},{"type":"Feature","properties":{"name":"Staging Area no. 3","description":"Premises of Municipal School, near Godavari Hotel junction,behind Ayurvedic College, Godavari River right Bank Area, Panchavati, Nashik","sourceFolder":"Staging Area.kmz / Staging Area","source":"Mobility plan Nashik KMZ (NTKMA)"},"geometry":{"type":"Point","coordinates":[73.79661809678554,20.00332120166515]}},{"type":"Feature","properties":{"name":"Staging Area no.4","description":"Near Dive Bungalow, Takli, Nashik","sourceFolder":"Staging Area.kmz / Staging Area","source":"Mobility plan Nashik KMZ (NTKMA)"},"geometry":{"type":"Point","coordinates":[73.81870597464359,19.98483800189973]}},{"type":"Feature","properties":{"name":"Natyagruha - NMC reservation","sourceFolder":"Staging Area.kmz / Staging Area","source":"Mobility plan Nashik KMZ (NTKMA)"},"geometry":{"type":"Point","coordinates":[73.83786630577015,19.95679687160837]}},{"type":"Feature","properties":{"name":"Staging Area no. 9","description":"NMC Land - SR 246 (Bus Depot)","sourceFolder":"Staging Area.kmz / Staging Area","source":"Mobility plan Nashik KMZ (NTKMA)"},"geometry":{"type":"Point","coordinates":[73.8404895142062,19.94263605384345]}},{"type":"Feature","properties":{"name":"","description":"MVP school","sourceFolder":"Staging Area.kmz / Staging Area","source":"Mobility plan Nashik KMZ (NTKMA)"},"geometry":{"type":"Point","coordinates":[73.77260706612242,20.04424088440518]}},{"type":"Feature","properties":{"name":"","description":"De. Na. Patil NMC school","sourceFolder":"Staging Area.kmz / Staging Area","source":"Mobility plan Nashik KMZ (NTKMA)"},"geometry":{"type":"Point","coordinates":[73.71827634842595,20.02913955740284]}}]}
