{"type":"FeatureCollection","features":[{"type":"Feature","geometry":{"type":"Point","coordinates":[73.742389,19.966413]},"properties":{"Name":"Siddhivinayak Automobiles","Address":"Ambad Kamtwade Road Ambad, Nashik","locationConfidence":"locality-match","Phone":"08401819341","Authorized":"Company Authorised Dealer","Type":"Two Wheeler Repair & Service"}},{"type":"Feature","geometry":{"type":"Point","coordinates":[73.815674,19.99597]},"properties":{"Name":"VJ Auto and Spare","Address":"Takli Road Upnagar, Nashik","locationConfidence":"approximate","Phone":"08401503058"}},{"type":"Feature","geometry":{"type":"Point","coordinates":[73.742994,19.966519]},"properties":{"Name":"Gandhi Motors Pvt Ltd","Address":"Uttam Nagar Road Ambad, Nashik","locationConfidence":"locality-match","Phone":"08123871165","Authorized":"Company Authorised Dealer","Type":"Two Wheeler Repair & Service"}},{"type":"Feature","geometry":{"type":"Point","coordinates":[73.827666,19.957685]},"properties":{"Name":"Gandhi Motors Private Limited","Address":"Nashik Road Nashik Road, Nashik","locationConfidence":"locality-match","Phone":"07043251387","Authorized":"Company Authorised Dealer"}},{"type":"Feature","geometry":{"type":"Point","coordinates":[73.805971,20.006105]},"properties":{"Name":"New Star Crane Service","Address":"Pune Nashik Highway Nandurshingote, Nashik","locationConfidence":"approximate","Phone":"08460476293","Authorized":"Two Wheeler Repair & Service","Type":"Two Wheeler Towing"}},{"type":"Feature","geometry":{"type":"Point","coordinates":[73.783499,20.009303]},"properties":{"Name":"Torque Motors","Address":"Nasik Pune Road Upnagar, Nashik","locationConfidence":"approximate","Phone":"08401970725","Authorized":"Pickup And Drop Facility","Type":"Loan Facility"}},{"type":"Feature","geometry":{"type":"Point","coordinates":[73.74467,19.967491]},"properties":{"Name":"Gandhi Motors Pvt Ltd","Address":"Sahyadri Complex Uttam Nagar Cidko Ambad, Nashik","locationConfidence":"locality-match","Phone":"08460231452","Authorized":"Company Authorised Dealer"}},{"type":"Feature","geometry":{"type":"Point","coordinates":[73.730989,19.988172]},"properties":{"Name":"Jai Janardhan Auto Spares","Address":"Shivaji Nagar Road Satpur, Nashik","locationConfidence":"locality-match","Phone":"08401929805","Authorized":"Two Wheeler Repair & Service"}},{"type":"Feature","geometry":{"type":"Point","coordinates":[73.795198,19.983946]},"properties":{"Name":"Gandhi Motors Private Limited","Address":"Mumbai Agra Highway Pimpalgaon Baswant, Nashik","locationConfidence":"approximate","Phone":"08147955853","Authorized":"Company Authorised Dealer"}},{"type":"Feature","geometry":{"type":"Point","coordinates":[73.730683,19.989932]},"properties":{"Name":"Royal Enfield Nashik","Address":"MIDC Satpur, Nashik","locationConfidence":"locality-match","Phone":"09606248548","Authorized":"Company Authorised Dealer"}},{"type":"Feature","geometry":{"type":"Point","coordinates":[73.783504,19.989149]},"properties":{"Name":"Rushabh Motors Pvt Ltd","Address":"Mumbai Agra Road Mumbai Naka, Nashik","locationConfidence":"locality-match","Phone":"07383030147","Authorized":"Company Authorised Dealer","Type":"Two Wheeler Repair & Service"}},{"type":"Feature","geometry":{"type":"Point","coordinates":[73.785037,19.991258]},"properties":{"Name":"Noble Auto Wheels","Address":"Mahatma Nagar Road Mahatma Nagar, Nashik","locationConfidence":"approximate","Phone":"07383105456","Authorized":"Company Authorised Dealer","Type":"Same Day Delivery"}},{"type":"Feature","geometry":{"type":"Point","coordinates":[74.246087,20.330404]},"properties":{"Name":"Shourya TVS","Address":"Manmad Road Chandwad, Nashik","locationConfidence":"locality-match","Phone":"09054248114","Authorized":"Company Authorised Dealer"}},{"type":"Feature","geometry":{"type":"Point","coordinates":[73.595051,19.950599]},"properties":{"Name":"Shree Kuber TVS","Address":"Trimbak Road Satpur, Nashik","locationConfidence":"locality-match","Authorized":"Loan Facility","Type":"Company Authorised Dealer"}},{"type":"Feature","geometry":{"type":"Point","coordinates":[73.798914,19.992089]},"properties":{"Name":"Ostwal Autos","Address":"New Bombay Agra Road Dwarka, Nashik","locationConfidence":"locality-match","Authorized":"In Store Collect","Type":"Delivery Available"}},{"type":"Feature","geometry":{"type":"Point","coordinates":[73.593785,19.951273]},"properties":{"Name":"Khushi Honda","Address":"Nashik Pune Road Upnagar, Nashik","locationConfidence":"locality-match","Authorized":"On Site Services","Type":"Pre-Owned Cars"}},{"type":"Feature","geometry":{"type":"Point","coordinates":[73.790773,19.999542]},"properties":{"Name":"Sachi Honda","Address":"BS Moonje Marg Samarth Nagar, Nashik","locationConfidence":"approximate","Authorized":"On Site Services","Type":"Two Wheeler Repair & Service"}},{"type":"Feature","geometry":{"type":"Point","coordinates":[73.797129,20.001631]},"properties":{"Name":"Kamal Hero","Address":"Pune Nashik Highway Tagore Nagar, Nashik","locationConfidence":"approximate","Authorized":"On Site Services","Type":"In Store Collect"}},{"type":"Feature","geometry":{"type":"Point","coordinates":[73.78324,19.990121]},"properties":{"Name":"Wasan Bajaj","Address":"New Mumbai Agra Road Mumbai Naka, Nashik","locationConfidence":"locality-match","Authorized":"Company Authorised Dealer","Type":"Two Wheeler Repair & Service"}},{"type":"Feature","geometry":{"type":"Point","coordinates":[73.731274,19.989495]},"properties":{"Name":"Bhavin Wheels Pvt Ltd","Address":"Satpur, Nashik","locationConfidence":"locality-match","Authorized":"Car Dealers","Type":"Two Wheeler Repair & Service"}},{"type":"Feature","geometry":{"type":"Point","coordinates":[73.75838,19.996327]},"properties":{"Name":"Variyan Auto","Address":"Mahatma Nagar Road Parijat Nagar, Nashik","locationConfidence":"locality-match","Authorized":"On Site Services","Type":"Company Authorised Dealer"}},{"type":"Feature","geometry":{"type":"Point","coordinates":[73.787412,20.00177]},"properties":{"Name":"Shree Mahalaxmi Auto Garage","Address":"Trimbakeshwar Road Trimbakeshwar, Nashik","locationConfidence":"approximate","Authorized":"Two Wheeler Repair & Service","Type":"Garage"}},{"type":"Feature","geometry":{"type":"Point","coordinates":[73.78975,19.993754]},"properties":{"Name":"Jitendra Hero","Address":"60 Feet Road Sarda Circle, Nashik","locationConfidence":"approximate","Authorized":"On Site Services","Type":"Two Wheeler Repair & Service"}},{"type":"Feature","geometry":{"type":"Point","coordinates":[73.782667,19.987704]},"properties":{"Name":"Manohar TVS","Address":"Mumbai Naka Bhagwat Nagar Bhabha Nagar, Nashik","locationConfidence":"locality-match","Authorized":"On Site Services","Type":"Company Authorised Dealer"}},{"type":"Feature","geometry":{"type":"Point","coordinates":[73.744186,19.966413]},"properties":{"Name":"Rushabh Honda","Address":"Ambad Link Road Uttam Nagar, Nashik","locationConfidence":"locality-match","Authorized":"Delivery Available","Type":"Shop In Store"}},{"type":"Feature","geometry":{"type":"Point","coordinates":[73.797617,19.993521]},"properties":{"Name":"Sachi Honda","Address":"Makhamalabad Naka, Nashik","locationConfidence":"approximate","Authorized":"Company Authorised Dealer","Type":"Shop In Store"}},{"type":"Feature","geometry":{"type":"Point","coordinates":[73.810955,19.980195]},"properties":{"Name":"Shivang Hero","Address":"Mumbai Agra Road, Nashik","locationConfidence":"approximate","Authorized":"Shop In Store","Type":"In Store Collect"}},{"type":"Feature","geometry":{"type":"Point","coordinates":[73.79814,19.992835]},"properties":{"Name":"Torque Motors Yamaha","Address":"Agra Takali Road Road Dwarka, Nashik","locationConfidence":"locality-match","Authorized":"Two Wheeler Repair & Service"}},{"type":"Feature","geometry":{"type":"Point","coordinates":[73.774136,19.989766]},"properties":{"Name":"Shaurya Motors (Royal Enfield Showroom)","Address":"Mumbai Agra Highway Pimpalgaon Baswant, Nashik","locationConfidence":"approximate","Authorized":"Company Authorised Dealer","Type":"Delivery Available"}},{"type":"Feature","geometry":{"type":"Point","coordinates":[73.827637,19.95768]},"properties":{"Name":"Wasan Bajaj","Address":"Nashik Road Jackak Nagar, Nashik","locationConfidence":"locality-match","Authorized":"Car Dealers","Type":"Company Authorised Dealer"}},{"type":"Feature","geometry":{"type":"Point","coordinates":[73.732169,19.989231]},"properties":{"Name":"Embark Auto (Royal Enfield Showroom)","Address":"Trambakeshwar Road Satpur, Nashik","locationConfidence":"locality-match","Authorized":"Two Wheeler Repair & Service"}},{"type":"Feature","geometry":{"type":"Point","coordinates":[73.771328,19.986937]},"properties":{"Name":"Speed Suzuki","Address":"Pranjali Heights Mumbai Agra Road, Nashik","locationConfidence":"approximate","Authorized":"Company Authorised Dealer","Type":"Same Day Delivery"}},{"type":"Feature","geometry":{"type":"Point","coordinates":[73.753381,20.01483]},"properties":{"Name":"Active Suzuki","Address":"Krishna Enclave Gangapur Road, Nashik","locationConfidence":"locality-match","Authorized":"Company Authorised Dealer","Type":"Two Wheeler Repair & Service"}},{"type":"Feature","geometry":{"type":"Point","coordinates":[73.794589,19.997472]},"properties":{"Name":"Ganesh Agencies","Address":"Niphad, Nashik","locationConfidence":"approximate","Authorized":"Two Wheeler Repair & Service","Type":"Same Day Delivery"}},{"type":"Feature","geometry":{"type":"Point","coordinates":[73.795031,19.995224]},"properties":{"Name":"MAANYTAA IT SOLUTIONS","Address":"Trimurti Chauk Kamatwada Road Vakratund Parcel Point, Nashik","locationConfidence":"approximate","Authorized":"Company Authorised Dealer","Type":"Same Day Delivery"}},{"type":"Feature","geometry":{"type":"Point","coordinates":[73.782325,19.989414]},"properties":{"Name":"Pava TVS","Address":"New Mumbai Agra Road Mumbai Naka, Nashik","locationConfidence":"locality-match","Authorized":"Two Wheeler Repair & Service"}},{"type":"Feature","geometry":{"type":"Point","coordinates":[73.784033,19.977441]},"properties":{"Name":"Shankeshwar Honda","Address":"Nashik Kalvan Road Vani, Nashik","locationConfidence":"approximate","Authorized":"Loan Facility","Type":"Test Ride Offered"}},{"type":"Feature","geometry":{"type":"Point","coordinates":[73.776354,20.01741]},"properties":{"Name":"New Maruti Automobiles & Cng Authorised Service Center","Address":"Takali Road Tilakwadi, Nashik","locationConfidence":"approximate","Authorized":"Garage"}},{"type":"Feature","geometry":{"type":"Point","coordinates":[73.789658,19.999625]},"properties":{"Name":"Sachi Honda","Address":"Mhasrul Link Road Mhasrul, Nashik","locationConfidence":"approximate","Authorized":"Motorcycle Dealers-Honda","Type":"Motorcycle Dealers"}},{"type":"Feature","geometry":{"type":"Point","coordinates":[73.786952,20.000406]},"properties":{"Name":"Moharir Auto","Address":"Shivaji Road Shalimar, Nashik","locationConfidence":"locality-match","Authorized":"Company Authorised Dealer"}},{"type":"Feature","geometry":{"type":"Point","coordinates":[73.782882,19.988981]},"properties":{"Name":"Om Sai Yamaha Showroom","Address":"Mumbai Agra National Highway Mumbai Naka, Nashik","locationConfidence":"locality-match","Authorized":"Company Authorised Dealer","Type":"Same Day Delivery"}},{"type":"Feature","geometry":{"type":"Point","coordinates":[73.79808,19.998235]},"properties":{"Name":"Jawa Motorcycles","Address":"Mumbai Agra Road Indira Nagar Nashik, Nashik","locationConfidence":"approximate","Authorized":"Company Authorised Dealer"}},{"type":"Feature","geometry":{"type":"Point","coordinates":[73.789659,19.994862]},"properties":{"Name":"KTM Showroom","Address":"Rushiraj Heights Mahatma Nagar, Nashik","locationConfidence":"approximate","Authorized":"Same Day Delivery","Type":"Shop In Store"}},{"type":"Feature","geometry":{"type":"Point","coordinates":[73.788825,20.000319]},"properties":{"Name":"Suvarna Motor Cycle Services","Address":"Matale Mangal Karyalaya Road Durganagar, Nashik","locationConfidence":"approximate","Authorized":"Motorcycle Repair & Services","Type":"Superbike Repair & Services"}},{"type":"Feature","geometry":{"type":"Point","coordinates":[73.779459,19.995264]},"properties":{"Name":"Jk Automobiles","Address":"Adgoan Shivar Nirmal Nagar, Nashik","locationConfidence":"approximate","Authorized":"Company Authorised Dealer","Type":"Two Wheeler Repair & Service"}},{"type":"Feature","geometry":{"type":"Point","coordinates":[73.731765,19.990463]},"properties":{"Name":"Shiva Motors","Address":"Midc Satpur Colony Satpur, Nashik","locationConfidence":"locality-match","Authorized":"Two Wheeler Repair & Service"}},{"type":"Feature","geometry":{"type":"Point","coordinates":[73.846689,20.203967]},"properties":{"Name":"Rushabh Honda","Address":"Dindori Road Mhasrul, Nashik","locationConfidence":"locality-match","Authorized":"Delivery Available","Type":"Shop In Store"}},{"type":"Feature","geometry":{"type":"Point","coordinates":[73.846787,20.204032]},"properties":{"Name":"Solis Yanmar","Address":"Dindori Road Mhasrul, Nashik","locationConfidence":"locality-match","Authorized":"Company Authorised Dealer","Type":"Same Day Delivery"}},{"type":"Feature","geometry":{"type":"Point","coordinates":[73.777377,19.98913]},"properties":{"Name":"Rushabh Honda Service Center","Address":"Indira Nagar Nashik, Nashik","locationConfidence":"approximate","Authorized":"Motorcycle Repair & Services","Type":"Superbike Repair & Services"}},{"type":"Feature","geometry":{"type":"Point","coordinates":[73.783021,19.989234]},"properties":{"Name":"Jayshree Wheels Pvt Ltd","Address":"Old Mumbai Agra Highway Mumbai Naka, Nashik","locationConfidence":"locality-match","Authorized":"Company Authorised Dealer","Type":"Two Wheeler Repair & Service"}},{"type":"Feature","geometry":{"type":"Point","coordinates":[73.781865,19.988455]},"properties":{"Name":"Wasan & Sons","Address":"Old Agra Road Mumbai Naka, Nashik","locationConfidence":"locality-match","Authorized":"Two Wheeler Repair & Service"}},{"type":"Feature","geometry":{"type":"Point","coordinates":[73.75495,20.013836]},"properties":{"Name":"Ridansh Agencies","Address":"Near Gangapur Road Gangapur Road, Nashik","locationConfidence":"locality-match","Authorized":"Company Authorised Dealer","Type":"Two Wheeler Repair & Service"}},{"type":"Feature","geometry":{"type":"Point","coordinates":[73.796702,19.986841]},"properties":{"Name":"Rohan Honda","Address":"Mumbai Agra Highway Ojhar, Nashik","locationConfidence":"approximate","Authorized":"Company Authorised Dealer","Type":"Same Day Delivery"}},{"type":"Feature","geometry":{"type":"Point","coordinates":[73.594078,19.952839]},"properties":{"Name":"Magic TVS","Address":"Trimbak Road, Nashik","locationConfidence":"locality-match","Authorized":"Two Wheeler Repair & Service"}},{"type":"Feature","geometry":{"type":"Point","coordinates":[73.782616,19.988508]},"properties":{"Name":"Rushabh Honda","Address":"Mumbai Agra National Highway Mumbai Naka, Nashik","locationConfidence":"locality-match","Authorized":"Motorcycle Dealers-Honda","Type":"Motorcycle Dealers"}},{"type":"Feature","geometry":{"type":"Point","coordinates":[73.779654,19.99145]},"properties":{"Name":"YAMAHA service station","Address":"GPO ROAD Ganjmal, Nashik","locationConfidence":"approximate","Authorized":"Garage","Type":"Two Wheeler Repair & Service"}},{"type":"Feature","geometry":{"type":"Point","coordinates":[73.78741,20.001647]},"properties":{"Name":"Mr. Garagewala","Address":"Raj Laxmi Indira Nagar Nashik, Nashik","locationConfidence":"approximate","Authorized":"Company Authorised Dealer","Type":"DoorStep Service"}},{"type":"Feature","geometry":{"type":"Point","coordinates":[73.847999,20.202103]},"properties":{"Name":"Wasan Bajaj","Address":"Dindori Road Mhasrul, Nashik","locationConfidence":"locality-match","Authorized":"Two Wheeler Repair & Service"}},{"type":"Feature","geometry":{"type":"Point","coordinates":[73.781812,19.995872]},"properties":{"Name":"Sachi Honda","Address":"Girnara Road Dugaon, Nashik","locationConfidence":"approximate","Authorized":"Motorcycle Dealers-Honda","Type":"Motorcycle Dealers"}},{"type":"Feature","geometry":{"type":"Point","coordinates":[73.800444,19.992309]},"properties":{"Name":"BattRE Electric Showroom","Address":"Kailash Society Dwarka, Nashik","locationConfidence":"locality-match","Authorized":"Company Authorised Dealer"}},{"type":"Feature","geometry":{"type":"Point","coordinates":[73.849498,20.202687]},"properties":{"Name":"Sai Shraddha Auto Garage","Address":"Dindori Road Pokar Colony, Nashik","locationConfidence":"locality-match","Authorized":"Motorcycle Repair & Services"}},{"type":"Feature","geometry":{"type":"Point","coordinates":[73.762269,19.973802]},"properties":{"Name":"Wasan Bajaj","Address":"Cidco, Nashik","locationConfidence":"locality-match","Authorized":"Car Dealers","Type":"Company Authorised Dealer"}},{"type":"Feature","geometry":{"type":"Point","coordinates":[73.762732,19.973355]},"properties":{"Name":"Sachi Honda","Address":"Madhura Towers CIDCO, Nashik","locationConfidence":"locality-match","Authorized":"Company Authorised Dealer","Type":"Two Wheeler Repair & Service"}},{"type":"Feature","geometry":{"type":"Point","coordinates":[73.816221,19.988737]},"properties":{"Name":"Chaitanya Auto Care Center","Address":"Old Saikheda Road Jail Road, Nashik","locationConfidence":"approximate","Authorized":"Garage"}},{"type":"Feature","geometry":{"type":"Point","coordinates":[73.730355,19.990389]},"properties":{"Name":"Sachi Honda","Address":"Papayas Nursery Road Satpur, Nashik","locationConfidence":"locality-match","Authorized":"Motorcycle Dealers-Honda","Type":"Motorcycle Dealers"}},{"type":"Feature","geometry":{"type":"Point","coordinates":[73.789049,20.025455]},"properties":{"Name":"Nikhil Autocare","Address":"Makhmalabad Road Makhmalabad, Nashik","locationConfidence":"locality-match","Authorized":"Same Day Delivery","Type":"Two Wheeler Repair & Service"}},{"type":"Feature","geometry":{"type":"Point","coordinates":[74.244026,20.329872]},"properties":{"Name":"Shree Shubham Honda","Address":"Shop No B 7 Chandwad, Nashik","locationConfidence":"locality-match","Authorized":"Company Authorised Dealer","Type":"Two Wheeler Repair & Service"}},{"type":"Feature","geometry":{"type":"Point","coordinates":[73.81364,19.992345]},"properties":{"Name":"Fixup Motorcycle Garage","Address":"Lic Colony Purnvad Nagar Purnvad Nagar, Nashik","locationConfidence":"approximate","Authorized":"Garage"}},{"type":"Feature","geometry":{"type":"Point","coordinates":[73.788497,20.001437]},"properties":{"Name":"Tamboli Automobiles","Address":"Agra Road Ghoti, Nashik","locationConfidence":"approximate","Authorized":"Two Wheeler Repair & Service"}},{"type":"Feature","geometry":{"type":"Point","coordinates":[73.790034,19.998693]},"properties":{"Name":"K K Autocare","Address":"Kishor Surywanshi Marg Date Nagar, Nashik","locationConfidence":"approximate","Authorized":"Two Wheeler Repair & Service","Type":"Towing Services"}},{"type":"Feature","geometry":{"type":"Point","coordinates":[73.785071,19.997668]},"properties":{"Name":"Rpm Garage","Address":"Pujya Sri Sri Ravishankar Marg Upnagar, Nashik","locationConfidence":"approximate","Authorized":"Two Wheeler Repair & Service"}},{"type":"Feature","geometry":{"type":"Point","coordinates":[73.772158,20.000286]},"properties":{"Name":"Servall","Address":"Suryaprakash Appartment Sharanpur, Nashik","locationConfidence":"locality-match","Authorized":"Two Wheeler Repair & Service"}},{"type":"Feature","geometry":{"type":"Point","coordinates":[74.244575,20.330244]},"properties":{"Name":"Bharat Motors","Address":"Mumbai Agra Road Chandwad, Nashik","locationConfidence":"locality-match","Authorized":"Two Wheeler Repair & Service","Type":"Same Day Delivery"}},{"type":"Feature","geometry":{"type":"Point","coordinates":[73.829673,19.92121]},"properties":{"Name":"Patil Garage","Address":"Devlali Gaon Sayyed Nagar, Deolali","locationConfidence":"locality-match","Authorized":"Two Wheeler Repair & Service","Type":"Garage"}},{"type":"Feature","geometry":{"type":"Point","coordinates":[73.827866,19.957777]},"properties":{"Name":"Sarita Yamaha","Address":"Ishwar Sankul Nashik Road, Nashik","locationConfidence":"locality-match","Authorized":"Company Authorised Dealer","Type":"Two Wheeler Repair & Service"}},{"type":"Feature","geometry":{"type":"Point","coordinates":[73.827538,19.921182]},"properties":{"Name":"Renuka Auto Care","Address":"Devi Mandir Deolali Bazar, Deolali","locationConfidence":"locality-match","Authorized":"Two Wheeler Repair & Service"}},{"type":"Feature","geometry":{"type":"Point","coordinates":[73.786691,20.003511]},"properties":{"Name":"Tara Automobiles","Address":"Calval Road Deola, Nashik","locationConfidence":"approximate","Authorized":"Company Authorised Dealer","Type":"Same Day Delivery"}},{"type":"Feature","geometry":{"type":"Point","coordinates":[73.730842,19.989564]},"properties":{"Name":"Active Suzuki Workshop","Address":"A Road Satpur, Nashik","locationConfidence":"locality-match","Authorized":"Two Wheeler Repair & Service","Type":"Garage"}},{"type":"Feature","geometry":{"type":"Point","coordinates":[74.243903,20.329711]},"properties":{"Name":"Bukhari Car Care And Spares Part","Address":"Mumbai Agra Highway Chandwad, Nashik","locationConfidence":"locality-match","Authorized":"Garage"}},{"type":"Feature","geometry":{"type":"Point","coordinates":[73.779915,20.011936]},"properties":{"Name":"Darshan Automobiles and Garage","Address":"Audambar Chowk Kamatwade, Nashik","locationConfidence":"approximate","Authorized":"Company Authorised Dealer","Type":"Two Wheeler Repair & Service"}},{"type":"Feature","geometry":{"type":"Point","coordinates":[73.566282,19.696184]},"properties":{"Name":"Shree Motors","Address":"Talegaon, Igatpuri","locationConfidence":"locality-match","Authorized":"Company Authorised Dealer","Type":"Same Day Delivery"}},{"type":"Feature","geometry":{"type":"Point","coordinates":[73.799434,19.995773]},"properties":{"Name":"Sanskruti Auto Care Center","Address":"Vaishnavi Park, Nashik","locationConfidence":"approximate","Authorized":"Garage"}},{"type":"Feature","geometry":{"type":"Point","coordinates":[73.989787,19.84134]},"properties":{"Name":"Jitendra Hero","Address":"Dubere Road Gaothan Sinnar, Nashik","locationConfidence":"locality-match","Authorized":"Company Authorised Dealer","Type":"Same Day Delivery"}},{"type":"Feature","geometry":{"type":"Point","coordinates":[73.828588,19.957112]},"properties":{"Name":"TVS Showroom","Address":"Jail Road Nashik Road, Nashik","locationConfidence":"locality-match","Authorized":"Two Wheeler Repair & Service"}},{"type":"Feature","geometry":{"type":"Point","coordinates":[73.828291,19.922696]},"properties":{"Name":"Ashok Automobiles","Address":"Lam Road Deolali Gaon, Nashik","locationConfidence":"locality-match","Authorized":"Garage"}},{"type":"Feature","geometry":{"type":"Point","coordinates":[73.828108,19.959004]},"properties":{"Name":"Gandhi Tvs","Address":"Near Bytco College Nashik Road, Nashik","locationConfidence":"locality-match","Authorized":"Company Authorised Dealer","Type":"Two Wheeler Repair & Service"}},{"type":"Feature","geometry":{"type":"Point","coordinates":[73.78326,19.988995]},"properties":{"Name":"Pava Automobiles Pvt Ltd","Address":"New Mumbai Naka Road Mumbai Naka, Nashik","locationConfidence":"locality-match","Authorized":"Company Authorised Dealer","Type":"Same Day Delivery"}},{"type":"Feature","geometry":{"type":"Point","coordinates":[73.742675,19.966962]},"properties":{"Name":"Rushabh HONDA (ambad)","Address":"MIDC AMBAD AREA Ambad, Nashik","locationConfidence":"locality-match","Authorized":"Two Wheeler Repair & Service"}},{"type":"Feature","geometry":{"type":"Point","coordinates":[73.775626,19.995647]},"properties":{"Name":"Hero Premia Patwa Auto","Address":"Trambakeshwar Road Mahatma Nagar, Nashik","locationConfidence":"approximate","Authorized":"On Site Services","Type":"Two Wheeler Repair & Service"}},{"type":"Feature","geometry":{"type":"Point","coordinates":[73.793479,20.004591]},"properties":{"Name":"Motocraft","Address":"Kranti Nagar Panchavati, Nashik","locationConfidence":"locality-match","Authorized":"Company Authorised Dealer","Type":"Two Wheeler Repair & Service"}},{"type":"Feature","geometry":{"type":"Point","coordinates":[73.761039,19.973102]},"properties":{"Name":"Munna Bhai Motor Cycle Work","Address":"Bhujbal Farm Road CIDCO, Nashik","locationConfidence":"locality-match","Authorized":"Two Wheeler Repair & Service"}},{"type":"Feature","geometry":{"type":"Point","coordinates":[73.595889,19.951501]},"properties":{"Name":"Pranav Auto","Address":"Nashik Pune Road Sinnar, Nashik","locationConfidence":"locality-match","Authorized":"Company Authorised Dealer"}},{"type":"Feature","geometry":{"type":"Point","coordinates":[73.98946,19.840054]},"properties":{"Name":"Pranav Auto","Address":"Main Road Shivaji Nagar Sinnar, Nashik","locationConfidence":"locality-match","Authorized":"Company Authorised Dealer","Type":"Two Wheeler Repair & Service"}},{"type":"Feature","geometry":{"type":"Point","coordinates":[73.800038,19.999906]},"properties":{"Name":"Dhanak Automobiles And Spares Garage","Address":"Mahatma Nagar Road Mahatma Nagar, Nashik","locationConfidence":"approximate","Authorized":"Company Authorised Dealer","Type":"Shop In Store"}},{"type":"Feature","geometry":{"type":"Point","coordinates":[73.799551,20.000605]},"properties":{"Name":"Yaadgar Auto Centre","Address":"Bombay Agra Road Pimpalgaon Baswant, Nashik","locationConfidence":"approximate","Authorized":"Two Wheeler Repair & Service"}}]}