{"type":"FeatureCollection","features":[{"type":"Feature","geometry":{"type":"Point","coordinates":[73.7942326,20.0291915]},"properties":{"Tier":"1","Taluka":"Nashik","Zone":"Panchavati","Category":"APMC / Wholesale Market","Name":"New APMC Market Yard, Nashik","Rating":"3.8","Review Count":"47","Phone":"098905 42548","Address":"2/7, Peth Rd, Samarth Nagar, Makhmalabad, Nashik, Maharashtra 422003, India","Maps Link":"https://maps.google.com/?cid=13275386909419944842&g_mp=Cidnb29nbGUubWFwcy5wbGFjZXMudjEuUGxhY2VzLlNlYXJjaFRleHQQAhgEIAA"}},{"type":"Feature","geometry":{"type":"Point","coordinates":[73.7923044,20.0197229]},"properties":{"Tier":"1","Taluka":"Nashik","Zone":"Panchavati","Category":"APMC / Wholesale Market","Name":"Wholesale vegetables and fruits supplier","Type":"Food","Rating":"3.8","Review Count":"4","Address":"Pethroad, Dattanagar, Panchavati, Nashik, Maharashtra 422003, India","Opening Hours":"Monday: Open 24 hours | Tuesday: Open 24 hours | Wednesday: Open 24 hours | Thursday: Open 24 hours | Friday: Open 24 hours | Saturday: Open 24 hours | Sunday: Open 24 hours","Maps Link":"https://maps.google.com/?cid=7217210156265332244&g_mp=Cidnb29nbGUubWFwcy5wbGFjZXMudjEuUGxhY2VzLlNlYXJjaFRleHQQAhgEIAA"}},{"type":"Feature","geometry":{"type":"Point","coordinates":[73.7951322,20.005125]},"properties":{"Tier":"1","Taluka":"Nashik","Zone":"Panchavati","Category":"Bhaji Mandai","Name":"New Bhaji Market नवीन भाजी मंडी","Type":"Market","Rating":"4.1","Review Count":"103","Address":"2Q4W+23R, near Snook up, Panchavati, Nashik, Maharashtra 422003, India","Opening Hours":"Monday: 8:00 AM – 8:00 PM | Tuesday: 8:00 AM – 8:00 PM | Wednesday: 8:00 AM – 8:00 PM | Thursday: 8:00 AM – 8:00 PM | Friday: 8:00 AM – 8:00 PM | Saturday: 8:00 AM – 8:00 PM | Sunday: 8:00 AM – 8:00 PM","Maps Link":"https://maps.google.com/?cid=5441053944015298742&g_mp=Cidnb29nbGUubWFwcy5wbGFjZXMudjEuUGxhY2VzLlNlYXJjaFRleHQQAhgEIAA"}},{"type":"Feature","geometry":{"type":"Point","coordinates":[73.7607143,20.0139858]},"properties":{"Tier":"1","Taluka":"Nashik","Zone":"Panchavati","Category":"Vegetable Bazaar","Name":"Akashwani Vegetable Market","Type":"Market","Rating":"4.1","Review Count":"786","Address":"2Q76+H7W, Gangapur Rd, D. K. Nagar, Nashik, Maharashtra 422013, India","Opening Hours":"Monday: 9:00 AM – 9:30 PM | Tuesday: 9:00 AM – 9:30 PM | Wednesday: 9:00 AM – 9:30 PM | Thursday: 9:00 AM – 9:30 PM | Friday: 9:00 AM – 9:30 PM | Saturday: 9:00 AM – 9:30 PM | Sunday: 9:00 AM – 9:30 PM","Maps Link":"https://maps.google.com/?cid=1882394457666913748&g_mp=Cidnb29nbGUubWFwcy5wbGFjZXMudjEuUGxhY2VzLlNlYXJjaFRleHQQAhgEIAA"}},{"type":"Feature","geometry":{"type":"Point","coordinates":[73.7896813,20.0014029]},"properties":{"Tier":"1","Taluka":"Nashik","Zone":"Panchavati","Category":"Vegetable Bazaar","Name":"Bhadrakali Vegetable Market","Type":"Market","Rating":"3.8","Review Count":"653","Phone":"095189 76040","Address":"85, Main Rd, opp. Sant Gadge Maharaj Statue, Bhadrakali, Shalimar, Nashik, Maharashtra 422001, India","Opening Hours":"Monday: 10:00 AM – 10:00 PM | Tuesday: 10:00 AM – 10:00 PM | Wednesday: 10:00 AM – 10:00 PM | Thursday: 9:00 AM – 10:00 PM | Friday: 10:00 AM – 10:00 PM | Saturday: 10:00 AM – 10:00 PM | Sunday: 10:00 AM – 10:00 PM","Maps Link":"https://maps.google.com/?cid=255710228851795796&g_mp=Cidnb29nbGUubWFwcy5wbGFjZXMudjEuUGxhY2VzLlNlYXJjaFRleHQQAhgEIAA"}},{"type":"Feature","geometry":{"type":"Point","coordinates":[73.7940392,20.0134342]},"properties":{"Tier":"1","Taluka":"Nashik","Zone":"Panchavati","Category":"Vegetable Bazaar","Name":"Bhajipala Market(Nashik Market Yard)","Type":"Food","Rating":"4","Review Count":"1411","Phone":"099700 54938","Address":"2Q7V+9JF, Kalachowki, Nashik, Maharashtra 422003, India","Opening Hours":"Monday: 5:00 AM – 11:00 PM | Tuesday: 5:00 AM – 11:00 PM | Wednesday: 5:00 AM – 11:00 PM | Thursday: 5:00 AM – 11:00 PM | Friday: 5:00 AM – 11:00 PM | Saturday: 5:00 AM – 11:00 PM | Sunday: 5:00 AM – 11:00 PM","Maps Link":"https://maps.google.com/?cid=2916944967108314443&g_mp=Cidnb29nbGUubWFwcy5wbGFjZXMudjEuUGxhY2VzLlNlYXJjaFRleHQQAhgEIAA"}},{"type":"Feature","geometry":{"type":"Point","coordinates":[73.7888501,20.0020215]},"properties":{"Tier":"1","Taluka":"Nashik","Zone":"Panchavati","Category":"Vegetable Bazaar","Name":"Main Road Market Nashik","Type":"Market","Rating":"4.2","Review Count":"298","Address":"Building 67 Prakash, 74, 2Q2Q+4HQ, 75, Main Rd, gadgemaharah putala, Bhadrakali, Shalimar, Nashik, Maharashtra 422001, India","Opening Hours":"Monday: 9:00 AM – 8:30 PM | Tuesday: 9:00 AM – 8:30 PM | Wednesday: 9:00 AM – 8:30 PM | Thursday: 9:00 AM – 8:30 PM | Friday: 9:00 AM – 8:30 PM | Saturday: 9:00 AM – 8:30 PM | Sunday: 9:00 AM – 8:30 PM","Maps Link":"https://maps.google.com/?cid=562016609830021653&g_mp=Cidnb29nbGUubWFwcy5wbGFjZXMudjEuUGxhY2VzLlNlYXJjaFRleHQQAhgEIAA"}},{"type":"Feature","geometry":{"type":"Point","coordinates":[73.753123,19.96426]},"properties":{"Tier":"1","Taluka":"Nashik","Zone":"Panchavati","Category":"Vegetable Bazaar","Name":"Maniknagar Bhaji Market","Type":"Market","Rating":"3.8","Review Count":"375","Phone":"089754 87099","Address":"Ambad-Trimurti Chowk Link Rd, Indraprastha Colony, Nashik, Maharashtra 422010, India","Opening Hours":"Monday: 10:00 AM – 8:00 PM | Tuesday: 10:00 AM – 8:00 PM | Wednesday: 10:00 AM – 8:00 PM | Thursday: 10:00 AM – 8:00 PM | Friday: 10:00 AM – 8:00 PM | Saturday: 10:00 AM – 8:00 PM | Sunday: 10:00 AM – 8:00 PM","Maps Link":"https://maps.google.com/?cid=14313966032620998612&g_mp=Cidnb29nbGUubWFwcy5wbGFjZXMudjEuUGxhY2VzLlNlYXJjaFRleHQQAhgEIAA"}},{"type":"Feature","geometry":{"type":"Point","coordinates":[73.7959823,20.0146019]},"properties":{"Tier":"1","Taluka":"Nashik","Zone":"Panchavati","Category":"Vegetable Bazaar","Name":"Market Yard Complex","Type":"Market","Rating":"3.9","Review Count":"1049","Address":"2Q7W+R9X, Kalachowki, Nashik, Maharashtra 422003, India","Opening Hours":"Monday: 10:30 AM – 7:45 PM | Tuesday: 10:00 AM – 8:00 PM | Wednesday: 10:00 AM – 8:45 PM | Thursday: 10:00 AM – 8:00 PM | Friday: 8:00 AM – 8:00 PM | Saturday: 10:00 AM – 5:00 PM | Sunday: Closed","Maps Link":"https://maps.google.com/?cid=12310229848276966427&g_mp=Cidnb29nbGUubWFwcy5wbGFjZXMudjEuUGxhY2VzLlNlYXJjaFRleHQQAhgEIAA"}},{"type":"Feature","geometry":{"type":"Point","coordinates":[73.79467,20.0304381]},"properties":{"Tier":"1","Taluka":"Nashik","Zone":"Panchavati","Category":"Vegetable Bazaar","Name":"Market Yard Nashik","Type":"Market","Rating":"3.9","Review Count":"2866","Phone":"0253 251 4922","Address":"Agricutural Produce by Market Committe, Anand Rishiji Marg, Dindori Rd, Samarth Nagar, Panchavati, Nashik, Maharashtra 422003, India","Opening Hours":"Monday: 5:00 AM – 8:00 PM | Tuesday: 5:00 AM – 8:00 PM | Wednesday: 5:00 AM – 8:00 PM | Thursday: 5:00 AM – 8:00 PM | Friday: 5:00 AM – 8:00 PM | Saturday: 5:00 AM – 8:00 PM | Sunday: 5:00 AM – 10:00 PM","Maps Link":"https://maps.google.com/?cid=18379286564391731583&g_mp=Cidnb29nbGUubWFwcy5wbGFjZXMudjEuUGxhY2VzLlNlYXJjaFRleHQQAhgEIAA"}},{"type":"Feature","geometry":{"type":"Point","coordinates":[73.79603,20.014741]},"properties":{"Tier":"1","Taluka":"Nashik","Zone":"Panchavati","Category":"Vegetable Bazaar","Name":"Nashik Krushi Utpanna Bazar Samiti","Type":"Farmers' Market","Rating":"4","Review Count":"1844","Phone":"094230 91741","Address":"Dindori Rd, near Kalachowki, Dindori Naka, Kalachowki, Nashik, Maharashtra 422003, India","Opening Hours":"Monday: 5:00 AM – 10:00 PM | Tuesday: 5:00 AM – 10:00 PM | Wednesday: 5:00 AM – 10:00 PM | Thursday: 5:00 AM – 10:00 PM | Friday: 5:00 AM – 10:00 PM | Saturday: 5:00 AM – 10:00 PM | Sunday: 5:00 AM – 10:00 PM","Maps Link":"https://maps.google.com/?cid=644071512096410669&g_mp=Cidnb29nbGUubWFwcy5wbGFjZXMudjEuUGxhY2VzLlNlYXJjaFRleHQQAhgEIAA"}},{"type":"Feature","geometry":{"type":"Point","coordinates":[73.8305504,20.0033642]},"properties":{"Tier":"1","Taluka":"Nashik","Zone":"Panchavati","Category":"Vegetable Bazaar","Name":"Nilgiri Vegetable Market","Type":"Market","Rating":"4.1","Review Count":"168","Address":"2R3J+86V, Kailash Nagar, Nashik, Maharashtra 422003, India","Opening Hours":"Monday: Closed | Tuesday: Closed | Wednesday: 7:00 – 11:00 AM, 5:00 – 10:15 PM | Thursday: Closed | Friday: Closed | Saturday: Closed | Sunday: 7:00 – 11:00 AM, 5:00 – 10:15 PM","Maps Link":"https://maps.google.com/?cid=10239523812113143927&g_mp=Cidnb29nbGUubWFwcy5wbGFjZXMudjEuUGxhY2VzLlNlYXJjaFRleHQQAhgEIAA"}},{"type":"Feature","geometry":{"type":"Point","coordinates":[73.7929428,20.0313328]},"properties":{"Tier":"1","Taluka":"Nashik","Zone":"Panchavati","Category":"Vegetable Bazaar","Name":"Onion Market, Nashik","Type":"Market","Rating":"4","Review Count":"208","Address":"2QJV+G5P, Samarth Nagar, Makhmalabad, Nashik, Maharashtra 422003, India","Opening Hours":"Monday: Open 24 hours | Tuesday: Open 24 hours | Wednesday: Open 24 hours | Thursday: Open 24 hours | Friday: Open 24 hours | Saturday: Open 24 hours | Sunday: Open 24 hours","Maps Link":"https://maps.google.com/?cid=5753420262113976766&g_mp=Cidnb29nbGUubWFwcy5wbGFjZXMudjEuUGxhY2VzLlNlYXJjaFRleHQQAhgEIAA"}},{"type":"Feature","geometry":{"type":"Point","coordinates":[73.8319931,20.0054703]},"properties":{"Tier":"1","Taluka":"Nashik","Zone":"Panchavati","Category":"Vegetable Bazaar","Name":"Perfect Pomogranate Marketyard","Type":"Wholesaler","Rating":"4.4","Review Count":"14","Address":"2R4J+5QQ, Nandur Village, Nashik, Maharashtra 422003, India","Maps Link":"https://maps.google.com/?cid=12348041326440951274&g_mp=Cidnb29nbGUubWFwcy5wbGFjZXMudjEuUGxhY2VzLlNlYXJjaFRleHQQAhgEIAA"}},{"type":"Feature","geometry":{"type":"Point","coordinates":[73.789851,19.998271]},"properties":{"Tier":"1","Taluka":"Nashik","Zone":"Panchavati","Category":"Vegetable Bazaar","Name":"Phule Market","Type":"Market","Rating":"3.9","Review Count":"190","Address":"XQXQ+8W5, Falke Rd, Lokhand Bazar, Koknipura, Nashik, Maharashtra 422001, India","Opening Hours":"Monday: 10:00 AM – 8:00 PM | Tuesday: 10:00 AM – 8:00 PM | Wednesday: 10:00 AM – 8:00 PM | Thursday: 10:00 AM – 8:00 PM | Friday: 10:00 AM – 8:00 PM | Saturday: 10:00 AM – 8:00 PM | Sunday: 10:00 AM – 8:00 PM","Maps Link":"https://maps.google.com/?cid=707055784529123013&g_mp=Cidnb29nbGUubWFwcy5wbGFjZXMudjEuUGxhY2VzLlNlYXJjaFRleHQQAhgEIAA"}},{"type":"Feature","geometry":{"type":"Point","coordinates":[73.8059177,20.0460141]},"properties":{"Tier":"1","Taluka":"Nashik","Zone":"Panchavati","Category":"Vegetable Bazaar","Name":"Sabzi Bazar (Vegetables Market)","Type":"Food Store","Rating":"4.6","Review Count":"9","Address":"2RW4+C93, Vani - Dindori Rd, Vaiduwadi, Nashik, Maharashtra 422004, India","Opening Hours":"Monday: 5:00 – 8:00 PM | Tuesday: 5:00 – 8:00 PM | Wednesday: 5:00 – 8:00 PM | Thursday: 5:00 – 8:00 PM | Friday: 5:00 – 8:00 PM | Saturday: 5:00 – 8:00 PM | Sunday: 5:00 – 8:00 PM","Maps Link":"https://maps.google.com/?cid=15971289709904182291&g_mp=Cidnb29nbGUubWFwcy5wbGFjZXMudjEuUGxhY2VzLlNlYXJjaFRleHQQAhgEIAA"}},{"type":"Feature","geometry":{"type":"Point","coordinates":[73.7875982,20.0018076]},"properties":{"Tier":"1","Taluka":"Nashik","Zone":"Panchavati","Category":"Vegetable Bazaar","Name":"Shalimar Market","Type":"Market","Rating":"4.2","Review Count":"2999","Address":"Chatrapati Shivaji Maharaj Rd, Dahipul, Shalimar, Nashik, Maharashtra 422001, India","Opening Hours":"Monday: 10:00 AM – 9:00 PM | Tuesday: 10:00 AM – 9:00 PM | Wednesday: 10:00 AM – 9:00 PM | Thursday: 10:00 AM – 9:00 PM | Friday: 10:00 AM – 9:00 PM | Saturday: 10:00 AM – 9:00 PM | Sunday: 10:00 AM – 9:00 PM","Maps Link":"https://maps.google.com/?cid=8045305286086225513&g_mp=Cidnb29nbGUubWFwcy5wbGFjZXMudjEuUGxhY2VzLlNlYXJjaFRleHQQAhgEIAA"}},{"type":"Feature","geometry":{"type":"Point","coordinates":[73.7935665,20.0312805]},"properties":{"Tier":"1","Taluka":"Nashik","Zone":"Panchavati","Category":"Vegetable Bazaar","Name":"Sharad Pawar Market Yard, Nashik","Type":"Market","Rating":"4.1","Review Count":"327","Address":"Samarth Nagar, Makhmalabad, Nashik, Maharashtra 422003, India","Opening Hours":"Monday: 9:00 AM – 5:00 PM | Tuesday: 9:00 AM – 5:00 PM | Wednesday: 9:00 AM – 5:00 PM | Thursday: 9:00 AM – 5:00 PM | Friday: 9:00 AM – 5:00 PM | Saturday: 9:00 AM – 5:00 PM | Sunday: Closed","Maps Link":"https://maps.google.com/?cid=3061739034779098830&g_mp=Cidnb29nbGUubWFwcy5wbGFjZXMudjEuUGxhY2VzLlNlYXJjaFRleHQQAhgEIAA"}},{"type":"Feature","geometry":{"type":"Point","coordinates":[73.7892953,19.9976633]},"properties":{"Tier":"1","Taluka":"Nashik","Zone":"Panchavati","Category":"Vegetable Bazaar","Name":"Street Fish Market","Type":"Market","Rating":"3.9","Review Count":"158","Address":"XQXQ+3P7, Lokhand Bazar, Gotane Wada, Nashik, Maharashtra 422001, India","Opening Hours":"Monday: 11:00 AM – 6:00 PM | Tuesday: 11:00 AM – 6:00 PM | Wednesday: 10:00 AM – 8:00 PM | Thursday: 10:00 AM – 8:00 PM | Friday: 10:00 AM – 8:00 PM | Saturday: 10:00 AM – 8:00 PM | Sunday: 10:00 AM – 8:00 PM","Maps Link":"https://maps.google.com/?cid=1980666202060330695&g_mp=Cidnb29nbGUubWFwcy5wbGFjZXMudjEuUGxhY2VzLlNlYXJjaFRleHQQAhgEIAA"}},{"type":"Feature","geometry":{"type":"Point","coordinates":[73.7502799,19.9648409]},"properties":{"Tier":"1","Taluka":"Nashik","Zone":"Panchavati","Category":"Vegetable Bazaar","Name":"Upendra Nagar Vegetable Market","Type":"Market","Rating":"3.8","Review Count":"83","Address":"XQ72+W4J, Indraprastha Colony, Nashik, Maharashtra 422010, India","Opening Hours":"Monday: 4:00 – 9:00 PM | Tuesday: 4:00 – 9:00 PM | Wednesday: 4:00 – 9:00 PM | Thursday: 4:00 – 9:00 PM | Friday: 4:00 – 9:00 PM | Saturday: Closed | Sunday: Closed","Maps Link":"https://maps.google.com/?cid=8998811782580182263&g_mp=Cidnb29nbGUubWFwcy5wbGFjZXMudjEuUGxhY2VzLlNlYXJjaFRleHQQAhgEIAA"}},{"type":"Feature","geometry":{"type":"Point","coordinates":[73.7414977,20.0063283]},"properties":{"Tier":"1","Taluka":"Nashik","Zone":"Panchavati","Category":"Vegetable Bazaar","Name":"Vegetable Market","Type":"Food Store","Rating":"4","Review Count":"188","Address":"Right Canal Rd, Balawant Nagar, Satpur Colony, Nashik, Maharashtra 422005, India","Opening Hours":"Monday: 11:00 AM – 10:00 PM | Tuesday: 11:00 AM – 10:00 PM | Wednesday: 11:00 AM – 10:00 PM | Thursday: 11:00 AM – 10:00 PM | Friday: 11:00 AM – 10:00 PM | Saturday: 11:00 AM – 10:00 PM | Sunday: 11:00 AM – 10:00 PM","Maps Link":"https://maps.google.com/?cid=1717039668198731508&g_mp=Cidnb29nbGUubWFwcy5wbGFjZXMudjEuUGxhY2VzLlNlYXJjaFRleHQQAhgEIAA"}},{"type":"Feature","geometry":{"type":"Point","coordinates":[73.8350719,19.9440484]},"properties":{"Tier":"1","Taluka":"Nashik","Zone":"Panchavati","Category":"Vegetable Bazaar","Name":"Vegetable Market","Type":"Market","Rating":"4.1","Review Count":"117","Address":"WRVP+J28, Devlali Gaon, Nashik, Maharashtra 422101, India","Opening Hours":"Monday: 10:00 AM – 8:00 PM | Tuesday: 10:00 AM – 8:00 PM | Wednesday: 10:00 AM – 8:00 PM | Thursday: 10:00 AM – 8:00 PM | Friday: 10:00 AM – 8:00 PM | Saturday: 10:00 AM – 8:00 PM | Sunday: Closed","Maps Link":"https://maps.google.com/?cid=3265600033518301005&g_mp=Cidnb29nbGUubWFwcy5wbGFjZXMudjEuUGxhY2VzLlNlYXJjaFRleHQQAhgEIAA"}},{"type":"Feature","geometry":{"type":"Point","coordinates":[73.8015829,20.0327124]},"properties":{"Tier":"1","Taluka":"Nashik","Zone":"Panchavati","Category":"Vegetable Bazaar","Name":"Vegetable Market RTO Cornet","Type":"Food","Rating":"3.9","Review Count":"43","Address":"Sn 233/D, Maharashtra State Highway 17, Kalananagar, Vaiduwadi, Nashik, Maharashtra 422004, India","Opening Hours":"Monday: 4:00 – 10:00 PM | Tuesday: 4:00 – 10:00 PM | Wednesday: 4:00 – 10:00 PM | Thursday: 4:00 – 10:00 PM | Friday: 4:00 – 10:00 PM | Saturday: 4:00 – 10:00 PM | Sunday: 4:00 – 10:00 PM","Maps Link":"https://maps.google.com/?cid=11501182205067629571&g_mp=Cidnb29nbGUubWFwcy5wbGFjZXMudjEuUGxhY2VzLlNlYXJjaFRleHQQAhgEIAA"}},{"type":"Feature","geometry":{"type":"Point","coordinates":[73.8389672,19.9528549]},"properties":{"Tier":"1","Taluka":"Nashik","Zone":"Panchavati","Category":"Vegetable Bazaar","Name":"Vegetable market nashik road","Type":"Food","Rating":"4","Review Count":"16","Address":"Veer savarkar bridge nashik road Police station ke samne Shop no 5, Rajwada Nagar, Nashik Road, Nashik, Maharashtra 422101, India","Maps Link":"https://maps.google.com/?cid=658305288484369766&g_mp=Cidnb29nbGUubWFwcy5wbGFjZXMudjEuUGxhY2VzLlNlYXJjaFRleHQQAhgEIAA"}},{"type":"Feature","geometry":{"type":"Point","coordinates":[73.8260336,20.010609]},"properties":{"Tier":"1","Taluka":"Nashik","Zone":"Panchavati","Category":"Vegetable Bazaar","Name":"Vegetables Market","Type":"Food Store","Rating":"3.7","Review Count":"59","Address":"2R6G+6CV, Amrutdham Rd, Sagar Township, Bidi Kamgar Colony, Nashik, Maharashtra 422003, India","Opening Hours":"Monday: 8:00 AM – 9:00 PM | Tuesday: 8:00 AM – 9:00 PM | Wednesday: 8:00 AM – 9:00 PM | Thursday: 8:00 AM – 9:00 PM | Friday: 8:00 AM – 9:00 PM | Saturday: 8:00 AM – 9:00 PM | Sunday: 8:00 AM – 9:00 PM","Maps Link":"https://maps.google.com/?cid=18441823497755919912&g_mp=Cidnb29nbGUubWFwcy5wbGFjZXMudjEuUGxhY2VzLlNlYXJjaFRleHQQAhgEIAA"}},{"type":"Feature","geometry":{"type":"Point","coordinates":[73.7888989,20.0038195]},"properties":{"Tier":"1","Taluka":"Nashik","Zone":"Panchavati","Category":"Vegetable Bazaar","Name":"Vitthal Market","Type":"Market","Rating":"3.9","Review Count":"1351","Phone":"098933 97880","Address":"2Q3Q+GHC, Main Rd, Shinde Wada, Shalimar, Nashik, Maharashtra 422001, India","Opening Hours":"Monday: 9:00 AM – 10:00 PM | Tuesday: 9:00 AM – 10:00 PM | Wednesday: 9:00 AM – 10:00 PM | Thursday: 9:00 AM – 10:00 PM | Friday: 9:00 AM – 10:00 PM | Saturday: 9:00 AM – 10:00 PM | Sunday: 9:00 AM – 10:00 PM","Maps Link":"https://maps.google.com/?cid=17605979813076078171&g_mp=Cidnb29nbGUubWFwcy5wbGFjZXMudjEuUGxhY2VzLlNlYXJjaFRleHQQAhgEIAA"}},{"type":"Feature","geometry":{"type":"Point","coordinates":[73.7716591,19.9753251]},"properties":{"Tier":"1","Taluka":"Nashik","Zone":"Panchavati","Category":"Vegetable Bazaar","Name":"सचिन गाढे Chatrapati Shivaji Maharaj Chowk Vegetable Market","Type":"Market","Rating":"4.1","Review Count":"1658","Address":"XQGC+47W, Shanti Nagar, Lekha Nagar, Nashik, Maharashtra 422009, India","Opening Hours":"Monday: 8:00 AM – 9:00 PM | Tuesday: 8:00 AM – 9:00 PM | Wednesday: 8:00 AM – 9:00 PM | Thursday: 8:00 AM – 9:00 PM | Friday: 8:00 AM – 9:00 PM | Saturday: 8:00 AM – 9:00 PM | Sunday: 8:00 AM – 9:00 PM","Maps Link":"https://maps.google.com/?cid=11772900217095986157&g_mp=Cidnb29nbGUubWFwcy5wbGFjZXMudjEuUGxhY2VzLlNlYXJjaFRleHQQAhgEIAA"}},{"type":"Feature","geometry":{"type":"Point","coordinates":[73.79584,20.0144689]},"properties":{"Tier":"1","Taluka":"Nashik","Zone":"Panchavati","Category":"Other Produce Market","Name":"Ghatandevi Vegetable Co.","Type":"Food Store","Rating":"4.3","Review Count":"10","Phone":"094227 57620","Address":"Market Yard, 2Q7W+Q8P, Dindori Rd, Panchvati, Nashik, Maharashtra 422003, India","Opening Hours":"Monday: 8:00 AM – 8:00 PM | Tuesday: 8:00 AM – 8:00 PM | Wednesday: 8:00 AM – 8:00 PM | Thursday: 8:00 AM – 8:00 PM | Friday: 8:00 AM – 8:00 PM | Saturday: 8:00 AM – 8:00 PM | Sunday: 8:00 AM – 8:00 PM","Maps Link":"https://maps.google.com/?cid=9796030587983536749&g_mp=Cidnb29nbGUubWFwcy5wbGFjZXMudjEuUGxhY2VzLlNlYXJjaFRleHQQAhgEIAA"}},{"type":"Feature","geometry":{"type":"Point","coordinates":[73.744142,19.9621144]},"properties":{"Tier":"1","Taluka":"Nashik","Zone":"Panchavati","Category":"Other Produce Market","Name":"Good luck tailor","Type":"Market","Rating":"4","Review Count":"240","Address":"XP6V+RMR, Ambad Khrud, Panchwati, Ambad Village, Nashik, Maharashtra 422010, India","Opening Hours":"Monday: 8:00 AM – 9:00 PM | Tuesday: 8:00 AM – 9:00 PM | Wednesday: 8:00 AM – 9:00 PM | Thursday: 8:00 AM – 9:00 PM | Friday: 8:00 AM – 9:00 PM | Saturday: 8:00 AM – 9:00 PM | Sunday: 8:00 AM – 9:00 PM","Maps Link":"https://maps.google.com/?cid=11726381163162728646&g_mp=Cidnb29nbGUubWFwcy5wbGFjZXMudjEuUGxhY2VzLlNlYXJjaFRleHQQAhgEIAA"}},{"type":"Feature","geometry":{"type":"Point","coordinates":[73.7943119,20.0142]},"properties":{"Tier":"1","Taluka":"Nashik","Zone":"Panchavati","Category":"Other Produce Market","Name":"New Jay Santoshi Mata Vegetable Company","Type":"Food Store","Rating":"2.8","Review Count":"5","Address":"Main Market Yard, Dindori Rd, Panchavati, Nashik, Maharashtra 422003, India","Opening Hours":"Monday: 9:00 AM – 9:00 PM | Tuesday: 8:00 AM – 8:30 PM | Wednesday: 9:00 AM – 9:00 PM | Thursday: 9:00 AM – 9:00 PM | Friday: 9:00 AM – 9:00 PM | Saturday: 9:00 AM – 9:00 PM | Sunday: 9:00 AM – 9:00 PM","Maps Link":"https://maps.google.com/?cid=16544872334561372418&g_mp=Cidnb29nbGUubWFwcy5wbGFjZXMudjEuUGxhY2VzLlNlYXJjaFRleHQQAhgEIAA"}},{"type":"Feature","geometry":{"type":"Point","coordinates":[73.7958916,20.0147822]},"properties":{"Tier":"1","Taluka":"Nashik","Zone":"Panchavati","Category":"Other Produce Market","Name":"R B Vegetables","Type":"Food Store","Rating":"1","Review Count":"1","Phone":"086989 47912","Address":"Market Yard Rd, Nimani, Panchavati, Nashik, Maharashtra 422003, India","Maps Link":"https://maps.google.com/?cid=16681754715055611374&g_mp=Cidnb29nbGUubWFwcy5wbGFjZXMudjEuUGxhY2VzLlNlYXJjaFRleHQQAhgEIAA"}},{"type":"Feature","geometry":{"type":"Point","coordinates":[73.7331649,19.9895964]},"properties":{"Tier":"1","Taluka":"Nashik","Zone":"Panchavati","Category":"Other Produce Market","Name":"SD vegetables and fruits nashik","Type":"Food","Rating":"5","Review Count":"2","Address":"Trambakeshwar Rd, Satpur Gaon, Satpur Colony, Nashik, Maharashtra 422007, India","Opening Hours":"Monday: 7:00 AM – 10:00 PM | Tuesday: 7:00 AM – 10:00 PM | Wednesday: 7:00 AM – 10:00 PM | Thursday: 7:00 AM – 10:00 PM | Friday: 7:00 AM – 10:00 PM | Saturday: 7:00 AM – 12:00 PM | Sunday: 7:00 AM – 10:00 PM","Maps Link":"https://maps.google.com/?cid=9036622768202115965&g_mp=Cidnb29nbGUubWFwcy5wbGFjZXMudjEuUGxhY2VzLlNlYXJjaFRleHQQAhgEIAA"}},{"type":"Feature","geometry":{"type":"Point","coordinates":[73.7947132,20.0139976]},"properties":{"Tier":"1","Taluka":"Nashik","Zone":"Panchavati","Category":"Other Produce Market","Name":"Sai Seva Vegetable Company","Type":"Food","Review Count":"0","Phone":"097660 31514","Address":"Shop No.61, Main, Market Yard Rd, behind Saptashrungi Hotel, Kalachowki, Nashik, Maharashtra 422003, India","Opening Hours":"Monday: Open 24 hours | Tuesday: Open 24 hours | Wednesday: Open 24 hours | Thursday: Open 24 hours | Friday: Open 24 hours | Saturday: Open 24 hours | Sunday: Open 24 hours","Maps Link":"https://maps.google.com/?cid=978307064133389309&g_mp=Cidnb29nbGUubWFwcy5wbGFjZXMudjEuUGxhY2VzLlNlYXJjaFRleHQQAhgEIAA"}},{"type":"Feature","geometry":{"type":"Point","coordinates":[73.7962627,20.0123992]},"properties":{"Tier":"1","Taluka":"Nashik","Zone":"Panchavati","Category":"Other Produce Market","Name":"Sai Shraddha bhajipala Centre","Type":"Food","Review Count":"0","Phone":"099225 47122","Address":"Union Bank of India, Dindori Rd, Adityakunj Society, Loksahakar Nagar, Nashik, Maharashtra 422003, India","Opening Hours":"Monday: 8:30 AM – 11:30 PM | Tuesday: 8:30 AM – 11:30 PM | Wednesday: 8:30 AM – 11:30 PM | Thursday: 8:30 AM – 11:30 PM | Friday: 8:30 AM – 11:30 PM | Saturday: 8:30 AM – 11:30 PM | Sunday: 8:30 AM – 11:30 PM","Maps Link":"https://maps.google.com/?cid=9690150311311946008&g_mp=Cidnb29nbGUubWFwcy5wbGFjZXMudjEuUGxhY2VzLlNlYXJjaFRleHQQAhgEIAA"}},{"type":"Feature","geometry":{"type":"Point","coordinates":[73.794691,20.014397]},"properties":{"Tier":"1","Taluka":"Nashik","Zone":"Panchavati","Category":"Other Produce Market","Name":"Shiv Ganesh Vegetables Company","Type":"Food Store","Rating":"5","Review Count":"1","Phone":"098606 10812","Address":"Market Yard, 2Q7V+QV4, Dindori Rd, Panchavati, Nashik, Maharashtra 422003, India","Opening Hours":"Monday: 8:00 AM – 9:00 PM | Tuesday: 8:00 AM – 9:00 PM | Wednesday: 8:00 AM – 9:00 PM | Thursday: 8:00 AM – 9:00 PM | Friday: 8:00 AM – 9:00 PM | Saturday: 8:00 AM – 9:00 PM | Sunday: 8:00 AM – 9:00 PM","Maps Link":"https://maps.google.com/?cid=18019067695374246311&g_mp=Cidnb29nbGUubWFwcy5wbGFjZXMudjEuUGxhY2VzLlNlYXJjaFRleHQQAhgEIAA"}},{"type":"Feature","geometry":{"type":"Point","coordinates":[73.7722066,19.9984002]},"properties":{"Tier":"1","Taluka":"Nashik","Zone":"Panchavati","Category":"Other Produce Market","Name":"Sidhhivinayak Fruits And Vegitables","Type":"Market","Rating":"4","Review Count":"5","Phone":"084210 83931","Address":"Shop No. 5 Amar Arced Ambedkar Chowk, Saduwasani Colony Road, Kulkarni Gardan Colony, Jejurkar Wadi, Sharanpur, Nashik, Maharashtra 422002, India","Opening Hours":"Monday: 7:00 AM – 9:00 PM | Tuesday: 7:00 AM – 9:00 PM | Wednesday: 7:00 AM – 9:00 PM | Thursday: 7:00 AM – 9:00 PM | Friday: 7:00 AM – 9:00 PM | Saturday: 7:00 AM – 9:00 PM | Sunday: 7:00 AM – 9:00 PM","Maps Link":"https://maps.google.com/?cid=8542319873457030347&g_mp=Cidnb29nbGUubWFwcy5wbGFjZXMudjEuUGxhY2VzLlNlYXJjaFRleHQQAhgEIAA"}},{"type":"Feature","geometry":{"type":"Point","coordinates":[73.7560162,19.97514]},"properties":{"Tier":"1","Taluka":"Nashik","Zone":"Panchavati","Category":"Other Produce Market","Name":"जिजामाता भाजीपाला मार्केट,पवननगर.","Type":"Market","Rating":"4.2","Review Count":"745","Address":"XQG4+3C2, Raigad Chowk, Pawan Nagar, Nashik, Maharashtra 422008, India","Opening Hours":"Monday: 9:00 AM – 9:00 PM | Tuesday: 9:00 AM – 9:00 PM | Wednesday: 9:00 AM – 9:00 PM | Thursday: 9:00 AM – 9:00 PM | Friday: 9:00 AM – 9:00 PM | Saturday: 9:00 AM – 9:00 PM | Sunday: 9:00 AM – 9:00 PM","Maps Link":"https://maps.google.com/?cid=15164230958578377337&g_mp=Cidnb29nbGUubWFwcy5wbGFjZXMudjEuUGxhY2VzLlNlYXJjaFRleHQQAhgEIAA"}},{"type":"Feature","geometry":{"type":"Point","coordinates":[73.7936224,20.0306771]},"properties":{"Tier":"1","Taluka":"Nashik","Zone":"Panchavati","Category":"Other Produce Market","Name":"🧅 Anand Traders 🧅","Type":"Market","Rating":"4.7","Review Count":"13","Phone":"097631 70170","Address":"APMC Market Yard, New, Peth Rd, Samarth Nagar, Makhmalabad, Nashik, Maharashtra 422004, India","Maps Link":"https://maps.google.com/?cid=17269997983124177287&g_mp=Cidnb29nbGUubWFwcy5wbGFjZXMudjEuUGxhY2VzLlNlYXJjaFRleHQQAhgEIAA"}},{"type":"Feature","geometry":{"type":"Point","coordinates":[73.8097868,19.9829797]},"properties":{"Tier":"1","Taluka":"Nashik","Zone":"Nashik Central","Category":"APMC / Wholesale Market","Name":"METRO Wholesale Nashik, Maharashtra","Type":"Wholesaler","Rating":"3.8","Review Count":"397","Phone":"096079 37443","Address":"Survey No. 844, Pune Mumbai, XRM4+6J4, Nashik Expressway, off Tapovan Road, Bodhale Nagar, RTO Colony, Nashik, Maharashtra 422011, India","Website":"https://www.metrorrl.com/about-us","Opening Hours":"Monday: 9:00 AM – 9:00 PM | Tuesday: 9:00 AM – 9:00 PM | Wednesday: 9:00 AM – 9:00 PM | Thursday: 9:00 AM – 9:00 PM | Friday: 9:00 AM – 9:00 PM | Saturday: 9:00 AM – 9:00 PM | Sunday: 9:00 AM – 9:00 PM","Maps Link":"https://maps.google.com/?cid=7350181235500074089&g_mp=Cidnb29nbGUubWFwcy5wbGFjZXMudjEuUGxhY2VzLlNlYXJjaFRleHQQAhgEIAA"}},{"type":"Feature","geometry":{"type":"Point","coordinates":[73.8345687,19.9447222]},"properties":{"Tier":"1","Taluka":"Nashik","Zone":"Nashik Central","Category":"Bhaji Mandai","Name":"Yashwant - Mandai","Type":"Market","Rating":"4","Review Count":"75","Phone":"098507 43940","Address":"Yashwant Mandai, Shaneshwar Maharaj Chowk, Deolali Gaon, Devlali, Nashik, Maharashtra 422101, India","Opening Hours":"Monday: 6:00 AM – 10:30 PM | Tuesday: 6:00 AM – 10:30 PM | Wednesday: 6:00 AM – 10:30 PM | Thursday: 6:00 AM – 10:30 PM | Friday: 6:00 AM – 10:30 PM | Saturday: 6:00 AM – 10:30 PM | Sunday: 6:00 AM – 10:30 PM","Maps Link":"https://maps.google.com/?cid=14074090664001791249&g_mp=Cidnb29nbGUubWFwcy5wbGFjZXMudjEuUGxhY2VzLlNlYXJjaFRleHQQAhgEIAA"}},{"type":"Feature","geometry":{"type":"Point","coordinates":[73.8240783,19.9735215]},"properties":{"Tier":"1","Taluka":"Nashik","Zone":"Nashik Central","Category":"Vegetable Bazaar","Name":"Bhaji Market","Review Count":"0","Address":"Bhaji Market, Nashik Road, Nashik, Maharashtra 422006, India","Maps Link":"https://maps.google.com/?cid=18122185747889647722&g_mp=Cidnb29nbGUubWFwcy5wbGFjZXMudjEuUGxhY2VzLlNlYXJjaFRleHQQAhgEIAA"}},{"type":"Feature","geometry":{"type":"Point","coordinates":[73.7111917,19.9907783]},"properties":{"Tier":"1","Taluka":"Nashik","Zone":"Nashik Central","Category":"Vegetable Bazaar","Name":"Bhaji Market","Review Count":"0","Address":"Bhaji Market, Jaswant Nagar, Shramik Nagar, Nashik, Maharashtra 422012, India","Maps Link":"https://maps.google.com/?cid=17312900704979677284&g_mp=Cidnb29nbGUubWFwcy5wbGFjZXMudjEuUGxhY2VzLlNlYXJjaFRleHQQAhgEIAA"}},{"type":"Feature","geometry":{"type":"Point","coordinates":[73.8290983,20.01054]},"properties":{"Tier":"1","Taluka":"Nashik","Zone":"Nashik Central","Category":"Vegetable Bazaar","Name":"Perfect Krushi Market","Type":"Market","Rating":"4.2","Review Count":"267","Address":"2R6H+6J9, Kailash Nagar, Nashik, Maharashtra 422003, India","Opening Hours":"Monday: Open 24 hours | Tuesday: Open 24 hours | Wednesday: Open 24 hours | Thursday: Open 24 hours | Friday: Open 24 hours | Saturday: Open 24 hours | Sunday: Closed","Maps Link":"https://maps.google.com/?cid=11691176708718203102&g_mp=Cidnb29nbGUubWFwcy5wbGFjZXMudjEuUGxhY2VzLlNlYXJjaFRleHQQAhgEIAA"}},{"type":"Feature","geometry":{"type":"Point","coordinates":[73.7103784,20.007443]},"properties":{"Tier":"1","Taluka":"Nashik","Zone":"Nashik Central","Category":"Vegetable Bazaar","Name":"Shivajinagar Vegetable Market","Type":"Market","Rating":"3.7","Review Count":"29","Address":"Sai Kripa Row House, 124/2/3, Sant Narahari Maharaj Rd, Shivaji Nagar, Satpur Colony, Nashik, Maharashtra 422012, India","Opening Hours":"Monday: 9:00 AM – 8:00 PM | Tuesday: 9:00 AM – 8:00 PM | Wednesday: 9:00 AM – 8:00 PM | Thursday: 9:00 AM – 8:00 PM | Friday: 9:00 AM – 8:00 PM | Saturday: 9:00 AM – 8:00 PM | Sunday: 9:00 AM – 8:00 PM","Maps Link":"https://maps.google.com/?cid=7582879253837521953&g_mp=Cidnb29nbGUubWFwcy5wbGFjZXMudjEuUGxhY2VzLlNlYXJjaFRleHQQAhgEIAA"}},{"type":"Feature","geometry":{"type":"Point","coordinates":[73.7545427,20.0064053]},"properties":{"Tier":"1","Taluka":"Nashik","Zone":"Nashik Central","Category":"Other Produce Market","Name":"Bhajiwala.Online","Type":"Wholesaler","Rating":"3.7","Review Count":"3","Phone":"098227 36566","Address":"Flat No 16 3Rd Floor, Building No 8, Ramrajya App, above The White Mug Samarth Nagar, Mahatma Nagar, Veer Sawarkar Nagar, Nashik, Maharashtra 422005, India","Website":"http://www.bhajiwala.online/","Opening Hours":"Monday: Open 24 hours | Tuesday: Open 24 hours | Wednesday: Open 24 hours | Thursday: Open 24 hours | Friday: Open 24 hours | Saturday: Open 24 hours | Sunday: Open 24 hours","Maps Link":"https://maps.google.com/?cid=16747599191920074424&g_mp=Cidnb29nbGUubWFwcy5wbGFjZXMudjEuUGxhY2VzLlNlYXJjaFRleHQQAhgEIAA"}},{"type":"Feature","geometry":{"type":"Point","coordinates":[73.7475129,20.012846]},"properties":{"Tier":"1","Taluka":"Nashik","Zone":"Nashik Central","Category":"Other Produce Market","Name":"DURGA HOLSEL BHAJIPAALA CENTER","Type":"Food","Rating":"4.3","Review Count":"3","Phone":"079911 94347","Address":"near Namco bank, Anandvalli, Nashik, Maharashtra 422013, India","Opening Hours":"Monday: 8:00 – 10:30 AM | Tuesday: 8:00 AM – 10:30 PM | Wednesday: 8:00 AM – 10:30 PM | Thursday: 9:00 AM – 10:30 PM | Friday: 8:00 AM – 10:30 PM | Saturday: 8:00 AM – 10:30 PM | Sunday: 8:00 AM – 10:30 PM","Maps Link":"https://maps.google.com/?cid=17930252802929891980&g_mp=Cidnb29nbGUubWFwcy5wbGFjZXMudjEuUGxhY2VzLlNlYXJjaFRleHQQAhgEIAA"}},{"type":"Feature","geometry":{"type":"Point","coordinates":[73.7916285,19.9816067]},"properties":{"Tier":"1","Taluka":"Nashik","Zone":"Nashik Central","Category":"Other Produce Market","Name":"KAILAS VEGETABLES","Type":"Food Store","Rating":"4","Review Count":"66","Phone":"098504 20128","Address":"Pakhal Rd, near Iskon Temple, Sai Nath Nagar, Nashik, Maharashtra 422006, India","Website":"https://kailasvegetables.com/","Opening Hours":"Monday: 8:00 AM – 9:00 PM | Tuesday: 8:00 AM – 9:00 PM | Wednesday: 8:00 AM – 9:00 PM | Thursday: 8:00 AM – 9:00 PM | Friday: 8:00 AM – 9:00 PM | Saturday: 8:00 AM – 9:00 PM | Sunday: 8:00 AM – 9:00 PM","Maps Link":"https://maps.google.com/?cid=17992021845874423014&g_mp=Cidnb29nbGUubWFwcy5wbGFjZXMudjEuUGxhY2VzLlNlYXJjaFRleHQQAhgEIAA"}},{"type":"Feature","geometry":{"type":"Point","coordinates":[73.7606973,20.0139417]},"properties":{"Tier":"1","Taluka":"Nashik","Zone":"Nashik Central","Category":"Other Produce Market","Name":"Mansi Vegetable Shop","Type":"Food Store","Rating":"4.9","Review Count":"19","Address":"Shop No - 79 Akashwani Bhaji Market Near Akashwani Tower, S.T.Colony, Gangapur Rd, Purnvad Nagar, Nashik, Maharashtra 422013, India","Opening Hours":"Monday: 8:00 AM – 10:00 PM | Tuesday: 8:00 AM – 10:00 PM | Wednesday: 8:00 AM – 10:00 PM | Thursday: 8:00 AM – 10:00 PM | Friday: 8:00 AM – 10:00 PM | Saturday: 8:00 AM – 10:00 PM | Sunday: 8:00 AM – 10:00 PM","Maps Link":"https://maps.google.com/?cid=7919148154597565536&g_mp=Cidnb29nbGUubWFwcy5wbGFjZXMudjEuUGxhY2VzLlNlYXJjaFRleHQQAhgEIAA"}},{"type":"Feature","geometry":{"type":"Point","coordinates":[73.7814624,19.9922815]},"properties":{"Tier":"1","Taluka":"Nashik","Zone":"Nashik Central","Category":"Other Produce Market","Name":"Manu vegetable","Type":"Food","Review Count":"0","Address":"Kalika Nagar back side, Matoshree Nagar, Nashik, Maharashtra 422002, India","Website":"https://manuvegetale.in.co/","Opening Hours":"Monday: 12:00 – 1:00 AM | Tuesday: 12:00 – 1:00 AM | Wednesday: 12:00 – 1:00 AM | Thursday: 12:00 – 1:00 AM | Friday: 12:00 – 1:00 AM | Saturday: 12:00 AM – 8:00 PM | Sunday: Closed","Maps Link":"https://maps.google.com/?cid=1241463257253306192&g_mp=Cidnb29nbGUubWFwcy5wbGFjZXMudjEuUGxhY2VzLlNlYXJjaFRleHQQAhgEIAA"}},{"type":"Feature","geometry":{"type":"Point","coordinates":[73.7598902,20.0139404]},"properties":{"Tier":"1","Taluka":"Nashik","Zone":"Nashik Central","Category":"Other Produce Market","Name":"Suraj Vegetable And Fruit","Type":"Food Store","Rating":"5","Review Count":"2","Phone":"093075 78498","Address":"Akashwani Kendra, Gangapur Rd, near Bhaji Market, Purnvad Nagar, Nashik, Maharashtra 422013, India","Maps Link":"https://maps.google.com/?cid=11344880258143591914&g_mp=Cidnb29nbGUubWFwcy5wbGFjZXMudjEuUGxhY2VzLlNlYXJjaFRleHQQAhgEIAA"}},{"type":"Feature","geometry":{"type":"Point","coordinates":[73.7614141,19.9867897]},"properties":{"Tier":"1","Taluka":"Nashik","Zone":"Nashik Central","Category":"Other Produce Market","Name":"Vighnaharta Vegetable Supplier","Type":"Food","Review Count":"0","Address":"opposite Chaitanya Vihar, Tidke Nagar, Nashik, Maharashtra 422308, India","Opening Hours":"Monday: 6:00 – 10:00 AM | Tuesday: 6:00 – 10:00 AM | Wednesday: 6:00 – 10:00 AM | Thursday: 6:00 – 10:00 AM | Friday: 6:00 – 10:00 AM | Saturday: 6:00 – 10:00 AM | Sunday: 6:00 – 10:00 AM","Maps Link":"https://maps.google.com/?cid=590567454553319718&g_mp=Cidnb29nbGUubWFwcy5wbGFjZXMudjEuUGxhY2VzLlNlYXJjaFRleHQQAhgEIAA"}},{"type":"Feature","geometry":{"type":"Point","coordinates":[73.7607095,20.0140338]},"properties":{"Tier":"1","Taluka":"Nashik","Zone":"Nashik Central","Category":"Other Produce Market","Name":"ghorpade agros and vegetables supplier","Type":"Food","Review Count":"0","Address":"आकाश वानी भाजी मारकेट, Gangapur Rd, Purnvad Nagar, Nashik, नीशिक, Maharashtra 422012, India","Maps Link":"https://maps.google.com/?cid=9632344491533642049&g_mp=Cidnb29nbGUubWFwcy5wbGFjZXMudjEuUGxhY2VzLlNlYXJjaFRleHQQAhgEIAA"}},{"type":"Feature","geometry":{"type":"Point","coordinates":[73.7719146,19.9753261]},"properties":{"Tier":"1","Taluka":"Nashik","Zone":"Nashik Central","Category":"Other Produce Market","Name":"सप्तश्रुंगी ट्रेडर्स, कांदा बटाटा, लसूण शॉप","Type":"Market","Rating":"4.8","Review Count":"4","Address":"XQGC+4QM, Lekhanagar Colony, Shanti Nagar, Lekha Nagar, Nashik, Maharashtra 422009, India","Maps Link":"https://maps.google.com/?cid=15777765234133015647&g_mp=Cidnb29nbGUubWFwcy5wbGFjZXMudjEuUGxhY2VzLlNlYXJjaFRleHQQAhgEIAA"}},{"type":"Feature","geometry":{"type":"Point","coordinates":[73.8394318,19.94708]},"properties":{"Tier":"1","Taluka":"Nashik","Zone":"Nashik Road","Category":"APMC / Wholesale Market","Name":"Onion Traders, Exporters and Wholesale supplier at Nashik by RJT Group","Type":"Food","Rating":"4.8","Review Count":"67","Phone":"098897 14024","Address":"Nashik Road, Opposite Sai Vyapar Bhavan, WRWQ+RQM, Rajwada Nagar, Deolali Gaon, Nashik, Maharashtra 422101, India","Opening Hours":"Monday: 9:00 AM – 8:00 PM | Tuesday: 9:00 AM – 8:00 PM | Wednesday: 9:00 AM – 8:00 PM | Thursday: 9:00 AM – 8:00 PM | Friday: 9:00 AM – 8:00 PM | Saturday: 9:00 AM – 8:00 PM | Sunday: 9:00 AM – 4:00 PM","Maps Link":"https://maps.google.com/?cid=16869400103494988315&g_mp=Cidnb29nbGUubWFwcy5wbGFjZXMudjEuUGxhY2VzLlNlYXJjaFRleHQQAhgEIAA"}},{"type":"Feature","geometry":{"type":"Point","coordinates":[73.8416139,19.949533]},"properties":{"Tier":"1","Taluka":"Nashik","Zone":"Nashik Road","Category":"Vegetable Bazaar","Name":"Jawahar Market","Type":"Market","Rating":"4.1","Review Count":"82","Address":"Rajwada Nagar, Nashik Road, गोरवाडी, Nashik, Maharashtra 422101, India","Opening Hours":"Monday: 11:00 AM – 6:00 PM | Tuesday: 11:00 AM – 6:00 PM | Wednesday: 11:00 AM – 6:00 PM | Thursday: 11:00 AM – 6:00 PM | Friday: 11:00 AM – 6:00 PM | Saturday: 11:00 AM – 6:00 PM | Sunday: Closed","Maps Link":"https://maps.google.com/?cid=12651106077855012372&g_mp=Cidnb29nbGUubWFwcy5wbGFjZXMudjEuUGxhY2VzLlNlYXJjaFRleHQQAhgEIAA"}},{"type":"Feature","geometry":{"type":"Point","coordinates":[73.7936299,19.993564]},"properties":{"Tier":"1","Taluka":"Nashik","Zone":"Nashik Road","Category":"Vegetable Bazaar","Name":"Kapote Meher Market","Type":"Market","Rating":"3.7","Review Count":"239","Address":"XQVV+CFC, Near Dwarka, Wadala Naka, Dwarka, Nashik, Maharashtra 422001, India","Opening Hours":"Monday: 10:00 AM – 10:00 PM | Tuesday: 10:00 AM – 10:00 PM | Wednesday: 10:00 AM – 10:00 PM | Thursday: 10:00 AM – 10:00 PM | Friday: 10:00 AM – 10:00 PM | Saturday: 10:00 AM – 10:00 PM | Sunday: Closed","Maps Link":"https://maps.google.com/?cid=14895794934568130231&g_mp=Cidnb29nbGUubWFwcy5wbGFjZXMudjEuUGxhY2VzLlNlYXJjaFRleHQQAhgEIAA"}},{"type":"Feature","geometry":{"type":"Point","coordinates":[73.8483969,19.9509979]},"properties":{"Tier":"1","Taluka":"Nashik","Zone":"Nashik Road","Category":"Vegetable Bazaar","Name":"Krushi Utpann Bazar Samiti","Type":"Farmers' Market","Rating":"4","Review Count":"48","Address":"XR2X+99R, Bridge Nagar, Nashik, Maharashtra 422101, India","Maps Link":"https://maps.google.com/?cid=684462060836557839&g_mp=Cidnb29nbGUubWFwcy5wbGFjZXMudjEuUGxhY2VzLlNlYXJjaFRleHQQAhgEIAA"}},{"type":"Feature","geometry":{"type":"Point","coordinates":[73.7994894,19.9803551]},"properties":{"Tier":"1","Taluka":"Nashik","Zone":"Nashik Road","Category":"Vegetable Bazaar","Name":"Manoj Vegetables and fruit market","Type":"Food Store","Rating":"4.5","Review Count":"22","Address":"Pralhad Arcade, Ashoka Marg, Happy Home Colony, Gulshan Colony, Nashik, Maharashtra 422011, India","Opening Hours":"Monday: 8:00 AM – 10:00 PM | Tuesday: 8:00 AM – 10:00 PM | Wednesday: 8:00 AM – 10:00 PM | Thursday: 8:00 AM – 10:00 PM | Friday: 8:00 AM – 10:00 PM | Saturday: 8:00 AM – 10:00 PM | Sunday: 8:00 AM – 10:00 PM","Maps Link":"https://maps.google.com/?cid=74784783763606355&g_mp=Cidnb29nbGUubWFwcy5wbGFjZXMudjEuUGxhY2VzLlNlYXJjaFRleHQQAhgEIAA"}},{"type":"Feature","geometry":{"type":"Point","coordinates":[73.8326526,19.9430752]},"properties":{"Tier":"1","Taluka":"Nashik","Zone":"Nashik Road","Category":"Vegetable Bazaar","Name":"Somwar Bazaar","Type":"Market","Rating":"3.8","Review Count":"140","Address":"WRVM+63J, Deolali Gaon, Nashik, Maharashtra 422102, India","Opening Hours":"Monday: 8:00 AM – 9:00 PM | Tuesday: 8:00 AM – 9:00 PM | Wednesday: 8:00 AM – 9:00 PM | Thursday: 8:00 AM – 9:00 PM | Friday: 8:00 AM – 9:00 PM | Saturday: 8:00 AM – 9:00 PM | Sunday: 8:00 AM – 9:00 PM","Maps Link":"https://maps.google.com/?cid=16381672437634395401&g_mp=Cidnb29nbGUubWFwcy5wbGFjZXMudjEuUGxhY2VzLlNlYXJjaFRleHQQAhgEIAA"}},{"type":"Feature","geometry":{"type":"Point","coordinates":[73.7691405,19.9569001]},"properties":{"Tier":"1","Taluka":"Nashik","Zone":"Nashik Road","Category":"Other Produce Market","Name":"ADITYA VEGETABLES","Type":"Food Store","Rating":"2.5","Review Count":"2","Phone":"083294 89512","Address":"Shop No 1, near Gamane Ground, Wasan Nagar, Pathardi Phata, Nashik, Maharashtra 422009, India","Opening Hours":"Monday: 9:00 AM – 9:30 PM | Tuesday: 9:00 AM – 9:30 PM | Wednesday: 9:00 AM – 9:30 PM | Thursday: 9:00 AM – 9:30 PM | Friday: 9:00 AM – 9:30 PM | Saturday: 9:00 AM – 9:30 PM | Sunday: 9:00 AM – 9:30 PM","Maps Link":"https://maps.google.com/?cid=14952822540875832594&g_mp=Cidnb29nbGUubWFwcy5wbGFjZXMudjEuUGxhY2VzLlNlYXJjaFRleHQQAhgEIAA"}},{"type":"Feature","geometry":{"type":"Point","coordinates":[73.7792264,19.9781729]},"properties":{"Tier":"1","Taluka":"Nashik","Zone":"Nashik Road","Category":"Other Produce Market","Name":"Isha Vegetables","Type":"Wholesaler","Rating":"4.8","Review Count":"4","Phone":"095954 72703","Address":"6th floor office no 6018, Roongta Shopping Hub, Underpass, Indira Nagar, Nashik, Maharashtra 422009, India","Website":"https://ishavegetables.wordpress.com/","Opening Hours":"Monday: Open 24 hours | Tuesday: Open 24 hours | Wednesday: Open 24 hours | Thursday: Open 24 hours | Friday: Open 24 hours | Saturday: Open 24 hours | Sunday: Open 24 hours","Maps Link":"https://maps.google.com/?cid=7314737078058388821&g_mp=Cidnb29nbGUubWFwcy5wbGFjZXMudjEuUGxhY2VzLlNlYXJjaFRleHQQAhgEIAA"}},{"type":"Feature","geometry":{"type":"Point","coordinates":[73.7692297,19.9566001]},"properties":{"Tier":"1","Taluka":"Nashik","Zone":"Nashik Road","Category":"Other Produce Market","Name":"JAYESHRI VEGETABLES","Type":"Food Store","Rating":"5","Review Count":"2","Phone":"086238 21431","Address":"Shop No. 3 , Bhaji Market Gamane Mala, Nagre Nagar, Dnyaneshwar Nagar, Pathardi Phata, Nashik, Maharashtra 422009, India","Maps Link":"https://maps.google.com/?cid=4388255478738583869&g_mp=Cidnb29nbGUubWFwcy5wbGFjZXMudjEuUGxhY2VzLlNlYXJjaFRleHQQAhgEIAA"}},{"type":"Feature","geometry":{"type":"Point","coordinates":[73.7810978,19.9670204]},"properties":{"Tier":"1","Taluka":"Nashik","Zone":"Nashik Road","Category":"Other Produce Market","Name":"Laxmi Vegetables","Type":"Food Store","Rating":"5","Review Count":"1","Phone":"086687 45793","Address":"Wadala Parisar, 889/73, Sarthak Nagar Rd, Pandav Nagari, Pathardi Phata, Nashik, Maharashtra 422009, India","Maps Link":"https://maps.google.com/?cid=7368530607268835398&g_mp=Cidnb29nbGUubWFwcy5wbGFjZXMudjEuUGxhY2VzLlNlYXJjaFRleHQQAhgEIAA"}},{"type":"Feature","geometry":{"type":"Point","coordinates":[73.7628709,19.9533239]},"properties":{"Tier":"1","Taluka":"Nashik","Zone":"Nashik Road","Category":"Other Produce Market","Name":"Mauli Vegetables","Type":"Food Store","Rating":"5","Review Count":"1","Phone":"093598 87701","Address":"Bhaji Market, near Sai Baba Mandir, Ayodhya Colony, Prashant Nagar, Pathardi Phata, Nashik, Maharashtra 422010, India","Maps Link":"https://maps.google.com/?cid=7496682875777943943&g_mp=Cidnb29nbGUubWFwcy5wbGFjZXMudjEuUGxhY2VzLlNlYXJjaFRleHQQAhgEIAA"}},{"type":"Feature","geometry":{"type":"Point","coordinates":[73.7692096,19.9569679]},"properties":{"Tier":"1","Taluka":"Nashik","Zone":"Nashik Road","Category":"Other Produce Market","Name":"Sagar Vegetables","Type":"Food Store","Review Count":"0","Phone":"078419 17859","Address":"Shop No 1, Gramane Mala Vegetable Market, Wasan Road, Nagre Nagar, Dnyaneshwar Nagar, Pathardi Phata, Nashik, Maharashtra 422009, India","Maps Link":"https://maps.google.com/?cid=524413560308398780&g_mp=Cidnb29nbGUubWFwcy5wbGFjZXMudjEuUGxhY2VzLlNlYXJjaFRleHQQAhgEIAA"}},{"type":"Feature","geometry":{"type":"Point","coordinates":[73.8292646,19.9562907]},"properties":{"Tier":"1","Taluka":"Nashik","Zone":"Nashik Road","Category":"Other Produce Market","Name":"Sahyadri Farms, Nasik Road Franchisee","Type":"Market","Rating":"4.1","Review Count":"256","Phone":"076203 18069","Address":"Shop No. 5, Ne. Ekmukhi Dutt Mandir, Krishna Apartment, Khande Mala Road, Gayakhe Colony, Nashik Road, Nashik, Maharashtra 422101, India","Opening Hours":"Monday: 9:00 AM – 9:30 PM | Tuesday: 9:00 AM – 9:30 PM | Wednesday: 9:00 AM – 9:30 PM | Thursday: 9:00 AM – 9:30 PM | Friday: 9:00 AM – 9:30 PM | Saturday: 9:00 AM – 9:30 PM | Sunday: 9:00 AM – 9:30 PM","Maps Link":"https://maps.google.com/?cid=11908059609032158222&g_mp=Cidnb29nbGUubWFwcy5wbGFjZXMudjEuUGxhY2VzLlNlYXJjaFRleHQQAhgEIAA"}},{"type":"Feature","geometry":{"type":"Point","coordinates":[73.769156,19.9570899]},"properties":{"Tier":"1","Taluka":"Nashik","Zone":"Nashik Road","Category":"Other Produce Market","Name":"Shree Saptashrungi Vegetables","Type":"Market","Rating":"4","Review Count":"110","Address":"XQ49+RMJ, Dnyaneshwar Nagar, Pathardi Phata, Nashik, Maharashtra 422009, India","Opening Hours":"Monday: 7:00 AM – 9:00 PM | Tuesday: 7:00 AM – 9:00 PM | Wednesday: 7:00 AM – 9:00 PM | Thursday: 7:00 AM – 9:00 PM | Friday: 7:00 AM – 9:00 PM | Saturday: 7:00 AM – 9:00 PM | Sunday: 7:00 AM – 9:00 PM","Maps Link":"https://maps.google.com/?cid=9785394316069932542&g_mp=Cidnb29nbGUubWFwcy5wbGFjZXMudjEuUGxhY2VzLlNlYXJjaFRleHQQAhgEIAA"}},{"type":"Feature","geometry":{"type":"Point","coordinates":[73.7245195,19.989574]},"properties":{"Tier":"1","Taluka":"Nashik","Zone":"Satpur","Category":"Vegetable Bazaar","Name":"Bharat Ratna Dr.Babasaheb Ambedkar Market","Type":"Market","Rating":"4","Review Count":"130","Address":"Babasaheb Ambedkar Market, Dr. Ambedkar Market, MHB Colony, Satpur Colony, Nashik, Maharashtra 422007, India","Opening Hours":"Monday: 8:00 AM – 9:00 PM | Tuesday: 8:00 AM – 9:00 PM | Wednesday: 8:00 AM – 9:00 PM | Thursday: 8:00 AM – 9:00 PM | Friday: 8:00 AM – 9:00 PM | Saturday: 8:00 AM – 9:00 PM | Sunday: 8:00 AM – 9:00 PM","Maps Link":"https://maps.google.com/?cid=1505358216353675397&g_mp=Cidnb29nbGUubWFwcy5wbGFjZXMudjEuUGxhY2VzLlNlYXJjaFRleHQQAhgEIAA"}},{"type":"Feature","geometry":{"type":"Point","coordinates":[73.7714961,19.9750728]},"properties":{"Tier":"1","Taluka":"Nashik","Zone":"Satpur","Category":"Other Produce Market","Name":"HIRAI VEGETABLES Mr Amol Prakash Medran","Type":"Food Store","Rating":"5","Review Count":"1","Phone":"083080 81437","Address":"Shop No.6, Bhaji Market, Shivaji Market, Lekha Nagar Bypass Rd, Shanti Nagar, Cidco, Nashik, Maharashtra 422009, India","Maps Link":"https://maps.google.com/?cid=3107123379986424621&g_mp=Cidnb29nbGUubWFwcy5wbGFjZXMudjEuUGxhY2VzLlNlYXJjaFRleHQQAhgEIAA"}},{"type":"Feature","geometry":{"type":"Point","coordinates":[73.7715019,19.9747195]},"properties":{"Tier":"1","Taluka":"Nashik","Zone":"Cidco / Gangapur","Category":"Other Produce Market","Name":"Hirai Vegetable Centre And Fruit Suppler","Type":"Food Store","Rating":"4.4","Review Count":"5","Phone":"095187 40906","Address":"Lekha Nagar, Shivaji Chowk, Shopping Centre, Cidco, Nashik, Maharashtra 411002, India","Maps Link":"https://maps.google.com/?cid=8627545359858627602&g_mp=Cidnb29nbGUubWFwcy5wbGFjZXMudjEuUGxhY2VzLlNlYXJjaFRleHQQAhgEIAA"}},{"type":"Feature","geometry":{"type":"Point","coordinates":[73.7589733,20.0139546]},"properties":{"Tier":"1","Taluka":"Nashik","Zone":"Cidco / Gangapur","Category":"Other Produce Market","Name":"SS VEGETABLES","Type":"Food Store","Rating":"5","Review Count":"3","Phone":"089751 90965","Address":"Shop No1, Gangapur Rd, near Akashwani Tower, Abhyuday Colony, Purnvad Nagar, Nashik, Maharashtra 422013, India","Maps Link":"https://maps.google.com/?cid=11690206700721352162&g_mp=Cidnb29nbGUubWFwcy5wbGFjZXMudjEuUGxhY2VzLlNlYXJjaFRleHQQAhgEIAA"}},{"type":"Feature","geometry":{"type":"Point","coordinates":[73.8125695,19.8511133]},"properties":{"Tier":"1","Taluka":"Nashik","Zone":"Devlali Camp & Deolali Gaon","Category":"Vegetable Bazaar","Name":"Chatrapati Shivaji Maharaj Daily Market","Type":"Market","Rating":"3.8","Review Count":"42","Address":"Shivaji Chawk, Lahavit, VR27+C2W, Lahavit, Maharashtra 422502, India","Opening Hours":"Monday: 5:00 AM – 9:00 PM | Tuesday: 5:00 AM – 9:00 PM | Wednesday: 5:00 AM – 9:00 PM | Thursday: 5:00 AM – 9:00 PM | Friday: 5:00 AM – 9:00 PM | Saturday: 5:00 AM – 9:00 PM | Sunday: 5:00 AM – 9:00 PM","Maps Link":"https://maps.google.com/?cid=7238488951806432879&g_mp=Cidnb29nbGUubWFwcy5wbGFjZXMudjEuUGxhY2VzLlNlYXJjaFRleHQQAhgEIAA"}},{"type":"Feature","geometry":{"type":"Point","coordinates":[73.827725,19.901733]},"properties":{"Tier":"1","Taluka":"Nashik","Zone":"Devlali Camp & Deolali Gaon","Category":"Vegetable Bazaar","Name":"Lewitt Market","Type":"Market","Rating":"4.1","Review Count":"2396","Phone":"088305 42607","Address":"Deolali Camp, Nashik, Sansari, Maharashtra 422401, India","Opening Hours":"Monday: Closed | Tuesday: 10:00 AM – 9:00 PM | Wednesday: 10:00 AM – 9:00 PM | Thursday: 10:00 AM – 9:00 PM | Friday: 10:00 AM – 10:00 PM | Saturday: 10:00 AM – 10:00 PM | Sunday: 10:00 AM – 10:00 PM","Maps Link":"https://maps.google.com/?cid=1619506368906366738&g_mp=Cidnb29nbGUubWFwcy5wbGFjZXMudjEuUGxhY2VzLlNlYXJjaFRleHQQAhgEIAA"}},{"type":"Feature","geometry":{"type":"Point","coordinates":[73.8267212,19.9014989]},"properties":{"Tier":"1","Taluka":"Nashik","Zone":"Devlali Camp & Deolali Gaon","Category":"Vegetable Bazaar","Name":"Livit market near bhharee majid","Type":"Wholesaler","Review Count":"0","Address":"Chavani Parishad, 27/E/27/35, Deolali Gaon, Nashik, Sansari, Maharashtra 422401, India","Maps Link":"https://maps.google.com/?cid=6661014181456112656&g_mp=Cidnb29nbGUubWFwcy5wbGFjZXMudjEuUGxhY2VzLlNlYXJjaFRleHQQAhgEIAA"}},{"type":"Feature","geometry":{"type":"Point","coordinates":[73.8770373,19.9817028]},"properties":{"Tier":"1","Taluka":"Nashik","Zone":"Devlali Camp & Deolali Gaon","Category":"Vegetable Bazaar","Name":"NTPS Market","Type":"Market","Rating":"3.8","Review Count":"214","Address":"XVJG+MRM, NTPS Colony, Eklahare, Maharashtra 422105, India","Opening Hours":"Monday: 8:00 AM – 1:00 PM, 3:00 – 9:00 PM | Tuesday: 8:00 AM – 1:00 PM, 3:00 – 9:00 PM | Wednesday: 8:00 AM – 1:00 PM, 3:00 – 9:00 PM | Thursday: 8:00 AM – 1:00 PM, 3:00 – 9:00 PM | Friday: 8:00 AM – 1:00 PM, 3:00 – 9:00 PM | Saturday: 8:00 AM – 1:00 PM, 3:00 – 9:00 PM | Sunday: 8:00 AM – 1:00 PM, 3:00 – 9:00 PM","Maps Link":"https://maps.google.com/?cid=8296618710996330993&g_mp=Cidnb29nbGUubWFwcy5wbGFjZXMudjEuUGxhY2VzLlNlYXJjaFRleHQQAhgEIAA"}},{"type":"Feature","geometry":{"type":"Point","coordinates":[73.838353,19.875304]},"properties":{"Tier":"1","Taluka":"Nashik","Zone":"Devlali Camp & Deolali Gaon","Category":"Vegetable Bazaar","Name":"Shivadnya Super Market","Type":"Market","Rating":"4.9","Review Count":"8","Address":"29/1/63, Pandhurli Rd, Radha Balkrushna Nagar, Vijay Nagar, Devlali, Maharashtra 422401, India","Opening Hours":"Monday: 9:00 AM – 10:00 PM | Tuesday: 9:00 AM – 10:00 PM | Wednesday: 9:00 AM – 10:00 PM | Thursday: 9:00 AM – 10:00 PM | Friday: 9:00 AM – 10:00 PM | Saturday: 9:00 AM – 10:00 PM | Sunday: 9:00 AM – 10:00 PM","Maps Link":"https://maps.google.com/?cid=7994832869723886375&g_mp=Cidnb29nbGUubWFwcy5wbGFjZXMudjEuUGxhY2VzLlNlYXJjaFRleHQQAhgEIAA"}},{"type":"Feature","geometry":{"type":"Point","coordinates":[73.8309953,19.9027703]},"properties":{"Tier":"1","Taluka":"Nashik","Zone":"Devlali Camp & Deolali Gaon","Category":"Vegetable Bazaar","Name":"Sunday Weekly Market","Type":"Market","Rating":"4.2","Review Count":"572","Address":"1003, Howson Rd, Deolali Camp, Sansari, Maharashtra 422401, India","Opening Hours":"Monday: Closed | Tuesday: 10:05 AM – 8:00 PM | Wednesday: 10:05 AM – 8:00 PM | Thursday: 10:05 AM – 8:00 PM | Friday: 10:05 AM – 8:00 PM | Saturday: 10:05 AM – 8:00 PM | Sunday: 8:05 AM – 8:00 PM","Maps Link":"https://maps.google.com/?cid=2206643758342905381&g_mp=Cidnb29nbGUubWFwcy5wbGFjZXMudjEuUGxhY2VzLlNlYXJjaFRleHQQAhgEIAA"}},{"type":"Feature","geometry":{"type":"Point","coordinates":[73.830245,19.9020089]},"properties":{"Tier":"1","Taluka":"Nashik","Zone":"Devlali Camp & Deolali Gaon","Category":"Other Produce Market","Name":"Matoshree Vegetables Center","Type":"Store","Rating":"5","Review Count":"1","Phone":"098504 48185","Address":"Shop No 2, Lam Rd, near Lewit Market, Deolali Camp, Nashik, Sansari, Maharashtra 422401, India","Maps Link":"https://maps.google.com/?cid=7933242519286048255&g_mp=Cidnb29nbGUubWFwcy5wbGFjZXMudjEuUGxhY2VzLlNlYXJjaFRleHQQAhgEIAA"}},{"type":"Feature","geometry":{"type":"Point","coordinates":[73.5304117,19.9339811]},"properties":{"Tier":"2","Taluka":"Trimbakeshwar","Zone":"Trimbakeshwar Town","Category":"Other Produce Market","Name":"Rohit Vegetables Center","Type":"Food Store","Rating":"3","Review Count":"1","Phone":"089756 76716","Address":"Shop No 1, Patil Galli, near Bhaji Market, Trimbak, Maharashtra 422212, India","Maps Link":"https://maps.google.com/?cid=14524448003136631740&g_mp=Cidnb29nbGUubWFwcy5wbGFjZXMudjEuUGxhY2VzLlNlYXJjaFRleHQQAhgEIAA"}},{"type":"Feature","geometry":{"type":"Point","coordinates":[73.5611065,19.6963259]},"properties":{"Tier":"2","Taluka":"Igatpuri","Zone":"Igatpuri","Category":"Bhaji Mandai","Name":"Chatrapati shivaji maharaj bhaji mandai","Type":"Market","Review Count":"0","Address":"Bhaji market, Mahindra Colony, Bajrang Wada, Igatpuri, Maharashtra 422403, India","Maps Link":"https://maps.google.com/?cid=8088451349500548499&g_mp=Cidnb29nbGUubWFwcy5wbGFjZXMudjEuUGxhY2VzLlNlYXJjaFRleHQQAhgEIAA"}},{"type":"Feature","geometry":{"type":"Point","coordinates":[73.625235,19.7146569]},"properties":{"Tier":"2","Taluka":"Igatpuri","Zone":"Igatpuri","Category":"Vegetable Bazaar","Name":"Bail Bazaar","Type":"Market","Rating":"3.9","Review Count":"56","Address":"Yogesh Bendke, ,Matru Pitru Chhaya,Prerna society, PJ7G+V39, Old Agra Rd, Ghoti, Sambhaji Nagar, Ghoti Budruk, Maharashtra 422402, India","Maps Link":"https://maps.google.com/?cid=14260807996810172932&g_mp=Cidnb29nbGUubWFwcy5wbGFjZXMudjEuUGxhY2VzLlNlYXJjaFRleHQQAhgEIAA"}},{"type":"Feature","geometry":{"type":"Point","coordinates":[73.4744167,19.6463022]},"properties":{"Tier":"2","Taluka":"Igatpuri","Zone":"Igatpuri","Category":"Vegetable Bazaar","Name":"KASARA MARKET","Type":"Market","Rating":"5","Review Count":"2","Address":"JFWF+GQF, Kasara Bk., Kasara, Maharashtra 421602, India","Maps Link":"https://maps.google.com/?cid=9713893006106010117&g_mp=Cidnb29nbGUubWFwcy5wbGFjZXMudjEuUGxhY2VzLlNlYXJjaFRleHQQAhgEIAA"}},{"type":"Feature","geometry":{"type":"Point","coordinates":[73.6271313,19.7161666]},"properties":{"Tier":"2","Taluka":"Igatpuri","Zone":"Igatpuri","Category":"Other Produce Market","Name":"Guruprasad vegetable","Type":"Wholesaler","Review Count":"0","Address":"Old Agra Rd, Ghoti, ghoti, Ghoti Budruk, Maharashtra 422402, India","Opening Hours":"Monday: Closed | Tuesday: 9:00 AM – 8:00 PM | Wednesday: 9:00 AM – 8:00 PM | Thursday: 9:00 AM – 8:00 PM | Friday: 9:00 AM – 8:00 PM | Saturday: 8:00 AM – 8:00 PM | Sunday: 9:00 AM – 8:00 PM","Maps Link":"https://maps.google.com/?cid=17986937109205871366&g_mp=Cidnb29nbGUubWFwcy5wbGFjZXMudjEuUGxhY2VzLlNlYXJjaFRleHQQAhgEIAA"}},{"type":"Feature","geometry":{"type":"Point","coordinates":[74.0054073,19.8459066]},"properties":{"Tier":"2","Taluka":"Sinnar","Zone":"Sinnar","Category":"Vegetable Bazaar","Name":"Sinnar Market Yard","Type":"Farmers' Market","Rating":"3.9","Review Count":"996","Address":"R2W4+957, SH23, Sinnar, Maharashtra 422103, India","Opening Hours":"Monday: 8:00 AM – 7:00 PM | Tuesday: 8:00 AM – 7:00 PM | Wednesday: 8:00 AM – 7:00 PM | Thursday: 8:00 AM – 7:00 PM | Friday: 8:00 AM – 7:00 PM | Saturday: 8:00 AM – 7:00 PM | Sunday: Open 24 hours","Maps Link":"https://maps.google.com/?cid=8235912727504038603&g_mp=Cidnb29nbGUubWFwcy5wbGFjZXMudjEuUGxhY2VzLlNlYXJjaFRleHQQAhgEIAA"}},{"type":"Feature","geometry":{"type":"Point","coordinates":[74.0020256,19.844838]},"properties":{"Tier":"2","Taluka":"Sinnar","Zone":"Sinnar","Category":"Other Produce Market","Name":"Sai Vegetable 2","Type":"Store","Rating":"5","Review Count":"1","Phone":"095290 61170","Address":"Nashik Ves, Sinnar, Maharashtra 422103, India","Maps Link":"https://maps.google.com/?cid=14955546701762999052&g_mp=Cidnb29nbGUubWFwcy5wbGFjZXMudjEuUGxhY2VzLlNlYXJjaFRleHQQAhgEIAA"}},{"type":"Feature","geometry":{"type":"Point","coordinates":[73.9965889,19.8466415]},"properties":{"Tier":"2","Taluka":"Sinnar","Zone":"Sinnar","Category":"Other Produce Market","Name":"Sai Vegetables","Type":"Food Store","Review Count":"0","Phone":"098227 20847","Address":"Ganga Ves, Bhaji Market, Main Rd, Sinnar, Maharashtra 422103, India","Maps Link":"https://maps.google.com/?cid=7025902612727950350&g_mp=Cidnb29nbGUubWFwcy5wbGFjZXMudjEuUGxhY2VzLlNlYXJjaFRleHQQAhgEIAA"}},{"type":"Feature","geometry":{"type":"Point","coordinates":[73.8903958,20.1600968]},"properties":{"Tier":"2","Taluka":"Dindori","Zone":"Dindori","Category":"Farmers Market","Name":"Billionaire Farmers","Type":"Farmers' Market","Rating":"3.8","Review Count":"4","Address":"Opposite to Sahyadri Farms,At post Mohadi, Tal. Dindori , Dist, Mohadi, Maharashtra 422207, India","Opening Hours":"Monday: Open 24 hours | Tuesday: Open 24 hours | Wednesday: Open 24 hours | Thursday: Open 24 hours | Friday: Open 24 hours | Saturday: Open 24 hours | Sunday: Open 24 hours","Maps Link":"https://maps.google.com/?cid=11797433125310366569&g_mp=Cidnb29nbGUubWFwcy5wbGFjZXMudjEuUGxhY2VzLlNlYXJjaFRleHQQAhgEIAA"}},{"type":"Feature","geometry":{"type":"Point","coordinates":[73.8367666,20.2168344]},"properties":{"Tier":"2","Taluka":"Dindori","Zone":"Dindori","Category":"Other Produce Market","Name":"DS FRUIT AND VEGETABLE Suppliers","Type":"Food","Review Count":"0","Phone":"097633 38103","Address":"Krushi Uttapanna Bajar Samiti, Dindori, Maharashtra 422202, India","Maps Link":"https://maps.google.com/?cid=6944500544149961861&g_mp=Cidnb29nbGUubWFwcy5wbGFjZXMudjEuUGxhY2VzLlNlYXJjaFRleHQQAhgEIAA"}},{"type":"Feature","geometry":{"type":"Point","coordinates":[73.8320984,20.2048099]},"properties":{"Tier":"2","Taluka":"Dindori","Zone":"Dindori","Category":"Other Produce Market","Name":"Mangal Vegetable Mangalabai Balu Panpatil","Type":"Food Store","Rating":"3","Review Count":"2","Phone":"086984 26015","Address":"Shop Number 21, Vijay Nagar, Dindori, Maharashtra 422202, India","Maps Link":"https://maps.google.com/?cid=2761582392774433669&g_mp=Cidnb29nbGUubWFwcy5wbGFjZXMudjEuUGxhY2VzLlNlYXJjaFRleHQQAhgEIAA"}},{"type":"Feature","geometry":{"type":"Point","coordinates":[74.110147,20.0762096]},"properties":{"Tier":"2","Taluka":"Niphad","Zone":"Nashik–Shirdi Highway Corridor","Category":"APMC / Wholesale Market","Name":"Niphad SubMarket Yard (APMC Lasalgaon)","Type":"Services","Rating":"3.9","Review Count":"34","Phone":"02550 241 038","Address":"34G6+F3J, Niphad, Maharashtra 422303, India","Website":"http://www.facebook.com/APMCLSG","Maps Link":"https://maps.google.com/?cid=16029970180150640592&g_mp=Cidnb29nbGUubWFwcy5wbGFjZXMudjEuUGxhY2VzLlNlYXJjaFRleHQQAhgEIAA"}},{"type":"Feature","geometry":{"type":"Point","coordinates":[74.2207716,20.0979792]},"properties":{"Tier":"2","Taluka":"Niphad","Zone":"Nashik–Shirdi Highway Corridor","Category":"Vegetable Bazaar","Name":"Vinchur Market Yard","Type":"Market","Rating":"3.9","Review Count":"542","Address":"36XC+96W market yard, Vinchur, Maharashtra 422305, India","Opening Hours":"Monday: 9:00 AM – 5:00 PM | Tuesday: 9:00 AM – 5:00 PM | Wednesday: 9:00 AM – 5:00 PM | Thursday: 9:00 AM – 5:00 PM | Friday: 9:00 AM – 5:00 PM | Saturday: 9:00 AM – 5:00 PM | Sunday: Closed","Maps Link":"https://maps.google.com/?cid=3315999708360386209&g_mp=Cidnb29nbGUubWFwcy5wbGFjZXMudjEuUGxhY2VzLlNlYXJjaFRleHQQAhgEIAA"}},{"type":"Feature","geometry":{"type":"Point","coordinates":[74.1468175,20.0789624]},"properties":{"Tier":"2","Taluka":"Niphad","Zone":"Nashik–Shirdi Highway Corridor","Category":"Farmers Market","Name":"Bhagwat Gole home Farmers","Type":"Farmers' Market","Review Count":"0","Phone":"077200 12812","Address":"Unnamed Road, Niphad, Shriramnagar, Maharashtra 422303, India","Opening Hours":"Monday: Open 24 hours | Tuesday: Open 24 hours | Wednesday: Open 24 hours | Thursday: Open 24 hours | Friday: Open 24 hours | Saturday: Open 24 hours | Sunday: Open 24 hours","Maps Link":"https://maps.google.com/?cid=14629468915487244803&g_mp=Cidnb29nbGUubWFwcy5wbGFjZXMudjEuUGxhY2VzLlNlYXJjaFRleHQQAhgEIAA"}},{"type":"Feature","geometry":{"type":"Point","coordinates":[74.1674372,20.160653]},"properties":{"Tier":"2","Taluka":"Niphad","Zone":"Nashik–Shirdi Highway Corridor","Category":"Other Produce Market","Name":"Bhagvati Agro Export Fruit and Vegetables Company","Type":"Food","Rating":"5","Review Count":"13","Phone":"099210 45561","Address":"APMC Market, Khangaon Najik, Maharashtra 422304, India","Opening Hours":"Monday: 9:00 AM – 9:00 PM | Tuesday: 9:00 AM – 9:00 PM | Wednesday: 9:00 AM – 9:00 PM | Thursday: 9:00 AM – 9:00 PM | Friday: 9:00 AM – 9:00 PM | Saturday: 9:00 AM – 9:00 PM | Sunday: Closed","Maps Link":"https://maps.google.com/?cid=17218213560530409957&g_mp=Cidnb29nbGUubWFwcy5wbGFjZXMudjEuUGxhY2VzLlNlYXJjaFRleHQQAhgEIAA"}},{"type":"Feature","geometry":{"type":"Point","coordinates":[74.1668203,20.1626013]},"properties":{"Tier":"2","Taluka":"Niphad","Zone":"Nashik–Shirdi Highway Corridor","Category":"Other Produce Market","Name":"M M shinde fruits & vegetables company","Type":"Market","Rating":"5","Review Count":"2","Phone":"098223 33880","Address":"Niphad, Khangaon Najik, Maharashtra 422304, India","Maps Link":"https://maps.google.com/?cid=15862931380823600566&g_mp=Cidnb29nbGUubWFwcy5wbGFjZXMudjEuUGxhY2VzLlNlYXJjaFRleHQQAhgEIAA"}}]}