{"type":"FeatureCollection","features":[{"type":"Feature","geometry":{"type":"Point","coordinates":[73.807684,20.001257]},"properties":{"Name":"World of Titan Store","Address":"Devs Arcade Samarth Nagar, Nashik","locationConfidence":"approximate","Rating":"4.7","Review Count":"5,992 Ratings"}},{"type":"Feature","geometry":{"type":"Point","coordinates":[73.764568,19.988702]},"properties":{"Name":"Shree Mahalasa & Co","Address":"Untwadi Road Lavate Nagar, Nashik","locationConfidence":"locality-match","Rating":"4.8","Review Count":"1,058 Rating"}},{"type":"Feature","geometry":{"type":"Point","coordinates":[73.592306,19.953101]},"properties":{"Name":"Titan Nashik","Address":"Nashik Pune Road Nashik Road, Nashik","locationConfidence":"locality-match","Rating":"4.6","Review Count":"484 Ratings"}},{"type":"Feature","geometry":{"type":"Point","coordinates":[73.791037,20.008012]},"properties":{"Name":"Titan World Of Watches","Address":"Thatte Wadi Road College Road, Nashik","locationConfidence":"locality-match","Rating":"4.1","Review Count":"210 Ratings"}},{"type":"Feature","geometry":{"type":"Point","coordinates":[73.757179,19.998465]},"properties":{"Name":"Time Factory","Address":"Mahatma Nagar Road Parijat Nagar, Nashik","locationConfidence":"locality-match","Rating":"5.0","Review Count":"124 Ratings"}},{"type":"Feature","geometry":{"type":"Point","coordinates":[73.809243,20.004867]},"properties":{"Name":"Hakimi Watch And Sunglasses","Address":"Shop No 3 Anand Apartment Wadala Road, Nashik","locationConfidence":"approximate","Rating":"4.6","Review Count":"95 Ratings"}},{"type":"Feature","geometry":{"type":"Point","coordinates":[73.827675,19.957284]},"properties":{"Name":"G&G Gallery","Address":"Nasik Pune Road Nashik Road, Nashik","locationConfidence":"locality-match","Rating":"3.9","Review Count":"110 Ratings"}},{"type":"Feature","geometry":{"type":"Point","coordinates":[73.792656,19.993655]},"properties":{"Name":"Anupam Watch","Address":"Ojhar, Nashik","locationConfidence":"approximate","Rating":"4.0","Review Count":"75 Ratings"}},{"type":"Feature","geometry":{"type":"Point","coordinates":[73.824675,19.899268]},"properties":{"Name":"Bharat Watch House","Address":"Deolali Camp Howson Road, Deolali","locationConfidence":"locality-match","Rating":"4.8","Review Count":"51 Ratings"}},{"type":"Feature","geometry":{"type":"Point","coordinates":[73.795141,20.00951]},"properties":{"Name":"New Jawan Times","Address":"N.D Patel Road Nasik, Nashik","locationConfidence":"approximate","Rating":"4.8","Review Count":"41 Ratings"}}]}